[{"stateName":"AL","trendName":"#NFLDraft2016","placeID":"2364559","placeName":"Birmingham","searchUrl":"http:\/\/twitter.com\/search?q=%23NFLDraft2016","trendMapped":"nfl+draft2016","trendVolume":95992},{"stateName":"AL","trendName":"#VIEWS","placeID":"2364559","placeName":"Birmingham","searchUrl":"http:\/\/twitter.com\/search?q=%23VIEWS","trendMapped":"views","trendVolume":1096909},{"stateName":"AL","trendName":"Drake","placeID":"2364559","placeName":"Birmingham","searchUrl":"http:\/\/twitter.com\/search?q=Drake","trendMapped":"drake","trendVolume":911673},{"stateName":"AL","trendName":"Tiwa","placeID":"2364559","placeName":"Birmingham","searchUrl":"http:\/\/twitter.com\/search?q=Tiwa","trendMapped":"tiwa","trendVolume":90178},{"stateName":"AL","trendName":"Views","placeID":"2364559","placeName":"Birmingham","searchUrl":"http:\/\/twitter.com\/search?q=Views","trendMapped":"views","trendVolume":659083},{"stateName":"AZ","trendName":"#FelizDiaDelNi\u00f1o","placeID":"2508428","placeName":"Tucson","searchUrl":"http:\/\/twitter.com\/search?q=%23FelizDiaDelNi%C3%B1o","trendMapped":"feliz+dia+del+ni\u00f1o","trendVolume":50156},{"stateName":"AZ","trendName":"#InternationalDanceDay","placeID":"2449808","placeName":"Mesa","searchUrl":"http:\/\/twitter.com\/search?q=%23InternationalDanceDay","trendMapped":"international+dance+day","trendVolume":92175},{"stateName":"AZ","trendName":"#RDMA","placeID":"2508428","placeName":"Tucson","searchUrl":"http:\/\/twitter.com\/search?q=%23RDMA","trendMapped":"rdma","trendVolume":74984},{"stateName":"AZ","trendName":"#RIPHarrysHair","placeID":"2508428","placeName":"Tucson","searchUrl":"http:\/\/twitter.com\/search?q=%23RIPHarrysHair","trendMapped":"rip+harrys+hair","trendVolume":128784},{"stateName":"AZ","trendName":"#RIPJustinHair","placeID":"2508428","placeName":"Tucson","searchUrl":"http:\/\/twitter.com\/search?q=%23RIPJustinHair","trendMapped":"rip+justin+hair","trendVolume":94668},{"stateName":"AZ","trendName":"#VIEWS","placeID":"2471390","placeName":"Phoenix","searchUrl":"http:\/\/twitter.com\/search?q=%23VIEWS","trendMapped":"views","trendVolume":1089502},{"stateName":"AZ","trendName":"#WhatTheyDontWantUsToKnow","placeID":"2449808","placeName":"Mesa","searchUrl":"http:\/\/twitter.com\/search?q=%23WhatTheyDontWantUsToKnow","trendMapped":"what+they+dont+want+us+to+know","trendVolume":53463},{"stateName":"AZ","trendName":"#ZaynAppreciationDay","placeID":"2508428","placeName":"Tucson","searchUrl":"http:\/\/twitter.com\/search?q=%23ZaynAppreciationDay","trendMapped":"zayn+appreciation+day","trendVolume":67155},{"stateName":"AZ","trendName":"Bale","placeID":"2508428","placeName":"Tucson","searchUrl":"http:\/\/twitter.com\/search?q=Bale","trendMapped":"bale","trendVolume":99321},{"stateName":"AZ","trendName":"Drake","placeID":"2471390","placeName":"Phoenix","searchUrl":"http:\/\/twitter.com\/search?q=Drake","trendMapped":"drake","trendVolume":2147035},{"stateName":"AZ","trendName":"Titans","placeID":"2449808","placeName":"Mesa","searchUrl":"http:\/\/twitter.com\/search?q=Titans","trendMapped":"titans","trendVolume":87587},{"stateName":"AZ","trendName":"Tiwa","placeID":"2449808","placeName":"Mesa","searchUrl":"http:\/\/twitter.com\/search?q=Tiwa","trendMapped":"tiwa","trendVolume":90178},{"stateName":"AZ","trendName":"Wade","placeID":"2508428","placeName":"Tucson","searchUrl":"http:\/\/twitter.com\/search?q=Wade","trendMapped":"wade","trendVolume":129708},{"stateName":"CA","trendName":"#FelizDiaDelNi\u00f1o","placeID":"2441472","placeName":"Long Beach","searchUrl":"http:\/\/twitter.com\/search?q=%23FelizDiaDelNi%C3%B1o","trendMapped":"feliz+dia+del+ni\u00f1o","trendVolume":64299},{"stateName":"CA","trendName":"#InternationalDanceDay","placeID":"2488042","placeName":"San Jose","searchUrl":"http:\/\/twitter.com\/search?q=%23InternationalDanceDay","trendMapped":"international+dance+day","trendVolume":108437},{"stateName":"CA","trendName":"#RDMA","placeID":"2407517","placeName":"Fresno","searchUrl":"http:\/\/twitter.com\/search?q=%23RDMA","trendMapped":"rdma","trendVolume":76559},{"stateName":"CA","trendName":"#RIPHarrysHair","placeID":"2488042","placeName":"San Jose","searchUrl":"http:\/\/twitter.com\/search?q=%23RIPHarrysHair","trendMapped":"rip+harrys+hair","trendVolume":99261},{"stateName":"CA","trendName":"#RIPJustinHair","placeID":"2488042","placeName":"San Jose","searchUrl":"http:\/\/twitter.com\/search?q=%23RIPJustinHair","trendMapped":"rip+justin+hair","trendVolume":94668},{"stateName":"CA","trendName":"#VIEWS","placeID":"2487956","placeName":"San Francisco","searchUrl":"http:\/\/twitter.com\/search?q=%23VIEWS","trendMapped":"views","trendVolume":1083822},{"stateName":"CA","trendName":"#WhatTheyDontWantUsToKnow","placeID":"2441472","placeName":"Long Beach","searchUrl":"http:\/\/twitter.com\/search?q=%23WhatTheyDontWantUsToKnow","trendMapped":"what+they+dont+want+us+to+know","trendVolume":52651},{"stateName":"CA","trendName":"#ZaynAppreciationDay","placeID":"2441472","placeName":"Long Beach","searchUrl":"http:\/\/twitter.com\/search?q=%23ZaynAppreciationDay","trendMapped":"zayn+appreciation+day","trendVolume":67155},{"stateName":"CA","trendName":"Bale","placeID":"2488042","placeName":"San Jose","searchUrl":"http:\/\/twitter.com\/search?q=Bale","trendMapped":"bale","trendVolume":99321},{"stateName":"CA","trendName":"Betis","placeID":"2488042","placeName":"San Jose","searchUrl":"http:\/\/twitter.com\/search?q=Betis","trendMapped":"betis","trendVolume":102761},{"stateName":"CA","trendName":"Cook","placeID":"2442047","placeName":"Los Angeles","searchUrl":"http:\/\/twitter.com\/search?q=Cook","trendMapped":"cook","trendVolume":114905},{"stateName":"CA","trendName":"Drake","placeID":"2487956","placeName":"San Francisco","searchUrl":"http:\/\/twitter.com\/search?q=Drake","trendMapped":"drake","trendVolume":2245079},{"stateName":"CA","trendName":"Kenya","placeID":"2487956","placeName":"San Francisco","searchUrl":"http:\/\/twitter.com\/search?q=Kenya","trendMapped":"kenya","trendVolume":73699},{"stateName":"CA","trendName":"Luke","placeID":"2487956","placeName":"San Francisco","searchUrl":"http:\/\/twitter.com\/search?q=Luke","trendMapped":"luke","trendVolume":131048},{"stateName":"CA","trendName":"Luke Walton","placeID":"2407517","placeName":"Fresno","searchUrl":"http:\/\/twitter.com\/search?q=%22Luke+Walton%22","trendMapped":"Luke+Walton","trendVolume":108305},{"stateName":"CA","trendName":"Titans","placeID":"2441472","placeName":"Long Beach","searchUrl":"http:\/\/twitter.com\/search?q=Titans","trendMapped":"titans","trendVolume":61088},{"stateName":"CA","trendName":"Wade","placeID":"2488042","placeName":"San Jose","searchUrl":"http:\/\/twitter.com\/search?q=Wade","trendMapped":"wade","trendVolume":132343},{"stateName":"CA","trendName":"Wenger","placeID":"2442047","placeName":"Los Angeles","searchUrl":"http:\/\/twitter.com\/search?q=Wenger","trendMapped":"wenger","trendVolume":109990},{"stateName":"CO","trendName":"#FelizDiaDelNi\u00f1o","placeID":"2383489","placeName":"Colorado Springs","searchUrl":"http:\/\/twitter.com\/search?q=%23FelizDiaDelNi%C3%B1o","trendMapped":"feliz+dia+del+ni\u00f1o","trendVolume":55568},{"stateName":"CO","trendName":"#NFLDraft2016","placeID":"2391279","placeName":"Denver","searchUrl":"http:\/\/twitter.com\/search?q=%23NFLDraft2016","trendMapped":"nfl+draft2016","trendVolume":77811},{"stateName":"CO","trendName":"#RIPHarrysHair","placeID":"2383489","placeName":"Colorado Springs","searchUrl":"http:\/\/twitter.com\/search?q=%23RIPHarrysHair","trendMapped":"rip+harrys+hair","trendVolume":128784},{"stateName":"CO","trendName":"#RIPJustinHair","placeID":"2383489","placeName":"Colorado Springs","searchUrl":"http:\/\/twitter.com\/search?q=%23RIPJustinHair","trendMapped":"rip+justin+hair","trendVolume":95710},{"stateName":"CO","trendName":"#VIEWS","placeID":"2391279","placeName":"Denver","searchUrl":"http:\/\/twitter.com\/search?q=%23VIEWS","trendMapped":"views","trendVolume":1095665},{"stateName":"CO","trendName":"Bale","placeID":"2383489","placeName":"Colorado Springs","searchUrl":"http:\/\/twitter.com\/search?q=Bale","trendMapped":"bale","trendVolume":100128},{"stateName":"CO","trendName":"Betis","placeID":"2383489","placeName":"Colorado Springs","searchUrl":"http:\/\/twitter.com\/search?q=Betis","trendMapped":"betis","trendVolume":90103},{"stateName":"CO","trendName":"Tiwa","placeID":"2383489","placeName":"Colorado Springs","searchUrl":"http:\/\/twitter.com\/search?q=Tiwa","trendMapped":"tiwa","trendVolume":90178},{"stateName":"CO","trendName":"Wade","placeID":"2383489","placeName":"Colorado Springs","searchUrl":"http:\/\/twitter.com\/search?q=Wade","trendMapped":"wade","trendVolume":125599},{"stateName":"CO","trendName":"Wenger","placeID":"2383489","placeName":"Colorado Springs","searchUrl":"http:\/\/twitter.com\/search?q=Wenger","trendMapped":"wenger","trendVolume":107782},{"stateName":"CT","trendName":"#RIPHarrysHair","placeID":"2458410","placeName":"New Haven","searchUrl":"http:\/\/twitter.com\/search?q=%23RIPHarrysHair","trendMapped":"rip+harrys+hair","trendVolume":103846},{"stateName":"CT","trendName":"#VIEWS","placeID":"2458410","placeName":"New Haven","searchUrl":"http:\/\/twitter.com\/search?q=%23VIEWS","trendMapped":"views","trendVolume":454665},{"stateName":"CT","trendName":"Drake","placeID":"2458410","placeName":"New Haven","searchUrl":"http:\/\/twitter.com\/search?q=Drake","trendMapped":"drake","trendVolume":911673},{"stateName":"CT","trendName":"Giants","placeID":"2458410","placeName":"New Haven","searchUrl":"http:\/\/twitter.com\/search?q=Giants","trendMapped":"giants","trendVolume":116955},{"stateName":"CT","trendName":"Luke Walton","placeID":"2458410","placeName":"New Haven","searchUrl":"http:\/\/twitter.com\/search?q=%22Luke+Walton%22","trendMapped":"Luke+Walton","trendVolume":130883},{"stateName":"DC","trendName":"#RDMA","placeID":"2514815","placeName":"Washington","searchUrl":"http:\/\/twitter.com\/search?q=%23RDMA","trendMapped":"rdma","trendVolume":74984},{"stateName":"DC","trendName":"#RIPJustinHair","placeID":"2514815","placeName":"Washington","searchUrl":"http:\/\/twitter.com\/search?q=%23RIPJustinHair","trendMapped":"rip+justin+hair","trendVolume":95233},{"stateName":"DC","trendName":"Arsenal","placeID":"2514815","placeName":"Washington","searchUrl":"http:\/\/twitter.com\/search?q=Arsenal","trendMapped":"arsenal","trendVolume":237650},{"stateName":"DC","trendName":"Bale","placeID":"2514815","placeName":"Washington","searchUrl":"http:\/\/twitter.com\/search?q=Bale","trendMapped":"bale","trendVolume":99321},{"stateName":"DC","trendName":"Betis","placeID":"2514815","placeName":"Washington","searchUrl":"http:\/\/twitter.com\/search?q=Betis","trendMapped":"betis","trendVolume":99469},{"stateName":"DC","trendName":"Drake","placeID":"2514815","placeName":"Washington","searchUrl":"http:\/\/twitter.com\/search?q=Drake","trendMapped":"drake","trendVolume":1210165},{"stateName":"DC","trendName":"Myles Jack","placeID":"2514815","placeName":"Washington","searchUrl":"http:\/\/twitter.com\/search?q=%22Myles+Jack%22","trendMapped":"Myles+Jack","trendVolume":108358},{"stateName":"FL","trendName":"#RDMA","placeID":"2503863","placeName":"Tampa","searchUrl":"http:\/\/twitter.com\/search?q=%23RDMA","trendMapped":"rdma","trendVolume":76559},{"stateName":"FL","trendName":"#RIPHarrysHair","placeID":"2503863","placeName":"Tampa","searchUrl":"http:\/\/twitter.com\/search?q=%23RIPHarrysHair","trendMapped":"rip+harrys+hair","trendVolume":125871},{"stateName":"FL","trendName":"#VIEWS","placeID":"2503863","placeName":"Tampa","searchUrl":"http:\/\/twitter.com\/search?q=%23VIEWS","trendMapped":"views","trendVolume":1115522},{"stateName":"FL","trendName":"Barcelona","placeID":"2450022","placeName":"Miami","searchUrl":"http:\/\/twitter.com\/search?q=Barcelona","trendMapped":"barcelona","trendVolume":147380},{"stateName":"FL","trendName":"Betis","placeID":"2503863","placeName":"Tampa","searchUrl":"http:\/\/twitter.com\/search?q=Betis","trendMapped":"betis","trendVolume":102761},{"stateName":"FL","trendName":"Drake","placeID":"2503863","placeName":"Tampa","searchUrl":"http:\/\/twitter.com\/search?q=Drake","trendMapped":"drake","trendVolume":1356955},{"stateName":"FL","trendName":"Myles Jack","placeID":"2503863","placeName":"Tampa","searchUrl":"http:\/\/twitter.com\/search?q=%22Myles+Jack%22","trendMapped":"Myles+Jack","trendVolume":108358},{"stateName":"FL","trendName":"Raiders","placeID":"2503863","placeName":"Tampa","searchUrl":"http:\/\/twitter.com\/search?q=Raiders","trendMapped":"raiders","trendVolume":67095},{"stateName":"FL","trendName":"Views","placeID":"2503713","placeName":"Tallahassee","searchUrl":"http:\/\/twitter.com\/search?q=Views","trendMapped":"views","trendVolume":2481932},{"stateName":"FL","trendName":"Wade","placeID":"2503863","placeName":"Tampa","searchUrl":"http:\/\/twitter.com\/search?q=Wade","trendMapped":"wade","trendVolume":104937},{"stateName":"GA","trendName":"#FelizDiaDelNi\u00f1o","placeID":"2357024","placeName":"Atlanta","searchUrl":"http:\/\/twitter.com\/search?q=%23FelizDiaDelNi%C3%B1o","trendMapped":"feliz+dia+del+ni\u00f1o","trendVolume":59464},{"stateName":"GA","trendName":"#WhatTheyDontWantUsToKnow","placeID":"2357024","placeName":"Atlanta","searchUrl":"http:\/\/twitter.com\/search?q=%23WhatTheyDontWantUsToKnow","trendMapped":"what+they+dont+want+us+to+know","trendVolume":54132},{"stateName":"GA","trendName":"Bale","placeID":"2357024","placeName":"Atlanta","searchUrl":"http:\/\/twitter.com\/search?q=Bale","trendMapped":"bale","trendVolume":97686},{"stateName":"GA","trendName":"Betis","placeID":"2357024","placeName":"Atlanta","searchUrl":"http:\/\/twitter.com\/search?q=Betis","trendMapped":"betis","trendVolume":96094},{"stateName":"GA","trendName":"Drake","placeID":"2357024","placeName":"Atlanta","searchUrl":"http:\/\/twitter.com\/search?q=Drake","trendMapped":"drake","trendVolume":1234193},{"stateName":"GA","trendName":"Wade","placeID":"2357024","placeName":"Atlanta","searchUrl":"http:\/\/twitter.com\/search?q=Wade","trendMapped":"wade","trendVolume":129887},{"stateName":"GA","trendName":"Wenger","placeID":"2357024","placeName":"Atlanta","searchUrl":"http:\/\/twitter.com\/search?q=Wenger","trendMapped":"wenger","trendVolume":106496},{"stateName":"HI","trendName":"#VIEWS","placeID":"2423945","placeName":"Honolulu","searchUrl":"http:\/\/twitter.com\/search?q=%23VIEWS","trendMapped":"views","trendVolume":405286},{"stateName":"HI","trendName":"Donald Trump","placeID":"2423945","placeName":"Honolulu","searchUrl":"http:\/\/twitter.com\/search?q=%22Donald+Trump%22","trendMapped":"Donald+Trump","trendVolume":188059},{"stateName":"HI","trendName":"Drake","placeID":"2423945","placeName":"Honolulu","searchUrl":"http:\/\/twitter.com\/search?q=Drake","trendMapped":"drake","trendVolume":2255193},{"stateName":"IL","trendName":"#FelizDiaDelNi\u00f1o","placeID":"2379574","placeName":"Chicago","searchUrl":"http:\/\/twitter.com\/search?q=%23FelizDiaDelNi%C3%B1o","trendMapped":"feliz+dia+del+ni\u00f1o","trendVolume":54718},{"stateName":"IL","trendName":"#RDMA","placeID":"2379574","placeName":"Chicago","searchUrl":"http:\/\/twitter.com\/search?q=%23RDMA","trendMapped":"rdma","trendVolume":61663},{"stateName":"IL","trendName":"#RIPHarrysHair","placeID":"2379574","placeName":"Chicago","searchUrl":"http:\/\/twitter.com\/search?q=%23RIPHarrysHair","trendMapped":"rip+harrys+hair","trendVolume":127841},{"stateName":"IL","trendName":"#VIEWS","placeID":"2379574","placeName":"Chicago","searchUrl":"http:\/\/twitter.com\/search?q=%23VIEWS","trendMapped":"views","trendVolume":327559},{"stateName":"IL","trendName":"Betis","placeID":"2379574","placeName":"Chicago","searchUrl":"http:\/\/twitter.com\/search?q=Betis","trendMapped":"betis","trendVolume":90103},{"stateName":"IL","trendName":"Drake","placeID":"2379574","placeName":"Chicago","searchUrl":"http:\/\/twitter.com\/search?q=Drake","trendMapped":"drake","trendVolume":1261254},{"stateName":"IL","trendName":"Titans","placeID":"2379574","placeName":"Chicago","searchUrl":"http:\/\/twitter.com\/search?q=Titans","trendMapped":"titans","trendVolume":59094},{"stateName":"IL","trendName":"Wade","placeID":"2379574","placeName":"Chicago","searchUrl":"http:\/\/twitter.com\/search?q=Wade","trendMapped":"wade","trendVolume":134019},{"stateName":"IN","trendName":"#RIPHarrysHair","placeID":"2427032","placeName":"Indianapolis","searchUrl":"http:\/\/twitter.com\/search?q=%23RIPHarrysHair","trendMapped":"rip+harrys+hair","trendVolume":74448},{"stateName":"IN","trendName":"#VIEWS","placeID":"2427032","placeName":"Indianapolis","searchUrl":"http:\/\/twitter.com\/search?q=%23VIEWS","trendMapped":"views","trendVolume":1093800},{"stateName":"IN","trendName":"Drake","placeID":"2427032","placeName":"Indianapolis","searchUrl":"http:\/\/twitter.com\/search?q=Drake","trendMapped":"drake","trendVolume":2245359},{"stateName":"KY","trendName":"Drake","placeID":"2442327","placeName":"Louisville","searchUrl":"http:\/\/twitter.com\/search?q=Drake","trendMapped":"drake","trendVolume":1260100},{"stateName":"KY","trendName":"drake","placeID":"2442327","placeName":"Louisville","searchUrl":"http:\/\/twitter.com\/search?q=drake","trendMapped":"drake","trendVolume":1796065},{"stateName":"LA","trendName":"Drake","placeID":"2458833","placeName":"New Orleans","searchUrl":"http:\/\/twitter.com\/search?q=Drake","trendMapped":"drake","trendVolume":2169855},{"stateName":"LA","trendName":"Views","placeID":"2359991","placeName":"Baton Rouge","searchUrl":"http:\/\/twitter.com\/search?q=Views","trendMapped":"views","trendVolume":2619288},{"stateName":"MA","trendName":"#RIPHarrysHair","placeID":"2367105","placeName":"Boston","searchUrl":"http:\/\/twitter.com\/search?q=%23RIPHarrysHair","trendMapped":"rip+harrys+hair","trendVolume":132233},{"stateName":"MA","trendName":"#VIEWS","placeID":"2367105","placeName":"Boston","searchUrl":"http:\/\/twitter.com\/search?q=%23VIEWS","trendMapped":"views","trendVolume":559244},{"stateName":"MA","trendName":"#WhatTheyDontWantUsToKnow","placeID":"2367105","placeName":"Boston","searchUrl":"http:\/\/twitter.com\/search?q=%23WhatTheyDontWantUsToKnow","trendMapped":"what+they+dont+want+us+to+know","trendVolume":53463},{"stateName":"MA","trendName":"Betis","placeID":"2367105","placeName":"Boston","searchUrl":"http:\/\/twitter.com\/search?q=Betis","trendMapped":"betis","trendVolume":101796},{"stateName":"MA","trendName":"Drake","placeID":"2367105","placeName":"Boston","searchUrl":"http:\/\/twitter.com\/search?q=Drake","trendMapped":"drake","trendVolume":1124243},{"stateName":"MA","trendName":"Wade","placeID":"2367105","placeName":"Boston","searchUrl":"http:\/\/twitter.com\/search?q=Wade","trendMapped":"wade","trendVolume":104937},{"stateName":"MD","trendName":"#RDMA","placeID":"2358820","placeName":"Baltimore","searchUrl":"http:\/\/twitter.com\/search?q=%23RDMA","trendMapped":"rdma","trendVolume":70761},{"stateName":"MD","trendName":"#VIEWS","placeID":"2358820","placeName":"Baltimore","searchUrl":"http:\/\/twitter.com\/search?q=%23VIEWS","trendMapped":"views","trendVolume":453801},{"stateName":"MD","trendName":"Drake","placeID":"2358820","placeName":"Baltimore","searchUrl":"http:\/\/twitter.com\/search?q=Drake","trendMapped":"drake","trendVolume":1801154},{"stateName":"MD","trendName":"Views","placeID":"2358820","placeName":"Baltimore","searchUrl":"http:\/\/twitter.com\/search?q=Views","trendMapped":"views","trendVolume":788859},{"stateName":"MI","trendName":"#RIPHarrysHair","placeID":"2391585","placeName":"Detroit","searchUrl":"http:\/\/twitter.com\/search?q=%23RIPHarrysHair","trendMapped":"rip+harrys+hair","trendVolume":130347},{"stateName":"MI","trendName":"#VIEWS","placeID":"2391585","placeName":"Detroit","searchUrl":"http:\/\/twitter.com\/search?q=%23VIEWS","trendMapped":"views","trendVolume":296559},{"stateName":"MI","trendName":"#WhatTheyDontWantUsToKnow","placeID":"2391585","placeName":"Detroit","searchUrl":"http:\/\/twitter.com\/search?q=%23WhatTheyDontWantUsToKnow","trendMapped":"what+they+dont+want+us+to+know","trendVolume":53184},{"stateName":"MI","trendName":"Betis","placeID":"2391585","placeName":"Detroit","searchUrl":"http:\/\/twitter.com\/search?q=Betis","trendMapped":"betis","trendVolume":101796},{"stateName":"MI","trendName":"Drake","placeID":"2391585","placeName":"Detroit","searchUrl":"http:\/\/twitter.com\/search?q=Drake","trendMapped":"drake","trendVolume":2175069},{"stateName":"MI","trendName":"Lions","placeID":"2391585","placeName":"Detroit","searchUrl":"http:\/\/twitter.com\/search?q=Lions","trendMapped":"lions","trendVolume":84367},{"stateName":"MN","trendName":"#RDMA","placeID":"2452078","placeName":"Minneapolis","searchUrl":"http:\/\/twitter.com\/search?q=%23RDMA","trendMapped":"rdma","trendVolume":70761},{"stateName":"MN","trendName":"#VIEWS","placeID":"2452078","placeName":"Minneapolis","searchUrl":"http:\/\/twitter.com\/search?q=%23VIEWS","trendMapped":"views","trendVolume":1093800},{"stateName":"MN","trendName":"#WhatTheyDontWantUsToKnow","placeID":"2452078","placeName":"Minneapolis","searchUrl":"http:\/\/twitter.com\/search?q=%23WhatTheyDontWantUsToKnow","trendMapped":"what+they+dont+want+us+to+know","trendVolume":53184},{"stateName":"MN","trendName":"Bale","placeID":"2452078","placeName":"Minneapolis","searchUrl":"http:\/\/twitter.com\/search?q=Bale","trendMapped":"bale","trendVolume":79853},{"stateName":"MN","trendName":"Betis","placeID":"2452078","placeName":"Minneapolis","searchUrl":"http:\/\/twitter.com\/search?q=Betis","trendMapped":"betis","trendVolume":66664},{"stateName":"MN","trendName":"Drake","placeID":"2452078","placeName":"Minneapolis","searchUrl":"http:\/\/twitter.com\/search?q=Drake","trendMapped":"drake","trendVolume":2261781},{"stateName":"MO","trendName":"#NFLDraft","placeID":"2430683","placeName":"Kansas City","searchUrl":"http:\/\/twitter.com\/search?q=%23NFLDraft","trendMapped":"nfl+draft","trendVolume":219125},{"stateName":"MO","trendName":"#VIEWS","placeID":"2430683","placeName":"Kansas City","searchUrl":"http:\/\/twitter.com\/search?q=%23VIEWS","trendMapped":"views","trendVolume":669874},{"stateName":"MO","trendName":"Drake","placeID":"2486982","placeName":"St. Louis","searchUrl":"http:\/\/twitter.com\/search?q=Drake","trendMapped":"drake","trendVolume":2261781},{"stateName":"MS","trendName":"Drake","placeID":"2428184","placeName":"Jackson","searchUrl":"http:\/\/twitter.com\/search?q=Drake","trendMapped":"drake","trendVolume":2235128},{"stateName":"MS","trendName":"Views","placeID":"2428184","placeName":"Jackson","searchUrl":"http:\/\/twitter.com\/search?q=Views","trendMapped":"views","trendVolume":1614503},{"stateName":"NC","trendName":"#RIPHarrysHair","placeID":"2378426","placeName":"Charlotte","searchUrl":"http:\/\/twitter.com\/search?q=%23RIPHarrysHair","trendMapped":"rip+harrys+hair","trendVolume":128784},{"stateName":"NC","trendName":"#VIEWS","placeID":"2478307","placeName":"Raleigh","searchUrl":"http:\/\/twitter.com\/search?q=%23VIEWS","trendMapped":"views","trendVolume":598136},{"stateName":"NC","trendName":"Drake","placeID":"2478307","placeName":"Raleigh","searchUrl":"http:\/\/twitter.com\/search?q=Drake","trendMapped":"drake","trendVolume":2255193},{"stateName":"NC","trendName":"Jets","placeID":"2378426","placeName":"Charlotte","searchUrl":"http:\/\/twitter.com\/search?q=Jets","trendMapped":"jets","trendVolume":69501},{"stateName":"NC","trendName":"Views","placeID":"2414469","placeName":"Greensboro","searchUrl":"http:\/\/twitter.com\/search?q=Views","trendMapped":"views","trendVolume":823243},{"stateName":"NC","trendName":"Wade","placeID":"2478307","placeName":"Raleigh","searchUrl":"http:\/\/twitter.com\/search?q=Wade","trendMapped":"wade","trendVolume":134019},{"stateName":"NE","trendName":"#VIEWS","placeID":"2465512","placeName":"Omaha","searchUrl":"http:\/\/twitter.com\/search?q=%23VIEWS","trendMapped":"views","trendVolume":427186},{"stateName":"NE","trendName":"Drake","placeID":"2465512","placeName":"Omaha","searchUrl":"http:\/\/twitter.com\/search?q=Drake","trendMapped":"drake","trendVolume":2229110},{"stateName":"NE","trendName":"Views","placeID":"2465512","placeName":"Omaha","searchUrl":"http:\/\/twitter.com\/search?q=Views","trendMapped":"views","trendVolume":2612655},{"stateName":"NM","trendName":"#FelizDiaDelNi\u00f1o","placeID":"2352824","placeName":"Albuquerque","searchUrl":"http:\/\/twitter.com\/search?q=%23FelizDiaDelNi%C3%B1o","trendMapped":"feliz+dia+del+ni\u00f1o","trendVolume":64299},{"stateName":"NM","trendName":"#InternationalDanceDay","placeID":"2352824","placeName":"Albuquerque","searchUrl":"http:\/\/twitter.com\/search?q=%23InternationalDanceDay","trendMapped":"international+dance+day","trendVolume":108437},{"stateName":"NM","trendName":"#RDMA","placeID":"2352824","placeName":"Albuquerque","searchUrl":"http:\/\/twitter.com\/search?q=%23RDMA","trendMapped":"rdma","trendVolume":76559},{"stateName":"NM","trendName":"#RIPJustinHair","placeID":"2352824","placeName":"Albuquerque","searchUrl":"http:\/\/twitter.com\/search?q=%23RIPJustinHair","trendMapped":"rip+justin+hair","trendVolume":94668},{"stateName":"NM","trendName":"Bale","placeID":"2352824","placeName":"Albuquerque","searchUrl":"http:\/\/twitter.com\/search?q=Bale","trendMapped":"bale","trendVolume":93491},{"stateName":"NM","trendName":"Titans","placeID":"2352824","placeName":"Albuquerque","searchUrl":"http:\/\/twitter.com\/search?q=Titans","trendMapped":"titans","trendVolume":59094},{"stateName":"NM","trendName":"Tiwa","placeID":"2352824","placeName":"Albuquerque","searchUrl":"http:\/\/twitter.com\/search?q=Tiwa","trendMapped":"tiwa","trendVolume":88256},{"stateName":"NM","trendName":"Wade","placeID":"2352824","placeName":"Albuquerque","searchUrl":"http:\/\/twitter.com\/search?q=Wade","trendMapped":"wade","trendVolume":130264},{"stateName":"NV","trendName":"#VIEWS","placeID":"2436704","placeName":"Las Vegas","searchUrl":"http:\/\/twitter.com\/search?q=%23VIEWS","trendMapped":"views","trendVolume":223403},{"stateName":"NV","trendName":"Drake","placeID":"2436704","placeName":"Las Vegas","searchUrl":"http:\/\/twitter.com\/search?q=Drake","trendMapped":"drake","trendVolume":2251491},{"stateName":"NY","trendName":"#FelizDiaDelNi\u00f1o","placeID":"2459115","placeName":"New York","searchUrl":"http:\/\/twitter.com\/search?q=%23FelizDiaDelNi%C3%B1o","trendMapped":"feliz+dia+del+ni\u00f1o","trendVolume":51917},{"stateName":"NY","trendName":"#RIPHarrysHair","placeID":"2459115","placeName":"New York","searchUrl":"http:\/\/twitter.com\/search?q=%23RIPHarrysHair","trendMapped":"rip+harrys+hair","trendVolume":130347},{"stateName":"NY","trendName":"#RIPJustinHair","placeID":"2459115","placeName":"New York","searchUrl":"http:\/\/twitter.com\/search?q=%23RIPJustinHair","trendMapped":"rip+justin+hair","trendVolume":91879},{"stateName":"NY","trendName":"Bale","placeID":"2459115","placeName":"New York","searchUrl":"http:\/\/twitter.com\/search?q=Bale","trendMapped":"bale","trendVolume":97686},{"stateName":"NY","trendName":"Betis","placeID":"2459115","placeName":"New York","searchUrl":"http:\/\/twitter.com\/search?q=Betis","trendMapped":"betis","trendVolume":96094},{"stateName":"NY","trendName":"Drake","placeID":"2459115","placeName":"New York","searchUrl":"http:\/\/twitter.com\/search?q=Drake","trendMapped":"drake","trendVolume":1135812},{"stateName":"NY","trendName":"Luke Walton","placeID":"2459115","placeName":"New York","searchUrl":"http:\/\/twitter.com\/search?q=%22Luke+Walton%22","trendMapped":"Luke+Walton","trendVolume":108023},{"stateName":"NY","trendName":"Titans","placeID":"2459115","placeName":"New York","searchUrl":"http:\/\/twitter.com\/search?q=Titans","trendMapped":"titans","trendVolume":61088},{"stateName":"OH","trendName":"#FelizDiaDelNi\u00f1o","placeID":"2381475","placeName":"Cleveland","searchUrl":"http:\/\/twitter.com\/search?q=%23FelizDiaDelNi%C3%B1o","trendMapped":"feliz+dia+del+ni\u00f1o","trendVolume":50156},{"stateName":"OH","trendName":"#NFLDraft","placeID":"2383660","placeName":"Columbus","searchUrl":"http:\/\/twitter.com\/search?q=%23NFLDraft","trendMapped":"nfl+draft","trendVolume":214861},{"stateName":"OH","trendName":"#RDMA","placeID":"2381475","placeName":"Cleveland","searchUrl":"http:\/\/twitter.com\/search?q=%23RDMA","trendMapped":"rdma","trendVolume":76559},{"stateName":"OH","trendName":"#RIPHarrysHair","placeID":"2383660","placeName":"Columbus","searchUrl":"http:\/\/twitter.com\/search?q=%23RIPHarrysHair","trendMapped":"rip+harrys+hair","trendVolume":130347},{"stateName":"OH","trendName":"#VIEWS","placeID":"2381475","placeName":"Cleveland","searchUrl":"http:\/\/twitter.com\/search?q=%23VIEWS","trendMapped":"views","trendVolume":428992},{"stateName":"OH","trendName":"Bale","placeID":"2381475","placeName":"Cleveland","searchUrl":"http:\/\/twitter.com\/search?q=Bale","trendMapped":"bale","trendVolume":97686},{"stateName":"OH","trendName":"Betis","placeID":"2381475","placeName":"Cleveland","searchUrl":"http:\/\/twitter.com\/search?q=Betis","trendMapped":"betis","trendVolume":74455},{"stateName":"OH","trendName":"Drake","placeID":"2383660","placeName":"Columbus","searchUrl":"http:\/\/twitter.com\/search?q=Drake","trendMapped":"drake","trendVolume":2245079},{"stateName":"OH","trendName":"Views","placeID":"2383660","placeName":"Columbus","searchUrl":"http:\/\/twitter.com\/search?q=Views","trendMapped":"views","trendVolume":802520},{"stateName":"OH","trendName":"Wade","placeID":"2383660","placeName":"Columbus","searchUrl":"http:\/\/twitter.com\/search?q=Wade","trendMapped":"wade","trendVolume":125599},{"stateName":"OH","trendName":"Wenger","placeID":"2381475","placeName":"Cleveland","searchUrl":"http:\/\/twitter.com\/search?q=Wenger","trendMapped":"wenger","trendVolume":106433},{"stateName":"OK","trendName":"#VIEWS","placeID":"2464592","placeName":"Oklahoma City","searchUrl":"http:\/\/twitter.com\/search?q=%23VIEWS","trendMapped":"views","trendVolume":557295},{"stateName":"OK","trendName":"Drake","placeID":"2464592","placeName":"Oklahoma City","searchUrl":"http:\/\/twitter.com\/search?q=Drake","trendMapped":"drake","trendVolume":1124243},{"stateName":"OK","trendName":"Giants","placeID":"2464592","placeName":"Oklahoma City","searchUrl":"http:\/\/twitter.com\/search?q=Giants","trendMapped":"giants","trendVolume":109210},{"stateName":"OK","trendName":"Views","placeID":"2464592","placeName":"Oklahoma City","searchUrl":"http:\/\/twitter.com\/search?q=Views","trendMapped":"views","trendVolume":2623145},{"stateName":"OR","trendName":"#RIPJustinHair","placeID":"2475687","placeName":"Portland","searchUrl":"http:\/\/twitter.com\/search?q=%23RIPJustinHair","trendMapped":"rip+justin+hair","trendVolume":95233},{"stateName":"OR","trendName":"#VIEWS","placeID":"2475687","placeName":"Portland","searchUrl":"http:\/\/twitter.com\/search?q=%23VIEWS","trendMapped":"views","trendVolume":1100012},{"stateName":"OR","trendName":"Wade","placeID":"2475687","placeName":"Portland","searchUrl":"http:\/\/twitter.com\/search?q=Wade","trendMapped":"wade","trendVolume":131431},{"stateName":"PA","trendName":"#NFLDraft","placeID":"2473224","placeName":"Pittsburgh","searchUrl":"http:\/\/twitter.com\/search?q=%23NFLDraft","trendMapped":"nfl+draft","trendVolume":216272},{"stateName":"PA","trendName":"#RIPHarrysHair","placeID":"2473224","placeName":"Pittsburgh","searchUrl":"http:\/\/twitter.com\/search?q=%23RIPHarrysHair","trendMapped":"rip+harrys+hair","trendVolume":132233},{"stateName":"PA","trendName":"#RIPJustinHair","placeID":"2473224","placeName":"Pittsburgh","searchUrl":"http:\/\/twitter.com\/search?q=%23RIPJustinHair","trendMapped":"rip+justin+hair","trendVolume":93365},{"stateName":"PA","trendName":"#VIEWS","placeID":"2473224","placeName":"Pittsburgh","searchUrl":"http:\/\/twitter.com\/search?q=%23VIEWS","trendMapped":"views","trendVolume":377214},{"stateName":"PA","trendName":"#WhatTheyDontWantUsToKnow","placeID":"2473224","placeName":"Pittsburgh","searchUrl":"http:\/\/twitter.com\/search?q=%23WhatTheyDontWantUsToKnow","trendMapped":"what+they+dont+want+us+to+know","trendVolume":52651},{"stateName":"PA","trendName":"Bale","placeID":"2471217","placeName":"Philadelphia","searchUrl":"http:\/\/twitter.com\/search?q=Bale","trendMapped":"bale","trendVolume":93491},{"stateName":"PA","trendName":"Betis","placeID":"2473224","placeName":"Pittsburgh","searchUrl":"http:\/\/twitter.com\/search?q=Betis","trendMapped":"betis","trendVolume":100285},{"stateName":"PA","trendName":"Drake","placeID":"2473224","placeName":"Pittsburgh","searchUrl":"http:\/\/twitter.com\/search?q=Drake","trendMapped":"drake","trendVolume":2226077},{"stateName":"PA","trendName":"Jets","placeID":"2473224","placeName":"Pittsburgh","searchUrl":"http:\/\/twitter.com\/search?q=Jets","trendMapped":"jets","trendVolume":69501},{"stateName":"PA","trendName":"Luke Walton","placeID":"2473224","placeName":"Pittsburgh","searchUrl":"http:\/\/twitter.com\/search?q=%22Luke+Walton%22","trendMapped":"Luke+Walton","trendVolume":108412},{"stateName":"PA","trendName":"Myles Jack","placeID":"2471217","placeName":"Philadelphia","searchUrl":"http:\/\/twitter.com\/search?q=%22Myles+Jack%22","trendMapped":"Myles+Jack","trendVolume":109099},{"stateName":"PA","trendName":"Views","placeID":"2418046","placeName":"Harrisburg","searchUrl":"http:\/\/twitter.com\/search?q=Views","trendMapped":"views","trendVolume":2601225},{"stateName":"PA","trendName":"Wade","placeID":"2473224","placeName":"Pittsburgh","searchUrl":"http:\/\/twitter.com\/search?q=Wade","trendMapped":"wade","trendVolume":126582},{"stateName":"RI","trendName":"Drake","placeID":"2477058","placeName":"Providence","searchUrl":"http:\/\/twitter.com\/search?q=Drake","trendMapped":"drake","trendVolume":2235128},{"stateName":"RI","trendName":"Views","placeID":"2477058","placeName":"Providence","searchUrl":"http:\/\/twitter.com\/search?q=Views","trendMapped":"views","trendVolume":962651},{"stateName":"TN","trendName":"#RIPHarrysHair","placeID":"2457170","placeName":"Nashville","searchUrl":"http:\/\/twitter.com\/search?q=%23RIPHarrysHair","trendMapped":"rip+harrys+hair","trendVolume":79017},{"stateName":"TN","trendName":"#VIEWS","placeID":"2457170","placeName":"Nashville","searchUrl":"http:\/\/twitter.com\/search?q=%23VIEWS","trendMapped":"views","trendVolume":1089502},{"stateName":"TN","trendName":"Drake","placeID":"2457170","placeName":"Nashville","searchUrl":"http:\/\/twitter.com\/search?q=Drake","trendMapped":"drake","trendVolume":2219808},{"stateName":"TN","trendName":"Views","placeID":"2449323","placeName":"Memphis","searchUrl":"http:\/\/twitter.com\/search?q=Views","trendMapped":"views","trendVolume":855215},{"stateName":"TX","trendName":"#RIPHarrysHair","placeID":"2424766","placeName":"Houston","searchUrl":"http:\/\/twitter.com\/search?q=%23RIPHarrysHair","trendMapped":"rip+harrys+hair","trendVolume":119528},{"stateName":"TX","trendName":"#VIEWS","placeID":"2388929","placeName":"Dallas-Ft. Worth","searchUrl":"http:\/\/twitter.com\/search?q=%23VIEWS","trendMapped":"views","trendVolume":453801},{"stateName":"TX","trendName":"#ZaynAppreciationDay","placeID":"2388929","placeName":"Dallas-Ft. Worth","searchUrl":"http:\/\/twitter.com\/search?q=%23ZaynAppreciationDay","trendMapped":"zayn+appreciation+day","trendVolume":66848},{"stateName":"TX","trendName":"Betis","placeID":"2388929","placeName":"Dallas-Ft. Worth","searchUrl":"http:\/\/twitter.com\/search?q=Betis","trendMapped":"betis","trendVolume":82561},{"stateName":"TX","trendName":"Drake","placeID":"2487796","placeName":"San Antonio","searchUrl":"http:\/\/twitter.com\/search?q=Drake","trendMapped":"drake","trendVolume":2261781},{"stateName":"TX","trendName":"Myles Jack","placeID":"2388929","placeName":"Dallas-Ft. Worth","searchUrl":"http:\/\/twitter.com\/search?q=%22Myles+Jack%22","trendMapped":"Myles+Jack","trendVolume":98741},{"stateName":"TX","trendName":"Trump","placeID":"2397816","placeName":"El Paso","searchUrl":"http:\/\/twitter.com\/search?q=Trump","trendMapped":"trump","trendVolume":837119},{"stateName":"TX","trendName":"Views","placeID":"2487796","placeName":"San Antonio","searchUrl":"http:\/\/twitter.com\/search?q=Views","trendMapped":"views","trendVolume":1466014},{"stateName":"UT","trendName":"#VIEWS","placeID":"2487610","placeName":"Salt Lake City","searchUrl":"http:\/\/twitter.com\/search?q=%23VIEWS","trendMapped":"views","trendVolume":600189},{"stateName":"UT","trendName":"Drake","placeID":"2487610","placeName":"Salt Lake City","searchUrl":"http:\/\/twitter.com\/search?q=Drake","trendMapped":"drake","trendVolume":2251491},{"stateName":"VA","trendName":"#FelizDiaDelNi\u00f1o","placeID":"2512636","placeName":"Virginia Beach","searchUrl":"http:\/\/twitter.com\/search?q=%23FelizDiaDelNi%C3%B1o","trendMapped":"feliz+dia+del+ni\u00f1o","trendVolume":50156},{"stateName":"VA","trendName":"#RDMA","placeID":"2512636","placeName":"Virginia Beach","searchUrl":"http:\/\/twitter.com\/search?q=%23RDMA","trendMapped":"rdma","trendVolume":74984},{"stateName":"VA","trendName":"#RIPJustinHair","placeID":"2512636","placeName":"Virginia Beach","searchUrl":"http:\/\/twitter.com\/search?q=%23RIPJustinHair","trendMapped":"rip+justin+hair","trendVolume":89493},{"stateName":"VA","trendName":"Bale","placeID":"2512636","placeName":"Virginia Beach","searchUrl":"http:\/\/twitter.com\/search?q=Bale","trendMapped":"bale","trendVolume":79853},{"stateName":"VA","trendName":"Betis","placeID":"2512636","placeName":"Virginia Beach","searchUrl":"http:\/\/twitter.com\/search?q=Betis","trendMapped":"betis","trendVolume":101796},{"stateName":"VA","trendName":"Drake","placeID":"2480894","placeName":"Richmond","searchUrl":"http:\/\/twitter.com\/search?q=Drake","trendMapped":"drake","trendVolume":2235128},{"stateName":"VA","trendName":"Views","placeID":"2480894","placeName":"Richmond","searchUrl":"http:\/\/twitter.com\/search?q=Views","trendMapped":"views","trendVolume":2593884},{"stateName":"WA","trendName":"#NFLDraft2016","placeID":"2490383","placeName":"Seattle","searchUrl":"http:\/\/twitter.com\/search?q=%23NFLDraft2016","trendMapped":"nfl+draft2016","trendVolume":84396},{"stateName":"WA","trendName":"#RIPHarrysHair","placeID":"2490383","placeName":"Seattle","searchUrl":"http:\/\/twitter.com\/search?q=%23RIPHarrysHair","trendMapped":"rip+harrys+hair","trendVolume":130347},{"stateName":"WA","trendName":"#VIEWS","placeID":"2490383","placeName":"Seattle","searchUrl":"http:\/\/twitter.com\/search?q=%23VIEWS","trendMapped":"views","trendVolume":296559},{"stateName":"WA","trendName":"Betis","placeID":"2490383","placeName":"Seattle","searchUrl":"http:\/\/twitter.com\/search?q=Betis","trendMapped":"betis","trendVolume":102761},{"stateName":"WA","trendName":"Drake","placeID":"2490383","placeName":"Seattle","searchUrl":"http:\/\/twitter.com\/search?q=Drake","trendMapped":"drake","trendVolume":1231343},{"stateName":"WA","trendName":"Titans","placeID":"2490383","placeName":"Seattle","searchUrl":"http:\/\/twitter.com\/search?q=Titans","trendMapped":"titans","trendVolume":59094},{"stateName":"WA","trendName":"Wade","placeID":"2490383","placeName":"Seattle","searchUrl":"http:\/\/twitter.com\/search?q=Wade","trendMapped":"wade","trendVolume":130264},{"stateName":"WI","trendName":"Drake","placeID":"2451822","placeName":"Milwaukee","searchUrl":"http:\/\/twitter.com\/search?q=Drake","trendMapped":"drake","trendVolume":2236437},{"stateName":"XX","trendName":"#RIPHarrysHair","placeID":"23424977","placeName":"United States","searchUrl":"http:\/\/twitter.com\/search?q=%23RIPHarrysHair","trendMapped":"rip+harrys+hair","trendVolume":85398},{"stateName":"XX","trendName":"#RIPJustinHair","placeID":"23424977","placeName":"United States","searchUrl":"http:\/\/twitter.com\/search?q=%23RIPJustinHair","trendMapped":"rip+justin+hair","trendVolume":96224},{"stateName":"XX","trendName":"#VIEWS","placeID":"23424977","placeName":"United States","searchUrl":"http:\/\/twitter.com\/search?q=%23VIEWS","trendMapped":"views","trendVolume":456054},{"stateName":"XX","trendName":"Bale","placeID":"23424977","placeName":"United States","searchUrl":"http:\/\/twitter.com\/search?q=Bale","trendMapped":"bale","trendVolume":81906},{"stateName":"XX","trendName":"Betis","placeID":"23424977","placeName":"United States","searchUrl":"http:\/\/twitter.com\/search?q=Betis","trendMapped":"betis","trendVolume":102761},{"stateName":"XX","trendName":"Tiwa","placeID":"23424977","placeName":"United States","searchUrl":"http:\/\/twitter.com\/search?q=Tiwa","trendMapped":"tiwa","trendVolume":90178},{"stateName":"XX","trendName":"Wade","placeID":"23424977","placeName":"United States","searchUrl":"http:\/\/twitter.com\/search?q=Wade","trendMapped":"wade","trendVolume":126560},{"stateName":"XX","trendName":"Wenger","placeID":"23424977","placeName":"United States","searchUrl":"http:\/\/twitter.com\/search?q=Wenger","trendMapped":"wenger","trendVolume":111171}]