[{"stateName":"AL","trendName":"Harriet Tubman","placeID":"2364559","placeName":"Birmingham","searchUrl":"http:\/\/twitter.com\/search?q=%22Harriet+Tubman%22","trendMapped":"Harriet+Tubman","trendVolume":644160},{"stateName":"AL","trendName":"M.I.A.","placeID":"2364559","placeName":"Birmingham","searchUrl":"http:\/\/twitter.com\/search?q=M.I.A.","trendMapped":"m.i.a.","trendVolume":909793},{"stateName":"AL","trendName":"Prince","placeID":"2364559","placeName":"Birmingham","searchUrl":"http:\/\/twitter.com\/search?q=Prince","trendMapped":"prince","trendVolume":6091122},{"stateName":"AZ","trendName":"#Empire","placeID":"2508428","placeName":"Tucson","searchUrl":"http:\/\/twitter.com\/search?q=%23Empire","trendMapped":"empire","trendVolume":156218},{"stateName":"AZ","trendName":"#RIPChyna","placeID":"2508428","placeName":"Tucson","searchUrl":"http:\/\/twitter.com\/search?q=%23RIPChyna","trendMapped":"rip+chyna","trendVolume":136890},{"stateName":"AZ","trendName":"#empire","placeID":"2508428","placeName":"Tucson","searchUrl":"http:\/\/twitter.com\/search?q=%23empire","trendMapped":"empire","trendVolume":132578},{"stateName":"AZ","trendName":"Everton","placeID":"2508428","placeName":"Tucson","searchUrl":"http:\/\/twitter.com\/search?q=Everton","trendMapped":"everton","trendVolume":171090},{"stateName":"AZ","trendName":"Harriet Tubman","placeID":"2471390","placeName":"Phoenix","searchUrl":"http:\/\/twitter.com\/search?q=%22Harriet+Tubman%22","trendMapped":"Harriet+Tubman","trendVolume":631754},{"stateName":"AZ","trendName":"M.I.A.","placeID":"2508428","placeName":"Tucson","searchUrl":"http:\/\/twitter.com\/search?q=M.I.A.","trendMapped":"m.i.a.","trendVolume":940861},{"stateName":"AZ","trendName":"Prince","placeID":"2508428","placeName":"Tucson","searchUrl":"http:\/\/twitter.com\/search?q=Prince","trendMapped":"prince","trendVolume":6091122},{"stateName":"CA","trendName":"#Empire","placeID":"2488042","placeName":"San Jose","searchUrl":"http:\/\/twitter.com\/search?q=%23Empire","trendMapped":"empire","trendVolume":156874},{"stateName":"CA","trendName":"#Happy420","placeID":"2487956","placeName":"San Francisco","searchUrl":"http:\/\/twitter.com\/search?q=%23Happy420","trendMapped":"happy420","trendVolume":99565},{"stateName":"CA","trendName":"#RIPChyna","placeID":"2488042","placeName":"San Jose","searchUrl":"http:\/\/twitter.com\/search?q=%23RIPChyna","trendMapped":"rip+chyna","trendVolume":132546},{"stateName":"CA","trendName":"Andrew Jackson","placeID":"2486340","placeName":"Sacramento","searchUrl":"http:\/\/twitter.com\/search?q=%22Andrew+Jackson%22","trendMapped":"Andrew+Jackson","trendVolume":204286},{"stateName":"CA","trendName":"Everton","placeID":"2488042","placeName":"San Jose","searchUrl":"http:\/\/twitter.com\/search?q=Everton","trendMapped":"everton","trendVolume":171581},{"stateName":"CA","trendName":"Harriet Tubman","placeID":"2487956","placeName":"San Francisco","searchUrl":"http:\/\/twitter.com\/search?q=%22Harriet+Tubman%22","trendMapped":"Harriet+Tubman","trendVolume":631754},{"stateName":"CA","trendName":"Josh Norman","placeID":"2442047","placeName":"Los Angeles","searchUrl":"http:\/\/twitter.com\/search?q=%22Josh+Norman%22","trendMapped":"Josh+Norman","trendVolume":78314},{"stateName":"CA","trendName":"M.I.A.","placeID":"2488042","placeName":"San Jose","searchUrl":"http:\/\/twitter.com\/search?q=M.I.A.","trendMapped":"m.i.a.","trendVolume":953499},{"stateName":"CA","trendName":"Prince","placeID":"2488042","placeName":"San Jose","searchUrl":"http:\/\/twitter.com\/search?q=Prince","trendMapped":"prince","trendVolume":6064131},{"stateName":"CA","trendName":"harriet tubman","placeID":"2487889","placeName":"San Diego","searchUrl":"http:\/\/twitter.com\/search?q=%22harriet+tubman%22","trendMapped":"harriet+tubman","trendVolume":574975},{"stateName":"CO","trendName":"#Empire","placeID":"2383489","placeName":"Colorado Springs","searchUrl":"http:\/\/twitter.com\/search?q=%23Empire","trendMapped":"empire","trendVolume":155640},{"stateName":"CO","trendName":"#RIPChyna","placeID":"2383489","placeName":"Colorado Springs","searchUrl":"http:\/\/twitter.com\/search?q=%23RIPChyna","trendMapped":"rip+chyna","trendVolume":126588},{"stateName":"CO","trendName":"#ripchyna","placeID":"2383489","placeName":"Colorado Springs","searchUrl":"http:\/\/twitter.com\/search?q=%23ripchyna","trendMapped":"ripchyna","trendVolume":167099},{"stateName":"CO","trendName":"Harriet Tubman","placeID":"2391279","placeName":"Denver","searchUrl":"http:\/\/twitter.com\/search?q=%22Harriet+Tubman%22","trendMapped":"Harriet+Tubman","trendVolume":567531},{"stateName":"CO","trendName":"Josh Norman","placeID":"2383489","placeName":"Colorado Springs","searchUrl":"http:\/\/twitter.com\/search?q=%22Josh+Norman%22","trendMapped":"Josh+Norman","trendVolume":72500},{"stateName":"CO","trendName":"M.I.A.","placeID":"2383489","placeName":"Colorado Springs","searchUrl":"http:\/\/twitter.com\/search?q=M.I.A.","trendMapped":"m.i.a.","trendVolume":932250},{"stateName":"CO","trendName":"Prince","placeID":"2391279","placeName":"Denver","searchUrl":"http:\/\/twitter.com\/search?q=Prince","trendMapped":"prince","trendVolume":6091122},{"stateName":"CT","trendName":"Harriet Tubman","placeID":"2458410","placeName":"New Haven","searchUrl":"http:\/\/twitter.com\/search?q=%22Harriet+Tubman%22","trendMapped":"Harriet+Tubman","trendVolume":603569},{"stateName":"CT","trendName":"M.I.A.","placeID":"2458410","placeName":"New Haven","searchUrl":"http:\/\/twitter.com\/search?q=M.I.A.","trendMapped":"m.i.a.","trendVolume":927323},{"stateName":"CT","trendName":"Prince","placeID":"2458410","placeName":"New Haven","searchUrl":"http:\/\/twitter.com\/search?q=Prince","trendMapped":"prince","trendVolume":6091122},{"stateName":"DC","trendName":"#RIPChyna","placeID":"2514815","placeName":"Washington","searchUrl":"http:\/\/twitter.com\/search?q=%23RIPChyna","trendMapped":"rip+chyna","trendVolume":143488},{"stateName":"DC","trendName":"Empire","placeID":"2514815","placeName":"Washington","searchUrl":"http:\/\/twitter.com\/search?q=Empire","trendMapped":"empire","trendVolume":235689},{"stateName":"DC","trendName":"Harriet Tubman","placeID":"2514815","placeName":"Washington","searchUrl":"http:\/\/twitter.com\/search?q=%22Harriet+Tubman%22","trendMapped":"Harriet+Tubman","trendVolume":600087},{"stateName":"DC","trendName":"M.I.A.","placeID":"2514815","placeName":"Washington","searchUrl":"http:\/\/twitter.com\/search?q=M.I.A.","trendMapped":"m.i.a.","trendVolume":940861},{"stateName":"DC","trendName":"Prince","placeID":"2514815","placeName":"Washington","searchUrl":"http:\/\/twitter.com\/search?q=Prince","trendMapped":"prince","trendVolume":4493751},{"stateName":"FL","trendName":"#Empire","placeID":"2503863","placeName":"Tampa","searchUrl":"http:\/\/twitter.com\/search?q=%23Empire","trendMapped":"empire","trendVolume":139111},{"stateName":"FL","trendName":"Everton","placeID":"2503863","placeName":"Tampa","searchUrl":"http:\/\/twitter.com\/search?q=Everton","trendMapped":"everton","trendVolume":171090},{"stateName":"FL","trendName":"Happy 420","placeID":"2466256","placeName":"Orlando","searchUrl":"http:\/\/twitter.com\/search?q=%22Happy+420%22","trendMapped":"Happy+420","trendVolume":285496},{"stateName":"FL","trendName":"Harriet Tubman","placeID":"2503863","placeName":"Tampa","searchUrl":"http:\/\/twitter.com\/search?q=%22Harriet+Tubman%22","trendMapped":"Harriet+Tubman","trendVolume":642026},{"stateName":"FL","trendName":"Josh Norman","placeID":"2450022","placeName":"Miami","searchUrl":"http:\/\/twitter.com\/search?q=%22Josh+Norman%22","trendMapped":"Josh+Norman","trendVolume":71278},{"stateName":"FL","trendName":"M.I.A.","placeID":"2503863","placeName":"Tampa","searchUrl":"http:\/\/twitter.com\/search?q=M.I.A.","trendMapped":"m.i.a.","trendVolume":944780},{"stateName":"FL","trendName":"Prince","placeID":"2503863","placeName":"Tampa","searchUrl":"http:\/\/twitter.com\/search?q=Prince","trendMapped":"prince","trendVolume":5908016},{"stateName":"FL","trendName":"Trump","placeID":"2503713","placeName":"Tallahassee","searchUrl":"http:\/\/twitter.com\/search?q=Trump","trendMapped":"trump","trendVolume":702310},{"stateName":"FL","trendName":"harriet tubman","placeID":"2503863","placeName":"Tampa","searchUrl":"http:\/\/twitter.com\/search?q=%22harriet+tubman%22","trendMapped":"harriet+tubman","trendVolume":574975},{"stateName":"GA","trendName":"#Empire","placeID":"2357024","placeName":"Atlanta","searchUrl":"http:\/\/twitter.com\/search?q=%23Empire","trendMapped":"empire","trendVolume":147054},{"stateName":"GA","trendName":"Prince","placeID":"2357024","placeName":"Atlanta","searchUrl":"http:\/\/twitter.com\/search?q=Prince","trendMapped":"prince","trendVolume":5998040},{"stateName":"HI","trendName":"#Empire","placeID":"2423945","placeName":"Honolulu","searchUrl":"http:\/\/twitter.com\/search?q=%23Empire","trendMapped":"empire","trendVolume":156218},{"stateName":"HI","trendName":"#NYPrimary","placeID":"2423945","placeName":"Honolulu","searchUrl":"http:\/\/twitter.com\/search?q=%23NYPrimary","trendMapped":"ny+primary","trendVolume":251028},{"stateName":"HI","trendName":"#Prince","placeID":"2423945","placeName":"Honolulu","searchUrl":"http:\/\/twitter.com\/search?q=%23Prince","trendMapped":"prince","trendVolume":511697},{"stateName":"HI","trendName":"America","placeID":"2423945","placeName":"Honolulu","searchUrl":"http:\/\/twitter.com\/search?q=America","trendMapped":"america","trendVolume":379126},{"stateName":"HI","trendName":"Harriet Tubman","placeID":"2423945","placeName":"Honolulu","searchUrl":"http:\/\/twitter.com\/search?q=%22Harriet+Tubman%22","trendMapped":"Harriet+Tubman","trendVolume":608850},{"stateName":"HI","trendName":"M.I.A.","placeID":"2423945","placeName":"Honolulu","searchUrl":"http:\/\/twitter.com\/search?q=M.I.A.","trendMapped":"m.i.a.","trendVolume":925171},{"stateName":"HI","trendName":"Trump","placeID":"2423945","placeName":"Honolulu","searchUrl":"http:\/\/twitter.com\/search?q=Trump","trendMapped":"trump","trendVolume":754999},{"stateName":"IL","trendName":"#Empire","placeID":"2379574","placeName":"Chicago","searchUrl":"http:\/\/twitter.com\/search?q=%23Empire","trendMapped":"empire","trendVolume":156218},{"stateName":"IL","trendName":"Chyna","placeID":"2379574","placeName":"Chicago","searchUrl":"http:\/\/twitter.com\/search?q=Chyna","trendMapped":"chyna","trendVolume":279992},{"stateName":"IL","trendName":"Harriet Tubman","placeID":"2379574","placeName":"Chicago","searchUrl":"http:\/\/twitter.com\/search?q=%22Harriet+Tubman%22","trendMapped":"Harriet+Tubman","trendVolume":614614},{"stateName":"IL","trendName":"M.I.A.","placeID":"2379574","placeName":"Chicago","searchUrl":"http:\/\/twitter.com\/search?q=M.I.A.","trendMapped":"m.i.a.","trendVolume":940861},{"stateName":"IL","trendName":"Prince","placeID":"2379574","placeName":"Chicago","searchUrl":"http:\/\/twitter.com\/search?q=Prince","trendMapped":"prince","trendVolume":5280290},{"stateName":"IN","trendName":"#Empire","placeID":"2427032","placeName":"Indianapolis","searchUrl":"http:\/\/twitter.com\/search?q=%23Empire","trendMapped":"empire","trendVolume":142809},{"stateName":"IN","trendName":"Everton","placeID":"2427032","placeName":"Indianapolis","searchUrl":"http:\/\/twitter.com\/search?q=Everton","trendMapped":"everton","trendVolume":171581},{"stateName":"IN","trendName":"Harriet Tubman","placeID":"2427032","placeName":"Indianapolis","searchUrl":"http:\/\/twitter.com\/search?q=%22Harriet+Tubman%22","trendMapped":"Harriet+Tubman","trendVolume":589403},{"stateName":"IN","trendName":"M.I.A.","placeID":"2427032","placeName":"Indianapolis","searchUrl":"http:\/\/twitter.com\/search?q=M.I.A.","trendMapped":"m.i.a.","trendVolume":940861},{"stateName":"IN","trendName":"Prince","placeID":"2427032","placeName":"Indianapolis","searchUrl":"http:\/\/twitter.com\/search?q=Prince","trendMapped":"prince","trendVolume":5998040},{"stateName":"IN","trendName":"harriet tubman","placeID":"2427032","placeName":"Indianapolis","searchUrl":"http:\/\/twitter.com\/search?q=%22harriet+tubman%22","trendMapped":"harriet+tubman","trendVolume":574975},{"stateName":"KY","trendName":"#Periscope","placeID":"2442327","placeName":"Louisville","searchUrl":"http:\/\/twitter.com\/search?q=%23Periscope","trendMapped":"periscope","trendVolume":187469},{"stateName":"KY","trendName":"#Prince","placeID":"2442327","placeName":"Louisville","searchUrl":"http:\/\/twitter.com\/search?q=%23Prince","trendMapped":"prince","trendVolume":687581},{"stateName":"KY","trendName":"Harriet Tubman","placeID":"2442327","placeName":"Louisville","searchUrl":"http:\/\/twitter.com\/search?q=%22Harriet+Tubman%22","trendMapped":"Harriet+Tubman","trendVolume":639893},{"stateName":"KY","trendName":"M.I.A.","placeID":"2442327","placeName":"Louisville","searchUrl":"http:\/\/twitter.com\/search?q=M.I.A.","trendMapped":"m.i.a.","trendVolume":940861},{"stateName":"KY","trendName":"Prince","placeID":"2442327","placeName":"Louisville","searchUrl":"http:\/\/twitter.com\/search?q=Prince","trendMapped":"prince","trendVolume":5998040},{"stateName":"LA","trendName":"Harriet Tubman","placeID":"2458833","placeName":"New Orleans","searchUrl":"http:\/\/twitter.com\/search?q=%22Harriet+Tubman%22","trendMapped":"Harriet+Tubman","trendVolume":639893},{"stateName":"LA","trendName":"M.I.A.","placeID":"2458833","placeName":"New Orleans","searchUrl":"http:\/\/twitter.com\/search?q=M.I.A.","trendMapped":"m.i.a.","trendVolume":932886},{"stateName":"LA","trendName":"Prince","placeID":"2458833","placeName":"New Orleans","searchUrl":"http:\/\/twitter.com\/search?q=Prince","trendMapped":"prince","trendVolume":6091122},{"stateName":"MA","trendName":"#Empire","placeID":"2367105","placeName":"Boston","searchUrl":"http:\/\/twitter.com\/search?q=%23Empire","trendMapped":"empire","trendVolume":148472},{"stateName":"MA","trendName":"#RIPChyna","placeID":"2367105","placeName":"Boston","searchUrl":"http:\/\/twitter.com\/search?q=%23RIPChyna","trendMapped":"rip+chyna","trendVolume":188998},{"stateName":"MA","trendName":"Chyna","placeID":"2367105","placeName":"Boston","searchUrl":"http:\/\/twitter.com\/search?q=Chyna","trendMapped":"chyna","trendVolume":287891},{"stateName":"MA","trendName":"Harriet Tubman","placeID":"2367105","placeName":"Boston","searchUrl":"http:\/\/twitter.com\/search?q=%22Harriet+Tubman%22","trendMapped":"Harriet+Tubman","trendVolume":605404},{"stateName":"MA","trendName":"M.I.A.","placeID":"2367105","placeName":"Boston","searchUrl":"http:\/\/twitter.com\/search?q=M.I.A.","trendMapped":"m.i.a.","trendVolume":940861},{"stateName":"MA","trendName":"Prince","placeID":"2367105","placeName":"Boston","searchUrl":"http:\/\/twitter.com\/search?q=Prince","trendMapped":"prince","trendVolume":5787216},{"stateName":"MD","trendName":"Harriet Tubman","placeID":"2358820","placeName":"Baltimore","searchUrl":"http:\/\/twitter.com\/search?q=%22Harriet+Tubman%22","trendMapped":"Harriet+Tubman","trendVolume":579787},{"stateName":"MD","trendName":"M.I.A.","placeID":"2358820","placeName":"Baltimore","searchUrl":"http:\/\/twitter.com\/search?q=M.I.A.","trendMapped":"m.i.a.","trendVolume":940861},{"stateName":"MD","trendName":"Prince","placeID":"2358820","placeName":"Baltimore","searchUrl":"http:\/\/twitter.com\/search?q=Prince","trendMapped":"prince","trendVolume":4582285},{"stateName":"MI","trendName":"#Empire","placeID":"2391585","placeName":"Detroit","searchUrl":"http:\/\/twitter.com\/search?q=%23Empire","trendMapped":"empire","trendVolume":152242},{"stateName":"MI","trendName":"Harriet Tubman","placeID":"2391585","placeName":"Detroit","searchUrl":"http:\/\/twitter.com\/search?q=%22Harriet+Tubman%22","trendMapped":"Harriet+Tubman","trendVolume":603569},{"stateName":"MI","trendName":"M.I.A.","placeID":"2391585","placeName":"Detroit","searchUrl":"http:\/\/twitter.com\/search?q=M.I.A.","trendMapped":"m.i.a.","trendVolume":932250},{"stateName":"MI","trendName":"Prince","placeID":"2391585","placeName":"Detroit","searchUrl":"http:\/\/twitter.com\/search?q=Prince","trendMapped":"prince","trendVolume":5723543},{"stateName":"MN","trendName":"Harriet Tubman","placeID":"2452078","placeName":"Minneapolis","searchUrl":"http:\/\/twitter.com\/search?q=%22Harriet+Tubman%22","trendMapped":"Harriet+Tubman","trendVolume":559528},{"stateName":"MN","trendName":"Prince","placeID":"2452078","placeName":"Minneapolis","searchUrl":"http:\/\/twitter.com\/search?q=Prince","trendMapped":"prince","trendVolume":5513439},{"stateName":"MO","trendName":"Andrew Jackson","placeID":"2486982","placeName":"St. Louis","searchUrl":"http:\/\/twitter.com\/search?q=%22Andrew+Jackson%22","trendMapped":"Andrew+Jackson","trendVolume":203028},{"stateName":"MO","trendName":"Harriet Tubman","placeID":"2486982","placeName":"St. Louis","searchUrl":"http:\/\/twitter.com\/search?q=%22Harriet+Tubman%22","trendMapped":"Harriet+Tubman","trendVolume":605404},{"stateName":"MO","trendName":"M.I.A.","placeID":"2486982","placeName":"St. Louis","searchUrl":"http:\/\/twitter.com\/search?q=M.I.A.","trendMapped":"m.i.a.","trendVolume":944780},{"stateName":"MO","trendName":"Prince","placeID":"2486982","placeName":"St. Louis","searchUrl":"http:\/\/twitter.com\/search?q=Prince","trendMapped":"prince","trendVolume":6091122},{"stateName":"MO","trendName":"harriet tubman","placeID":"2486982","placeName":"St. Louis","searchUrl":"http:\/\/twitter.com\/search?q=%22harriet+tubman%22","trendMapped":"harriet+tubman","trendVolume":574975},{"stateName":"MS","trendName":"Harriet Tubman","placeID":"2428184","placeName":"Jackson","searchUrl":"http:\/\/twitter.com\/search?q=%22Harriet+Tubman%22","trendMapped":"Harriet+Tubman","trendVolume":600087},{"stateName":"MS","trendName":"M.I.A.","placeID":"2428184","placeName":"Jackson","searchUrl":"http:\/\/twitter.com\/search?q=M.I.A.","trendMapped":"m.i.a.","trendVolume":945185},{"stateName":"MS","trendName":"Prince","placeID":"2428184","placeName":"Jackson","searchUrl":"http:\/\/twitter.com\/search?q=Prince","trendMapped":"prince","trendVolume":6091122},{"stateName":"MS","trendName":"Trump","placeID":"2428184","placeName":"Jackson","searchUrl":"http:\/\/twitter.com\/search?q=Trump","trendMapped":"trump","trendVolume":784368},{"stateName":"NC","trendName":"#Empire","placeID":"2478307","placeName":"Raleigh","searchUrl":"http:\/\/twitter.com\/search?q=%23Empire","trendMapped":"empire","trendVolume":141605},{"stateName":"NC","trendName":"Andrew Jackson","placeID":"2478307","placeName":"Raleigh","searchUrl":"http:\/\/twitter.com\/search?q=%22Andrew+Jackson%22","trendMapped":"Andrew+Jackson","trendVolume":195308},{"stateName":"NC","trendName":"Chyna","placeID":"2414469","placeName":"Greensboro","searchUrl":"http:\/\/twitter.com\/search?q=Chyna","trendMapped":"chyna","trendVolume":301246},{"stateName":"NC","trendName":"ESPN","placeID":"2378426","placeName":"Charlotte","searchUrl":"http:\/\/twitter.com\/search?q=ESPN","trendMapped":"espn","trendVolume":160033},{"stateName":"NC","trendName":"Everton","placeID":"2378426","placeName":"Charlotte","searchUrl":"http:\/\/twitter.com\/search?q=Everton","trendMapped":"everton","trendVolume":172009},{"stateName":"NC","trendName":"Harriet Tubman","placeID":"2478307","placeName":"Raleigh","searchUrl":"http:\/\/twitter.com\/search?q=%22Harriet+Tubman%22","trendMapped":"Harriet+Tubman","trendVolume":608850},{"stateName":"NC","trendName":"M.I.A.","placeID":"2478307","placeName":"Raleigh","searchUrl":"http:\/\/twitter.com\/search?q=M.I.A.","trendMapped":"m.i.a.","trendVolume":949284},{"stateName":"NC","trendName":"Prince","placeID":"2478307","placeName":"Raleigh","searchUrl":"http:\/\/twitter.com\/search?q=Prince","trendMapped":"prince","trendVolume":6091122},{"stateName":"NC","trendName":"Tubman","placeID":"2414469","placeName":"Greensboro","searchUrl":"http:\/\/twitter.com\/search?q=Tubman","trendMapped":"tubman","trendVolume":676225},{"stateName":"NE","trendName":"Harriet Tubman","placeID":"2465512","placeName":"Omaha","searchUrl":"http:\/\/twitter.com\/search?q=%22Harriet+Tubman%22","trendMapped":"Harriet+Tubman","trendVolume":607075},{"stateName":"NE","trendName":"M.I.A.","placeID":"2465512","placeName":"Omaha","searchUrl":"http:\/\/twitter.com\/search?q=M.I.A.","trendMapped":"m.i.a.","trendVolume":909793},{"stateName":"NE","trendName":"Prince","placeID":"2465512","placeName":"Omaha","searchUrl":"http:\/\/twitter.com\/search?q=Prince","trendMapped":"prince","trendVolume":5240412},{"stateName":"NM","trendName":"#Empire","placeID":"2352824","placeName":"Albuquerque","searchUrl":"http:\/\/twitter.com\/search?q=%23Empire","trendMapped":"empire","trendVolume":156218},{"stateName":"NM","trendName":"#RIPChyna","placeID":"2352824","placeName":"Albuquerque","searchUrl":"http:\/\/twitter.com\/search?q=%23RIPChyna","trendMapped":"rip+chyna","trendVolume":136890},{"stateName":"NM","trendName":"Everton","placeID":"2352824","placeName":"Albuquerque","searchUrl":"http:\/\/twitter.com\/search?q=Everton","trendMapped":"everton","trendVolume":171090},{"stateName":"NM","trendName":"M.I.A.","placeID":"2352824","placeName":"Albuquerque","searchUrl":"http:\/\/twitter.com\/search?q=M.I.A.","trendMapped":"m.i.a.","trendVolume":932886},{"stateName":"NM","trendName":"Prince","placeID":"2352824","placeName":"Albuquerque","searchUrl":"http:\/\/twitter.com\/search?q=Prince","trendMapped":"prince","trendVolume":5723543},{"stateName":"NV","trendName":"#NYPrimary","placeID":"2436704","placeName":"Las Vegas","searchUrl":"http:\/\/twitter.com\/search?q=%23NYPrimary","trendMapped":"ny+primary","trendVolume":194678},{"stateName":"NV","trendName":"#RIPPrince","placeID":"2436704","placeName":"Las Vegas","searchUrl":"http:\/\/twitter.com\/search?q=%23RIPPrince","trendMapped":"rip+prince","trendVolume":547154},{"stateName":"NV","trendName":"Happy 420","placeID":"2436704","placeName":"Las Vegas","searchUrl":"http:\/\/twitter.com\/search?q=%22Happy+420%22","trendMapped":"Happy+420","trendVolume":276371},{"stateName":"NV","trendName":"Harriet Tubman","placeID":"2436704","placeName":"Las Vegas","searchUrl":"http:\/\/twitter.com\/search?q=%22Harriet+Tubman%22","trendMapped":"Harriet+Tubman","trendVolume":565808},{"stateName":"NV","trendName":"M.I.A.","placeID":"2436704","placeName":"Las Vegas","searchUrl":"http:\/\/twitter.com\/search?q=M.I.A.","trendMapped":"m.i.a.","trendVolume":940861},{"stateName":"NV","trendName":"Prince","placeID":"2436704","placeName":"Las Vegas","searchUrl":"http:\/\/twitter.com\/search?q=Prince","trendMapped":"prince","trendVolume":5161731},{"stateName":"NY","trendName":"#Empire","placeID":"2459115","placeName":"New York","searchUrl":"http:\/\/twitter.com\/search?q=%23Empire","trendMapped":"empire","trendVolume":91560},{"stateName":"NY","trendName":"#empire","placeID":"2459115","placeName":"New York","searchUrl":"http:\/\/twitter.com\/search?q=%23empire","trendMapped":"empire","trendVolume":157619},{"stateName":"NY","trendName":"Harriet Tubman","placeID":"2459115","placeName":"New York","searchUrl":"http:\/\/twitter.com\/search?q=%22Harriet+Tubman%22","trendMapped":"Harriet+Tubman","trendVolume":473526},{"stateName":"NY","trendName":"Josh Norman","placeID":"2459115","placeName":"New York","searchUrl":"http:\/\/twitter.com\/search?q=%22Josh+Norman%22","trendMapped":"Josh+Norman","trendVolume":71278},{"stateName":"NY","trendName":"M.I.A.","placeID":"2459115","placeName":"New York","searchUrl":"http:\/\/twitter.com\/search?q=M.I.A.","trendMapped":"m.i.a.","trendVolume":944780},{"stateName":"NY","trendName":"Prince","placeID":"2459115","placeName":"New York","searchUrl":"http:\/\/twitter.com\/search?q=Prince","trendMapped":"prince","trendVolume":4986967},{"stateName":"OH","trendName":"#Empire","placeID":"2381475","placeName":"Cleveland","searchUrl":"http:\/\/twitter.com\/search?q=%23Empire","trendMapped":"empire","trendVolume":156505},{"stateName":"OH","trendName":"Harriet Tubman","placeID":"2383660","placeName":"Columbus","searchUrl":"http:\/\/twitter.com\/search?q=%22Harriet+Tubman%22","trendMapped":"Harriet+Tubman","trendVolume":644160},{"stateName":"OH","trendName":"M.I.A.","placeID":"2383660","placeName":"Columbus","searchUrl":"http:\/\/twitter.com\/search?q=M.I.A.","trendMapped":"m.i.a.","trendVolume":940861},{"stateName":"OH","trendName":"Prince","placeID":"2383660","placeName":"Columbus","searchUrl":"http:\/\/twitter.com\/search?q=Prince","trendMapped":"prince","trendVolume":5998040},{"stateName":"OK","trendName":"Harriet Tubman","placeID":"2464592","placeName":"Oklahoma City","searchUrl":"http:\/\/twitter.com\/search?q=%22Harriet+Tubman%22","trendMapped":"Harriet+Tubman","trendVolume":634075},{"stateName":"OK","trendName":"M.I.A.","placeID":"2464592","placeName":"Oklahoma City","searchUrl":"http:\/\/twitter.com\/search?q=M.I.A.","trendMapped":"m.i.a.","trendVolume":924393},{"stateName":"OK","trendName":"Prince","placeID":"2464592","placeName":"Oklahoma City","searchUrl":"http:\/\/twitter.com\/search?q=Prince","trendMapped":"prince","trendVolume":6064131},{"stateName":"OR","trendName":"Harriet Tubman","placeID":"2475687","placeName":"Portland","searchUrl":"http:\/\/twitter.com\/search?q=%22Harriet+Tubman%22","trendMapped":"Harriet+Tubman","trendVolume":608850},{"stateName":"OR","trendName":"M.I.A.","placeID":"2475687","placeName":"Portland","searchUrl":"http:\/\/twitter.com\/search?q=M.I.A.","trendMapped":"m.i.a.","trendVolume":909219},{"stateName":"OR","trendName":"Prince","placeID":"2475687","placeName":"Portland","searchUrl":"http:\/\/twitter.com\/search?q=Prince","trendMapped":"prince","trendVolume":5404039},{"stateName":"OR","trendName":"harriet tubman","placeID":"2475687","placeName":"Portland","searchUrl":"http:\/\/twitter.com\/search?q=%22harriet+tubman%22","trendMapped":"harriet+tubman","trendVolume":574975},{"stateName":"PA","trendName":"#Empire","placeID":"2471217","placeName":"Philadelphia","searchUrl":"http:\/\/twitter.com\/search?q=%23Empire","trendMapped":"empire","trendVolume":156874},{"stateName":"PA","trendName":"#RIPChyna","placeID":"2473224","placeName":"Pittsburgh","searchUrl":"http:\/\/twitter.com\/search?q=%23RIPChyna","trendMapped":"rip+chyna","trendVolume":190969},{"stateName":"PA","trendName":"Eagles","placeID":"2418046","placeName":"Harrisburg","searchUrl":"http:\/\/twitter.com\/search?q=Eagles","trendMapped":"eagles","trendVolume":158536},{"stateName":"PA","trendName":"Everton","placeID":"2418046","placeName":"Harrisburg","searchUrl":"http:\/\/twitter.com\/search?q=Everton","trendMapped":"everton","trendVolume":171074},{"stateName":"PA","trendName":"Happy 420","placeID":"2473224","placeName":"Pittsburgh","searchUrl":"http:\/\/twitter.com\/search?q=%22Happy+420%22","trendMapped":"Happy+420","trendVolume":279160},{"stateName":"PA","trendName":"Harriet Tubman","placeID":"2473224","placeName":"Pittsburgh","searchUrl":"http:\/\/twitter.com\/search?q=%22Harriet+Tubman%22","trendMapped":"Harriet+Tubman","trendVolume":605404},{"stateName":"PA","trendName":"M.I.A.","placeID":"2473224","placeName":"Pittsburgh","searchUrl":"http:\/\/twitter.com\/search?q=M.I.A.","trendMapped":"m.i.a.","trendVolume":945185},{"stateName":"PA","trendName":"Prince","placeID":"2473224","placeName":"Pittsburgh","searchUrl":"http:\/\/twitter.com\/search?q=Prince","trendMapped":"prince","trendVolume":5818145},{"stateName":"RI","trendName":"M.I.A.","placeID":"2477058","placeName":"Providence","searchUrl":"http:\/\/twitter.com\/search?q=M.I.A.","trendMapped":"m.i.a.","trendVolume":936353},{"stateName":"RI","trendName":"Prince","placeID":"2477058","placeName":"Providence","searchUrl":"http:\/\/twitter.com\/search?q=Prince","trendMapped":"prince","trendVolume":5620576},{"stateName":"RI","trendName":"Trump","placeID":"2477058","placeName":"Providence","searchUrl":"http:\/\/twitter.com\/search?q=Trump","trendMapped":"trump","trendVolume":778622},{"stateName":"TN","trendName":"Harriet Tubman","placeID":"2457170","placeName":"Nashville","searchUrl":"http:\/\/twitter.com\/search?q=%22Harriet+Tubman%22","trendMapped":"Harriet+Tubman","trendVolume":637771},{"stateName":"TN","trendName":"Prince","placeID":"2457170","placeName":"Nashville","searchUrl":"http:\/\/twitter.com\/search?q=Prince","trendMapped":"prince","trendVolume":6091122},{"stateName":"TX","trendName":"#Empire","placeID":"2424766","placeName":"Houston","searchUrl":"http:\/\/twitter.com\/search?q=%23Empire","trendMapped":"empire","trendVolume":155860},{"stateName":"TX","trendName":"#NYPrimary","placeID":"2357536","placeName":"Austin","searchUrl":"http:\/\/twitter.com\/search?q=%23NYPrimary","trendMapped":"ny+primary","trendVolume":251028},{"stateName":"TX","trendName":"Andrew Jackson","placeID":"2357536","placeName":"Austin","searchUrl":"http:\/\/twitter.com\/search?q=%22Andrew+Jackson%22","trendMapped":"Andrew+Jackson","trendVolume":209961},{"stateName":"TX","trendName":"Harriet Tubman","placeID":"2487796","placeName":"San Antonio","searchUrl":"http:\/\/twitter.com\/search?q=%22Harriet+Tubman%22","trendMapped":"Harriet+Tubman","trendVolume":631754},{"stateName":"TX","trendName":"M.I.A.","placeID":"2424766","placeName":"Houston","searchUrl":"http:\/\/twitter.com\/search?q=M.I.A.","trendMapped":"m.i.a.","trendVolume":945185},{"stateName":"TX","trendName":"Prince","placeID":"2487796","placeName":"San Antonio","searchUrl":"http:\/\/twitter.com\/search?q=Prince","trendMapped":"prince","trendVolume":5998040},{"stateName":"TX","trendName":"Trump","placeID":"2397816","placeName":"El Paso","searchUrl":"http:\/\/twitter.com\/search?q=Trump","trendMapped":"trump","trendVolume":830181},{"stateName":"UT","trendName":"Harriet Tubman","placeID":"2487610","placeName":"Salt Lake City","searchUrl":"http:\/\/twitter.com\/search?q=%22Harriet+Tubman%22","trendMapped":"Harriet+Tubman","trendVolume":631754},{"stateName":"UT","trendName":"M.I.A.","placeID":"2487610","placeName":"Salt Lake City","searchUrl":"http:\/\/twitter.com\/search?q=M.I.A.","trendMapped":"m.i.a.","trendVolume":932886},{"stateName":"UT","trendName":"Prince","placeID":"2487610","placeName":"Salt Lake City","searchUrl":"http:\/\/twitter.com\/search?q=Prince","trendMapped":"prince","trendVolume":5689692},{"stateName":"VA","trendName":"#Empire","placeID":"2512636","placeName":"Virginia Beach","searchUrl":"http:\/\/twitter.com\/search?q=%23Empire","trendMapped":"empire","trendVolume":156874},{"stateName":"VA","trendName":"#RIPChyna","placeID":"2512636","placeName":"Virginia Beach","searchUrl":"http:\/\/twitter.com\/search?q=%23RIPChyna","trendMapped":"rip+chyna","trendVolume":120131},{"stateName":"VA","trendName":"Bob Marley","placeID":"2460389","placeName":"Norfolk","searchUrl":"http:\/\/twitter.com\/search?q=%22Bob+Marley%22","trendMapped":"Bob+Marley","trendVolume":148443},{"stateName":"VA","trendName":"Harriet Tubman","placeID":"2512636","placeName":"Virginia Beach","searchUrl":"http:\/\/twitter.com\/search?q=%22Harriet+Tubman%22","trendMapped":"Harriet+Tubman","trendVolume":605404},{"stateName":"VA","trendName":"M.I.A.","placeID":"2512636","placeName":"Virginia Beach","searchUrl":"http:\/\/twitter.com\/search?q=M.I.A.","trendMapped":"m.i.a.","trendVolume":949284},{"stateName":"VA","trendName":"Prince","placeID":"2512636","placeName":"Virginia Beach","searchUrl":"http:\/\/twitter.com\/search?q=Prince","trendMapped":"prince","trendVolume":5998040},{"stateName":"VA","trendName":"harriet tubman","placeID":"2460389","placeName":"Norfolk","searchUrl":"http:\/\/twitter.com\/search?q=%22harriet+tubman%22","trendMapped":"harriet+tubman","trendVolume":574975},{"stateName":"WA","trendName":"#RIPChyna","placeID":"2490383","placeName":"Seattle","searchUrl":"http:\/\/twitter.com\/search?q=%23RIPChyna","trendMapped":"rip+chyna","trendVolume":184285},{"stateName":"WA","trendName":"Everton","placeID":"2490383","placeName":"Seattle","searchUrl":"http:\/\/twitter.com\/search?q=Everton","trendMapped":"everton","trendVolume":171090},{"stateName":"WA","trendName":"Harriet Tubman","placeID":"2490383","placeName":"Seattle","searchUrl":"http:\/\/twitter.com\/search?q=%22Harriet+Tubman%22","trendMapped":"Harriet+Tubman","trendVolume":578079},{"stateName":"WA","trendName":"M.I.A.","placeID":"2490383","placeName":"Seattle","searchUrl":"http:\/\/twitter.com\/search?q=M.I.A.","trendMapped":"m.i.a.","trendVolume":940861},{"stateName":"WA","trendName":"Prince","placeID":"2490383","placeName":"Seattle","searchUrl":"http:\/\/twitter.com\/search?q=Prince","trendMapped":"prince","trendVolume":5908016},{"stateName":"WA","trendName":"harriet tubman","placeID":"2490383","placeName":"Seattle","searchUrl":"http:\/\/twitter.com\/search?q=%22harriet+tubman%22","trendMapped":"harriet+tubman","trendVolume":574975},{"stateName":"WI","trendName":"Harriet Tubman","placeID":"2451822","placeName":"Milwaukee","searchUrl":"http:\/\/twitter.com\/search?q=%22Harriet+Tubman%22","trendMapped":"Harriet+Tubman","trendVolume":592870},{"stateName":"WI","trendName":"M.I.A.","placeID":"2451822","placeName":"Milwaukee","searchUrl":"http:\/\/twitter.com\/search?q=M.I.A.","trendMapped":"m.i.a.","trendVolume":936353},{"stateName":"WI","trendName":"Prince","placeID":"2451822","placeName":"Milwaukee","searchUrl":"http:\/\/twitter.com\/search?q=Prince","trendMapped":"prince","trendVolume":5073062},{"stateName":"XX","trendName":"#Empire","placeID":"23424977","placeName":"United States","searchUrl":"http:\/\/twitter.com\/search?q=%23Empire","trendMapped":"empire","trendVolume":145312},{"stateName":"XX","trendName":"#RIPChyna","placeID":"23424977","placeName":"United States","searchUrl":"http:\/\/twitter.com\/search?q=%23RIPChyna","trendMapped":"rip+chyna","trendVolume":136890},{"stateName":"XX","trendName":"Harriet Tubman","placeID":"23424977","placeName":"United States","searchUrl":"http:\/\/twitter.com\/search?q=%22Harriet+Tubman%22","trendMapped":"Harriet+Tubman","trendVolume":482079},{"stateName":"XX","trendName":"M.I.A.","placeID":"23424977","placeName":"United States","searchUrl":"http:\/\/twitter.com\/search?q=M.I.A.","trendMapped":"m.i.a.","trendVolume":927495},{"stateName":"XX","trendName":"Prince","placeID":"23424977","placeName":"United States","searchUrl":"http:\/\/twitter.com\/search?q=Prince","trendMapped":"prince","trendVolume":6091122}]