[{"stateName":"AL","trendName":"Bayern","placeID":"2364559","placeName":"Birmingham","searchUrl":"http:\/\/twitter.com\/search?q=Bayern","trendMapped":"bayern","trendVolume":322835},{"stateName":"AL","trendName":"Lemonade","placeID":"2364559","placeName":"Birmingham","searchUrl":"http:\/\/twitter.com\/search?q=Lemonade","trendMapped":"lemonade","trendVolume":509206},{"stateName":"AL","trendName":"Trump","placeID":"2364559","placeName":"Birmingham","searchUrl":"http:\/\/twitter.com\/search?q=Trump","trendMapped":"trump","trendVolume":1284397},{"stateName":"AZ","trendName":"#BringItHomeDLSU","placeID":"2449808","placeName":"Mesa","searchUrl":"http:\/\/twitter.com\/search?q=%23BringItHomeDLSU","trendMapped":"bring+it+home+dlsu","trendVolume":265278},{"stateName":"AZ","trendName":"#DolanTwinsNewVideo","placeID":"2508428","placeName":"Tucson","searchUrl":"http:\/\/twitter.com\/search?q=%23DolanTwinsNewVideo","trendMapped":"dolan+twins+new+video","trendVolume":121296},{"stateName":"AZ","trendName":"#ProjectHomeHarryDay","placeID":"2471390","placeName":"Phoenix","searchUrl":"http:\/\/twitter.com\/search?q=%23ProjectHomeHarryDay","trendMapped":"project+home+harry+day","trendVolume":797163},{"stateName":"AZ","trendName":"#ProjectHomeLouisDay","placeID":"2508428","placeName":"Tucson","searchUrl":"http:\/\/twitter.com\/search?q=%23ProjectHomeLouisDay","trendMapped":"project+home+louis+day","trendVolume":620395},{"stateName":"AZ","trendName":"#SuperTuesday","placeID":"2508428","placeName":"Tucson","searchUrl":"http:\/\/twitter.com\/search?q=%23SuperTuesday","trendMapped":"super+tuesday","trendVolume":114343},{"stateName":"AZ","trendName":"#VoiceSaveDaniel","placeID":"2449808","placeName":"Mesa","searchUrl":"http:\/\/twitter.com\/search?q=%23VoiceSaveDaniel","trendMapped":"voice+save+daniel","trendVolume":204777},{"stateName":"AZ","trendName":"#VoiceSaveOwen","placeID":"2508428","placeName":"Tucson","searchUrl":"http:\/\/twitter.com\/search?q=%23VoiceSaveOwen","trendMapped":"voice+save+owen","trendVolume":250673},{"stateName":"AZ","trendName":"Apple","placeID":"2471390","placeName":"Phoenix","searchUrl":"http:\/\/twitter.com\/search?q=Apple","trendMapped":"apple","trendVolume":730700},{"stateName":"AZ","trendName":"Atl\u00e9tico","placeID":"2508428","placeName":"Tucson","searchUrl":"http:\/\/twitter.com\/search?q=Atl%C3%A9tico","trendMapped":"atl\u00e9tico","trendVolume":351539},{"stateName":"AZ","trendName":"Maracaibo","placeID":"2508428","placeName":"Tucson","searchUrl":"http:\/\/twitter.com\/search?q=Maracaibo","trendMapped":"maracaibo","trendVolume":200222},{"stateName":"AZ","trendName":"Saul","placeID":"2449808","placeName":"Mesa","searchUrl":"http:\/\/twitter.com\/search?q=Saul","trendMapped":"saul","trendVolume":122592},{"stateName":"CA","trendName":"#BringItHomeDLSU","placeID":"2488042","placeName":"San Jose","searchUrl":"http:\/\/twitter.com\/search?q=%23BringItHomeDLSU","trendMapped":"bring+it+home+dlsu","trendVolume":266974},{"stateName":"CA","trendName":"#DolanTwinsNewVideo","placeID":"2488042","placeName":"San Jose","searchUrl":"http:\/\/twitter.com\/search?q=%23DolanTwinsNewVideo","trendMapped":"dolan+twins+new+video","trendVolume":121541},{"stateName":"CA","trendName":"#ProjectHomeLouisDay","placeID":"2488042","placeName":"San Jose","searchUrl":"http:\/\/twitter.com\/search?q=%23ProjectHomeLouisDay","trendMapped":"project+home+louis+day","trendVolume":667530},{"stateName":"CA","trendName":"#SuperTuesday","placeID":"2487956","placeName":"San Francisco","searchUrl":"http:\/\/twitter.com\/search?q=%23SuperTuesday","trendMapped":"super+tuesday","trendVolume":117985},{"stateName":"CA","trendName":"#VoiceSaveDaniel","placeID":"2487889","placeName":"San Diego","searchUrl":"http:\/\/twitter.com\/search?q=%23VoiceSaveDaniel","trendMapped":"voice+save+daniel","trendVolume":204777},{"stateName":"CA","trendName":"#VoiceSaveOwen","placeID":"2488042","placeName":"San Jose","searchUrl":"http:\/\/twitter.com\/search?q=%23VoiceSaveOwen","trendMapped":"voice+save+owen","trendVolume":250721},{"stateName":"CA","trendName":"#YoFirmoYoRevoco","placeID":"2487889","placeName":"San Diego","searchUrl":"http:\/\/twitter.com\/search?q=%23YoFirmoYoRevoco","trendMapped":"yo+firmo+yo+revoco","trendVolume":107816},{"stateName":"CA","trendName":"Atl\u00e9tico","placeID":"2487956","placeName":"San Francisco","searchUrl":"http:\/\/twitter.com\/search?q=Atl%C3%A9tico","trendMapped":"atl\u00e9tico","trendVolume":354062},{"stateName":"CA","trendName":"Maracaibo","placeID":"2487889","placeName":"San Diego","searchUrl":"http:\/\/twitter.com\/search?q=Maracaibo","trendMapped":"maracaibo","trendVolume":200732},{"stateName":"CA","trendName":"Saul","placeID":"2442047","placeName":"Los Angeles","searchUrl":"http:\/\/twitter.com\/search?q=Saul","trendMapped":"saul","trendVolume":161397},{"stateName":"CA","trendName":"Views","placeID":"2487956","placeName":"San Francisco","searchUrl":"http:\/\/twitter.com\/search?q=Views","trendMapped":"views","trendVolume":412754},{"stateName":"CO","trendName":"#BringItHomeDLSU","placeID":"2391279","placeName":"Denver","searchUrl":"http:\/\/twitter.com\/search?q=%23BringItHomeDLSU","trendMapped":"bring+it+home+dlsu","trendVolume":264294},{"stateName":"CO","trendName":"#DolanTwinsNewVideo","placeID":"2383489","placeName":"Colorado Springs","searchUrl":"http:\/\/twitter.com\/search?q=%23DolanTwinsNewVideo","trendMapped":"dolan+twins+new+video","trendVolume":121541},{"stateName":"CO","trendName":"#ProjectHomeLouisDay","placeID":"2391279","placeName":"Denver","searchUrl":"http:\/\/twitter.com\/search?q=%23ProjectHomeLouisDay","trendMapped":"project+home+louis+day","trendVolume":644384},{"stateName":"CO","trendName":"#VoiceSaveDaniel","placeID":"2391279","placeName":"Denver","searchUrl":"http:\/\/twitter.com\/search?q=%23VoiceSaveDaniel","trendMapped":"voice+save+daniel","trendVolume":204773},{"stateName":"CO","trendName":"#VoiceSaveOwen","placeID":"2391279","placeName":"Denver","searchUrl":"http:\/\/twitter.com\/search?q=%23VoiceSaveOwen","trendMapped":"voice+save+owen","trendVolume":249394},{"stateName":"CO","trendName":"Atl\u00e9tico","placeID":"2391279","placeName":"Denver","searchUrl":"http:\/\/twitter.com\/search?q=Atl%C3%A9tico","trendMapped":"atl\u00e9tico","trendVolume":355535},{"stateName":"CO","trendName":"Bayern","placeID":"2391279","placeName":"Denver","searchUrl":"http:\/\/twitter.com\/search?q=Bayern","trendMapped":"bayern","trendVolume":324243},{"stateName":"CO","trendName":"ESPN","placeID":"2391279","placeName":"Denver","searchUrl":"http:\/\/twitter.com\/search?q=ESPN","trendMapped":"espn","trendVolume":183105},{"stateName":"CO","trendName":"Maracaibo","placeID":"2383489","placeName":"Colorado Springs","searchUrl":"http:\/\/twitter.com\/search?q=Maracaibo","trendMapped":"maracaibo","trendVolume":199649},{"stateName":"CT","trendName":"#BringItHomeDLSU","placeID":"2458410","placeName":"New Haven","searchUrl":"http:\/\/twitter.com\/search?q=%23BringItHomeDLSU","trendMapped":"bring+it+home+dlsu","trendVolume":244715},{"stateName":"CT","trendName":"#ProjectHomeLouisDay","placeID":"2458410","placeName":"New Haven","searchUrl":"http:\/\/twitter.com\/search?q=%23ProjectHomeLouisDay","trendMapped":"project+home+louis+day","trendVolume":603101},{"stateName":"CT","trendName":"#SuperTuesday","placeID":"2458410","placeName":"New Haven","searchUrl":"http:\/\/twitter.com\/search?q=%23SuperTuesday","trendMapped":"super+tuesday","trendVolume":118409},{"stateName":"CT","trendName":"#VoiceSaveOwen","placeID":"2458410","placeName":"New Haven","searchUrl":"http:\/\/twitter.com\/search?q=%23VoiceSaveOwen","trendMapped":"voice+save+owen","trendVolume":250721},{"stateName":"CT","trendName":"Atl\u00e9tico","placeID":"2458410","placeName":"New Haven","searchUrl":"http:\/\/twitter.com\/search?q=Atl%C3%A9tico","trendMapped":"atl\u00e9tico","trendVolume":340933},{"stateName":"CT","trendName":"Bayern","placeID":"2458410","placeName":"New Haven","searchUrl":"http:\/\/twitter.com\/search?q=Bayern","trendMapped":"bayern","trendVolume":324243},{"stateName":"CT","trendName":"Manchester","placeID":"2458410","placeName":"New Haven","searchUrl":"http:\/\/twitter.com\/search?q=Manchester","trendMapped":"manchester","trendVolume":281245},{"stateName":"CT","trendName":"Trump","placeID":"2458410","placeName":"New Haven","searchUrl":"http:\/\/twitter.com\/search?q=Trump","trendMapped":"trump","trendVolume":1109003},{"stateName":"DC","trendName":"#BringItHomeDLSU","placeID":"2514815","placeName":"Washington","searchUrl":"http:\/\/twitter.com\/search?q=%23BringItHomeDLSU","trendMapped":"bring+it+home+dlsu","trendVolume":266974},{"stateName":"DC","trendName":"#ProjectHomeLouisDay","placeID":"2514815","placeName":"Washington","searchUrl":"http:\/\/twitter.com\/search?q=%23ProjectHomeLouisDay","trendMapped":"project+home+louis+day","trendVolume":538484},{"stateName":"DC","trendName":"#SuperTuesday","placeID":"2514815","placeName":"Washington","searchUrl":"http:\/\/twitter.com\/search?q=%23SuperTuesday","trendMapped":"super+tuesday","trendVolume":104101},{"stateName":"DC","trendName":"#VoiceSaveOwen","placeID":"2514815","placeName":"Washington","searchUrl":"http:\/\/twitter.com\/search?q=%23VoiceSaveOwen","trendMapped":"voice+save+owen","trendVolume":249657},{"stateName":"DC","trendName":"Atl\u00e9tico","placeID":"2514815","placeName":"Washington","searchUrl":"http:\/\/twitter.com\/search?q=Atl%C3%A9tico","trendMapped":"atl\u00e9tico","trendVolume":346493},{"stateName":"FL","trendName":"#BringItHomeDLSU","placeID":"2466256","placeName":"Orlando","searchUrl":"http:\/\/twitter.com\/search?q=%23BringItHomeDLSU","trendMapped":"bring+it+home+dlsu","trendVolume":240951},{"stateName":"FL","trendName":"#DolanTwinsNewVideo","placeID":"2466256","placeName":"Orlando","searchUrl":"http:\/\/twitter.com\/search?q=%23DolanTwinsNewVideo","trendMapped":"dolan+twins+new+video","trendVolume":122710},{"stateName":"FL","trendName":"#ProjectHomeHarryDay","placeID":"2466256","placeName":"Orlando","searchUrl":"http:\/\/twitter.com\/search?q=%23ProjectHomeHarryDay","trendMapped":"project+home+harry+day","trendVolume":797379},{"stateName":"FL","trendName":"#ProjectHomeLouisDay","placeID":"2503863","placeName":"Tampa","searchUrl":"http:\/\/twitter.com\/search?q=%23ProjectHomeLouisDay","trendMapped":"project+home+louis+day","trendVolume":724465},{"stateName":"FL","trendName":"#SuperTuesday","placeID":"2503863","placeName":"Tampa","searchUrl":"http:\/\/twitter.com\/search?q=%23SuperTuesday","trendMapped":"super+tuesday","trendVolume":115926},{"stateName":"FL","trendName":"#VoiceSaveDaniel","placeID":"2503863","placeName":"Tampa","searchUrl":"http:\/\/twitter.com\/search?q=%23VoiceSaveDaniel","trendMapped":"voice+save+daniel","trendVolume":204773},{"stateName":"FL","trendName":"#VoiceSaveOwen","placeID":"2503863","placeName":"Tampa","searchUrl":"http:\/\/twitter.com\/search?q=%23VoiceSaveOwen","trendMapped":"voice+save+owen","trendVolume":250673},{"stateName":"FL","trendName":"Atl\u00e9tico","placeID":"2503863","placeName":"Tampa","searchUrl":"http:\/\/twitter.com\/search?q=Atl%C3%A9tico","trendMapped":"atl\u00e9tico","trendVolume":355535},{"stateName":"FL","trendName":"Bayern","placeID":"2450022","placeName":"Miami","searchUrl":"http:\/\/twitter.com\/search?q=Bayern","trendMapped":"bayern","trendVolume":322249},{"stateName":"FL","trendName":"Beyonc\u00e9","placeID":"2503713","placeName":"Tallahassee","searchUrl":"http:\/\/twitter.com\/search?q=Beyonc%C3%A9","trendMapped":"beyonc\u00e9","trendVolume":604128},{"stateName":"FL","trendName":"Black","placeID":"2503713","placeName":"Tallahassee","searchUrl":"http:\/\/twitter.com\/search?q=Black","trendMapped":"black","trendVolume":820719},{"stateName":"FL","trendName":"Cruz","placeID":"2428344","placeName":"Jacksonville","searchUrl":"http:\/\/twitter.com\/search?q=Cruz","trendMapped":"cruz","trendVolume":361152},{"stateName":"FL","trendName":"Lemonade","placeID":"2428344","placeName":"Jacksonville","searchUrl":"http:\/\/twitter.com\/search?q=Lemonade","trendMapped":"lemonade","trendVolume":518075},{"stateName":"FL","trendName":"Maracaibo","placeID":"2503863","placeName":"Tampa","searchUrl":"http:\/\/twitter.com\/search?q=Maracaibo","trendMapped":"maracaibo","trendVolume":201648},{"stateName":"FL","trendName":"Real Madrid","placeID":"2450022","placeName":"Miami","searchUrl":"http:\/\/twitter.com\/search?q=%22Real+Madrid%22","trendMapped":"Real+Madrid","trendVolume":318691},{"stateName":"FL","trendName":"Ted Cruz","placeID":"2428344","placeName":"Jacksonville","searchUrl":"http:\/\/twitter.com\/search?q=%22Ted+Cruz%22","trendMapped":"Ted+Cruz","trendVolume":112742},{"stateName":"FL","trendName":"Trump","placeID":"2503863","placeName":"Tampa","searchUrl":"http:\/\/twitter.com\/search?q=Trump","trendMapped":"trump","trendVolume":1321624},{"stateName":"GA","trendName":"#BringItHomeDLSU","placeID":"2357024","placeName":"Atlanta","searchUrl":"http:\/\/twitter.com\/search?q=%23BringItHomeDLSU","trendMapped":"bring+it+home+dlsu","trendVolume":197734},{"stateName":"GA","trendName":"#DolanTwinsNewVideo","placeID":"2357024","placeName":"Atlanta","searchUrl":"http:\/\/twitter.com\/search?q=%23DolanTwinsNewVideo","trendMapped":"dolan+twins+new+video","trendVolume":121296},{"stateName":"GA","trendName":"#ProjectHomeLouisDay","placeID":"2357024","placeName":"Atlanta","searchUrl":"http:\/\/twitter.com\/search?q=%23ProjectHomeLouisDay","trendMapped":"project+home+louis+day","trendVolume":603101},{"stateName":"GA","trendName":"#SuperTuesday","placeID":"2357024","placeName":"Atlanta","searchUrl":"http:\/\/twitter.com\/search?q=%23SuperTuesday","trendMapped":"super+tuesday","trendVolume":113460},{"stateName":"GA","trendName":"#VoiceSaveDaniel","placeID":"2357024","placeName":"Atlanta","searchUrl":"http:\/\/twitter.com\/search?q=%23VoiceSaveDaniel","trendMapped":"voice+save+daniel","trendVolume":205392},{"stateName":"GA","trendName":"#VoiceSaveOwen","placeID":"2357024","placeName":"Atlanta","searchUrl":"http:\/\/twitter.com\/search?q=%23VoiceSaveOwen","trendMapped":"voice+save+owen","trendVolume":250325},{"stateName":"GA","trendName":"Atl\u00e9tico","placeID":"2357024","placeName":"Atlanta","searchUrl":"http:\/\/twitter.com\/search?q=Atl%C3%A9tico","trendMapped":"atl\u00e9tico","trendVolume":284617},{"stateName":"GA","trendName":"Maracaibo","placeID":"2357024","placeName":"Atlanta","searchUrl":"http:\/\/twitter.com\/search?q=Maracaibo","trendMapped":"maracaibo","trendVolume":200041},{"stateName":"GA","trendName":"Nintendo","placeID":"2357024","placeName":"Atlanta","searchUrl":"http:\/\/twitter.com\/search?q=Nintendo","trendMapped":"nintendo","trendVolume":179657},{"stateName":"GA","trendName":"Views","placeID":"2357024","placeName":"Atlanta","searchUrl":"http:\/\/twitter.com\/search?q=Views","trendMapped":"views","trendVolume":425059},{"stateName":"HI","trendName":"Atl\u00e9tico","placeID":"2423945","placeName":"Honolulu","searchUrl":"http:\/\/twitter.com\/search?q=Atl%C3%A9tico","trendMapped":"atl\u00e9tico","trendVolume":203816},{"stateName":"HI","trendName":"Beyonc\u00e9","placeID":"2423945","placeName":"Honolulu","searchUrl":"http:\/\/twitter.com\/search?q=Beyonc%C3%A9","trendMapped":"beyonc\u00e9","trendVolume":565528},{"stateName":"IL","trendName":"#BringItHomeDLSU","placeID":"2379574","placeName":"Chicago","searchUrl":"http:\/\/twitter.com\/search?q=%23BringItHomeDLSU","trendMapped":"bring+it+home+dlsu","trendVolume":197734},{"stateName":"IL","trendName":"#ProjectHomeLouisDay","placeID":"2379574","placeName":"Chicago","searchUrl":"http:\/\/twitter.com\/search?q=%23ProjectHomeLouisDay","trendMapped":"project+home+louis+day","trendVolume":612541},{"stateName":"IL","trendName":"#SuperTuesday","placeID":"2379574","placeName":"Chicago","searchUrl":"http:\/\/twitter.com\/search?q=%23SuperTuesday","trendMapped":"super+tuesday","trendVolume":118409},{"stateName":"IL","trendName":"#VoiceSaveDaniel","placeID":"2379574","placeName":"Chicago","searchUrl":"http:\/\/twitter.com\/search?q=%23VoiceSaveDaniel","trendMapped":"voice+save+daniel","trendVolume":204662},{"stateName":"IL","trendName":"#VoiceSaveOwen","placeID":"2379574","placeName":"Chicago","searchUrl":"http:\/\/twitter.com\/search?q=%23VoiceSaveOwen","trendMapped":"voice+save+owen","trendVolume":250673},{"stateName":"IL","trendName":"#YoFirmoYoRevoco","placeID":"2379574","placeName":"Chicago","searchUrl":"http:\/\/twitter.com\/search?q=%23YoFirmoYoRevoco","trendMapped":"yo+firmo+yo+revoco","trendVolume":109478},{"stateName":"IL","trendName":"Bayern","placeID":"2379574","placeName":"Chicago","searchUrl":"http:\/\/twitter.com\/search?q=Bayern","trendMapped":"bayern","trendVolume":324243},{"stateName":"IL","trendName":"Views","placeID":"2379574","placeName":"Chicago","searchUrl":"http:\/\/twitter.com\/search?q=Views","trendMapped":"views","trendVolume":422064},{"stateName":"IN","trendName":"#BringItHomeDLSU","placeID":"2427032","placeName":"Indianapolis","searchUrl":"http:\/\/twitter.com\/search?q=%23BringItHomeDLSU","trendMapped":"bring+it+home+dlsu","trendVolume":233367},{"stateName":"IN","trendName":"#ProjectHomeLouisDay","placeID":"2427032","placeName":"Indianapolis","searchUrl":"http:\/\/twitter.com\/search?q=%23ProjectHomeLouisDay","trendMapped":"project+home+louis+day","trendVolume":594062},{"stateName":"IN","trendName":"#VoiceSaveDaniel","placeID":"2427032","placeName":"Indianapolis","searchUrl":"http:\/\/twitter.com\/search?q=%23VoiceSaveDaniel","trendMapped":"voice+save+daniel","trendVolume":204777},{"stateName":"IN","trendName":"#VoiceSaveOwen","placeID":"2427032","placeName":"Indianapolis","searchUrl":"http:\/\/twitter.com\/search?q=%23VoiceSaveOwen","trendMapped":"voice+save+owen","trendVolume":250721},{"stateName":"IN","trendName":"Atl\u00e9tico","placeID":"2427032","placeName":"Indianapolis","searchUrl":"http:\/\/twitter.com\/search?q=Atl%C3%A9tico","trendMapped":"atl\u00e9tico","trendVolume":245962},{"stateName":"IN","trendName":"Bayern","placeID":"2427032","placeName":"Indianapolis","searchUrl":"http:\/\/twitter.com\/search?q=Bayern","trendMapped":"bayern","trendVolume":324243},{"stateName":"IN","trendName":"Maracaibo","placeID":"2427032","placeName":"Indianapolis","searchUrl":"http:\/\/twitter.com\/search?q=Maracaibo","trendMapped":"maracaibo","trendVolume":199878},{"stateName":"KY","trendName":"#BringItHomeDLSU","placeID":"2442327","placeName":"Louisville","searchUrl":"http:\/\/twitter.com\/search?q=%23BringItHomeDLSU","trendMapped":"bring+it+home+dlsu","trendVolume":245175},{"stateName":"KY","trendName":"#SuperTuesday","placeID":"2442327","placeName":"Louisville","searchUrl":"http:\/\/twitter.com\/search?q=%23SuperTuesday","trendMapped":"super+tuesday","trendVolume":112157},{"stateName":"KY","trendName":"#VoiceSaveDaniel","placeID":"2442327","placeName":"Louisville","searchUrl":"http:\/\/twitter.com\/search?q=%23VoiceSaveDaniel","trendMapped":"voice+save+daniel","trendVolume":204760},{"stateName":"KY","trendName":"#VoiceSaveOwen","placeID":"2442327","placeName":"Louisville","searchUrl":"http:\/\/twitter.com\/search?q=%23VoiceSaveOwen","trendMapped":"voice+save+owen","trendVolume":250721},{"stateName":"KY","trendName":"Atl\u00e9tico","placeID":"2442327","placeName":"Louisville","searchUrl":"http:\/\/twitter.com\/search?q=Atl%C3%A9tico","trendMapped":"atl\u00e9tico","trendVolume":346489},{"stateName":"KY","trendName":"Bayern","placeID":"2442327","placeName":"Louisville","searchUrl":"http:\/\/twitter.com\/search?q=Bayern","trendMapped":"bayern","trendVolume":322835},{"stateName":"KY","trendName":"Beyonc\u00e9","placeID":"2442327","placeName":"Louisville","searchUrl":"http:\/\/twitter.com\/search?q=Beyonc%C3%A9","trendMapped":"beyonc\u00e9","trendVolume":539247},{"stateName":"LA","trendName":"#ProjectHomeLouisDay","placeID":"2458833","placeName":"New Orleans","searchUrl":"http:\/\/twitter.com\/search?q=%23ProjectHomeLouisDay","trendMapped":"project+home+louis+day","trendVolume":594062},{"stateName":"LA","trendName":"#VoiceSaveOwen","placeID":"2359991","placeName":"Baton Rouge","searchUrl":"http:\/\/twitter.com\/search?q=%23VoiceSaveOwen","trendMapped":"voice+save+owen","trendVolume":249045},{"stateName":"LA","trendName":"Atl\u00e9tico","placeID":"2458833","placeName":"New Orleans","searchUrl":"http:\/\/twitter.com\/search?q=Atl%C3%A9tico","trendMapped":"atl\u00e9tico","trendVolume":328179},{"stateName":"LA","trendName":"Bernie","placeID":"2458833","placeName":"New Orleans","searchUrl":"http:\/\/twitter.com\/search?q=Bernie","trendMapped":"bernie","trendVolume":319368},{"stateName":"LA","trendName":"Cruz","placeID":"2458833","placeName":"New Orleans","searchUrl":"http:\/\/twitter.com\/search?q=Cruz","trendMapped":"cruz","trendVolume":523845},{"stateName":"LA","trendName":"Trump","placeID":"2359991","placeName":"Baton Rouge","searchUrl":"http:\/\/twitter.com\/search?q=Trump","trendMapped":"trump","trendVolume":1332406},{"stateName":"MA","trendName":"#BringItHomeDLSU","placeID":"2367105","placeName":"Boston","searchUrl":"http:\/\/twitter.com\/search?q=%23BringItHomeDLSU","trendMapped":"bring+it+home+dlsu","trendVolume":218937},{"stateName":"MA","trendName":"#ProjectHomeLouisDay","placeID":"2367105","placeName":"Boston","searchUrl":"http:\/\/twitter.com\/search?q=%23ProjectHomeLouisDay","trendMapped":"project+home+louis+day","trendVolume":634566},{"stateName":"MA","trendName":"#SuperTuesday","placeID":"2367105","placeName":"Boston","searchUrl":"http:\/\/twitter.com\/search?q=%23SuperTuesday","trendMapped":"super+tuesday","trendVolume":115356},{"stateName":"MA","trendName":"#VoiceSaveOwen","placeID":"2367105","placeName":"Boston","searchUrl":"http:\/\/twitter.com\/search?q=%23VoiceSaveOwen","trendMapped":"voice+save+owen","trendVolume":249745},{"stateName":"MA","trendName":"Atl\u00e9tico","placeID":"2367105","placeName":"Boston","searchUrl":"http:\/\/twitter.com\/search?q=Atl%C3%A9tico","trendMapped":"atl\u00e9tico","trendVolume":355535},{"stateName":"MA","trendName":"Bayern","placeID":"2367105","placeName":"Boston","searchUrl":"http:\/\/twitter.com\/search?q=Bayern","trendMapped":"bayern","trendVolume":324243},{"stateName":"MD","trendName":"#BringItHomeDLSU","placeID":"2358820","placeName":"Baltimore","searchUrl":"http:\/\/twitter.com\/search?q=%23BringItHomeDLSU","trendMapped":"bring+it+home+dlsu","trendVolume":266974},{"stateName":"MD","trendName":"#ProjectHomeLouisDay","placeID":"2358820","placeName":"Baltimore","searchUrl":"http:\/\/twitter.com\/search?q=%23ProjectHomeLouisDay","trendMapped":"project+home+louis+day","trendVolume":460157},{"stateName":"MD","trendName":"#VoiceSaveDaniel","placeID":"2358820","placeName":"Baltimore","searchUrl":"http:\/\/twitter.com\/search?q=%23VoiceSaveDaniel","trendMapped":"voice+save+daniel","trendVolume":204662},{"stateName":"MD","trendName":"#VoiceSaveOwen","placeID":"2358820","placeName":"Baltimore","searchUrl":"http:\/\/twitter.com\/search?q=%23VoiceSaveOwen","trendMapped":"voice+save+owen","trendVolume":250340},{"stateName":"MD","trendName":"Atl\u00e9tico","placeID":"2358820","placeName":"Baltimore","searchUrl":"http:\/\/twitter.com\/search?q=Atl%C3%A9tico","trendMapped":"atl\u00e9tico","trendVolume":344375},{"stateName":"MD","trendName":"ESPN","placeID":"2358820","placeName":"Baltimore","searchUrl":"http:\/\/twitter.com\/search?q=ESPN","trendMapped":"espn","trendVolume":181583},{"stateName":"MD","trendName":"Kasich","placeID":"2358820","placeName":"Baltimore","searchUrl":"http:\/\/twitter.com\/search?q=Kasich","trendMapped":"kasich","trendVolume":139273},{"stateName":"MD","trendName":"Maracaibo","placeID":"2358820","placeName":"Baltimore","searchUrl":"http:\/\/twitter.com\/search?q=Maracaibo","trendMapped":"maracaibo","trendVolume":200297},{"stateName":"MI","trendName":"#BringItHomeDLSU","placeID":"2391585","placeName":"Detroit","searchUrl":"http:\/\/twitter.com\/search?q=%23BringItHomeDLSU","trendMapped":"bring+it+home+dlsu","trendVolume":266974},{"stateName":"MI","trendName":"#ProjectHomeLouisDay","placeID":"2391585","placeName":"Detroit","searchUrl":"http:\/\/twitter.com\/search?q=%23ProjectHomeLouisDay","trendMapped":"project+home+louis+day","trendVolume":739489},{"stateName":"MI","trendName":"#SuperTuesday","placeID":"2391585","placeName":"Detroit","searchUrl":"http:\/\/twitter.com\/search?q=%23SuperTuesday","trendMapped":"super+tuesday","trendVolume":109267},{"stateName":"MI","trendName":"#VoiceSaveOwen","placeID":"2391585","placeName":"Detroit","searchUrl":"http:\/\/twitter.com\/search?q=%23VoiceSaveOwen","trendMapped":"voice+save+owen","trendVolume":250340},{"stateName":"MI","trendName":"Skip Bayless","placeID":"2391585","placeName":"Detroit","searchUrl":"http:\/\/twitter.com\/search?q=%22Skip+Bayless%22","trendMapped":"Skip+Bayless","trendVolume":56645},{"stateName":"MI","trendName":"Trump","placeID":"2391585","placeName":"Detroit","searchUrl":"http:\/\/twitter.com\/search?q=Trump","trendMapped":"trump","trendVolume":1225796},{"stateName":"MI","trendName":"Views","placeID":"2391585","placeName":"Detroit","searchUrl":"http:\/\/twitter.com\/search?q=Views","trendMapped":"views","trendVolume":383219},{"stateName":"MN","trendName":"#ProjectHomeHarryDay","placeID":"2452078","placeName":"Minneapolis","searchUrl":"http:\/\/twitter.com\/search?q=%23ProjectHomeHarryDay","trendMapped":"project+home+harry+day","trendVolume":515840},{"stateName":"MN","trendName":"#ProjectHomeLouisDay","placeID":"2452078","placeName":"Minneapolis","searchUrl":"http:\/\/twitter.com\/search?q=%23ProjectHomeLouisDay","trendMapped":"project+home+louis+day","trendVolume":677740},{"stateName":"MN","trendName":"#SuperTuesday","placeID":"2452078","placeName":"Minneapolis","searchUrl":"http:\/\/twitter.com\/search?q=%23SuperTuesday","trendMapped":"super+tuesday","trendVolume":112248},{"stateName":"MN","trendName":"#VoiceSaveOwen","placeID":"2452078","placeName":"Minneapolis","searchUrl":"http:\/\/twitter.com\/search?q=%23VoiceSaveOwen","trendMapped":"voice+save+owen","trendVolume":249657},{"stateName":"MN","trendName":"Bayern","placeID":"2452078","placeName":"Minneapolis","searchUrl":"http:\/\/twitter.com\/search?q=Bayern","trendMapped":"bayern","trendVolume":322249},{"stateName":"MN","trendName":"Clinton","placeID":"2452078","placeName":"Minneapolis","searchUrl":"http:\/\/twitter.com\/search?q=Clinton","trendMapped":"clinton","trendVolume":293672},{"stateName":"MN","trendName":"Cruz","placeID":"2452078","placeName":"Minneapolis","searchUrl":"http:\/\/twitter.com\/search?q=Cruz","trendMapped":"cruz","trendVolume":356648},{"stateName":"MN","trendName":"Maracaibo","placeID":"2452078","placeName":"Minneapolis","searchUrl":"http:\/\/twitter.com\/search?q=Maracaibo","trendMapped":"maracaibo","trendVolume":200222},{"stateName":"MO","trendName":"#BringItHomeDLSU","placeID":"2486982","placeName":"St. Louis","searchUrl":"http:\/\/twitter.com\/search?q=%23BringItHomeDLSU","trendMapped":"bring+it+home+dlsu","trendVolume":227021},{"stateName":"MO","trendName":"#DolanTwinsNewVideo","placeID":"2486982","placeName":"St. Louis","searchUrl":"http:\/\/twitter.com\/search?q=%23DolanTwinsNewVideo","trendMapped":"dolan+twins+new+video","trendVolume":121372},{"stateName":"MO","trendName":"#ProjectHomeLouisDay","placeID":"2486982","placeName":"St. Louis","searchUrl":"http:\/\/twitter.com\/search?q=%23ProjectHomeLouisDay","trendMapped":"project+home+louis+day","trendVolume":621864},{"stateName":"MO","trendName":"#SuperTuesday","placeID":"2486982","placeName":"St. Louis","searchUrl":"http:\/\/twitter.com\/search?q=%23SuperTuesday","trendMapped":"super+tuesday","trendVolume":117008},{"stateName":"MO","trendName":"#VoiceSaveDaniel","placeID":"2430683","placeName":"Kansas City","searchUrl":"http:\/\/twitter.com\/search?q=%23VoiceSaveDaniel","trendMapped":"voice+save+daniel","trendVolume":204760},{"stateName":"MO","trendName":"#VoiceSaveOwen","placeID":"2486982","placeName":"St. Louis","searchUrl":"http:\/\/twitter.com\/search?q=%23VoiceSaveOwen","trendMapped":"voice+save+owen","trendVolume":249745},{"stateName":"MO","trendName":"Amazon","placeID":"2430683","placeName":"Kansas City","searchUrl":"http:\/\/twitter.com\/search?q=Amazon","trendMapped":"amazon","trendVolume":695630},{"stateName":"MO","trendName":"Atl\u00e9tico","placeID":"2486982","placeName":"St. Louis","searchUrl":"http:\/\/twitter.com\/search?q=Atl%C3%A9tico","trendMapped":"atl\u00e9tico","trendVolume":344829},{"stateName":"MO","trendName":"ESPN","placeID":"2430683","placeName":"Kansas City","searchUrl":"http:\/\/twitter.com\/search?q=ESPN","trendMapped":"espn","trendVolume":185380},{"stateName":"MO","trendName":"Trump","placeID":"2486982","placeName":"St. Louis","searchUrl":"http:\/\/twitter.com\/search?q=Trump","trendMapped":"trump","trendVolume":1205044},{"stateName":"MS","trendName":"Trump","placeID":"2428184","placeName":"Jackson","searchUrl":"http:\/\/twitter.com\/search?q=Trump","trendMapped":"trump","trendVolume":1317336},{"stateName":"NC","trendName":"#DolanTwinsNewVideo","placeID":"2378426","placeName":"Charlotte","searchUrl":"http:\/\/twitter.com\/search?q=%23DolanTwinsNewVideo","trendMapped":"dolan+twins+new+video","trendVolume":121209},{"stateName":"NC","trendName":"#ProjectHomeLouisDay","placeID":"2478307","placeName":"Raleigh","searchUrl":"http:\/\/twitter.com\/search?q=%23ProjectHomeLouisDay","trendMapped":"project+home+louis+day","trendVolume":603101},{"stateName":"NC","trendName":"#SuperTuesday","placeID":"2378426","placeName":"Charlotte","searchUrl":"http:\/\/twitter.com\/search?q=%23SuperTuesday","trendMapped":"super+tuesday","trendVolume":115356},{"stateName":"NC","trendName":"#VoiceSaveOwen","placeID":"2478307","placeName":"Raleigh","searchUrl":"http:\/\/twitter.com\/search?q=%23VoiceSaveOwen","trendMapped":"voice+save+owen","trendVolume":250340},{"stateName":"NC","trendName":"Atl\u00e9tico","placeID":"2478307","placeName":"Raleigh","searchUrl":"http:\/\/twitter.com\/search?q=Atl%C3%A9tico","trendMapped":"atl\u00e9tico","trendVolume":340933},{"stateName":"NC","trendName":"Bayern","placeID":"2478307","placeName":"Raleigh","searchUrl":"http:\/\/twitter.com\/search?q=Bayern","trendMapped":"bayern","trendVolume":322835},{"stateName":"NC","trendName":"Bernie","placeID":"2478307","placeName":"Raleigh","searchUrl":"http:\/\/twitter.com\/search?q=Bernie","trendMapped":"bernie","trendVolume":270639},{"stateName":"NC","trendName":"Clinton","placeID":"2478307","placeName":"Raleigh","searchUrl":"http:\/\/twitter.com\/search?q=Clinton","trendMapped":"clinton","trendVolume":342404},{"stateName":"NC","trendName":"ESPN","placeID":"2414469","placeName":"Greensboro","searchUrl":"http:\/\/twitter.com\/search?q=ESPN","trendMapped":"espn","trendVolume":183826},{"stateName":"NC","trendName":"Hillary","placeID":"2414469","placeName":"Greensboro","searchUrl":"http:\/\/twitter.com\/search?q=Hillary","trendMapped":"hillary","trendVolume":406574},{"stateName":"NC","trendName":"House","placeID":"2378426","placeName":"Charlotte","searchUrl":"http:\/\/twitter.com\/search?q=House","trendMapped":"house","trendVolume":516910},{"stateName":"NC","trendName":"Saul","placeID":"2478307","placeName":"Raleigh","searchUrl":"http:\/\/twitter.com\/search?q=Saul","trendMapped":"saul","trendVolume":122592},{"stateName":"NE","trendName":"#ProjectHomeLouisDay","placeID":"2465512","placeName":"Omaha","searchUrl":"http:\/\/twitter.com\/search?q=%23ProjectHomeLouisDay","trendMapped":"project+home+louis+day","trendVolume":615263},{"stateName":"NE","trendName":"Atl\u00e9tico","placeID":"2465512","placeName":"Omaha","searchUrl":"http:\/\/twitter.com\/search?q=Atl%C3%A9tico","trendMapped":"atl\u00e9tico","trendVolume":310936},{"stateName":"NE","trendName":"Bernie","placeID":"2465512","placeName":"Omaha","searchUrl":"http:\/\/twitter.com\/search?q=Bernie","trendMapped":"bernie","trendVolume":319993},{"stateName":"NE","trendName":"Beyonc\u00e9","placeID":"2465512","placeName":"Omaha","searchUrl":"http:\/\/twitter.com\/search?q=Beyonc%C3%A9","trendMapped":"beyonc\u00e9","trendVolume":574008},{"stateName":"NM","trendName":"#BringItHomeDLSU","placeID":"2352824","placeName":"Albuquerque","searchUrl":"http:\/\/twitter.com\/search?q=%23BringItHomeDLSU","trendMapped":"bring+it+home+dlsu","trendVolume":256978},{"stateName":"NM","trendName":"#DolanTwinsNewVideo","placeID":"2352824","placeName":"Albuquerque","searchUrl":"http:\/\/twitter.com\/search?q=%23DolanTwinsNewVideo","trendMapped":"dolan+twins+new+video","trendVolume":121541},{"stateName":"NM","trendName":"#ProjectHomeLouisDay","placeID":"2352824","placeName":"Albuquerque","searchUrl":"http:\/\/twitter.com\/search?q=%23ProjectHomeLouisDay","trendMapped":"project+home+louis+day","trendVolume":584639},{"stateName":"NM","trendName":"#VoiceSaveDaniel","placeID":"2352824","placeName":"Albuquerque","searchUrl":"http:\/\/twitter.com\/search?q=%23VoiceSaveDaniel","trendMapped":"voice+save+daniel","trendVolume":204662},{"stateName":"NM","trendName":"#VoiceSaveOwen","placeID":"2352824","placeName":"Albuquerque","searchUrl":"http:\/\/twitter.com\/search?q=%23VoiceSaveOwen","trendMapped":"voice+save+owen","trendVolume":249045},{"stateName":"NM","trendName":"Atl\u00e9tico","placeID":"2352824","placeName":"Albuquerque","searchUrl":"http:\/\/twitter.com\/search?q=Atl%C3%A9tico","trendMapped":"atl\u00e9tico","trendVolume":301581},{"stateName":"NM","trendName":"Maracaibo","placeID":"2352824","placeName":"Albuquerque","searchUrl":"http:\/\/twitter.com\/search?q=Maracaibo","trendMapped":"maracaibo","trendVolume":200024},{"stateName":"NV","trendName":"#BringItHomeDLSU","placeID":"2436704","placeName":"Las Vegas","searchUrl":"http:\/\/twitter.com\/search?q=%23BringItHomeDLSU","trendMapped":"bring+it+home+dlsu","trendVolume":270977},{"stateName":"NV","trendName":"#DolceAmoreCiaoItalia","placeID":"2436704","placeName":"Las Vegas","searchUrl":"http:\/\/twitter.com\/search?q=%23DolceAmoreCiaoItalia","trendMapped":"dolce+amore+ciao+italia","trendVolume":455540},{"stateName":"NV","trendName":"#ProjectHomeLouisDay","placeID":"2436704","placeName":"Las Vegas","searchUrl":"http:\/\/twitter.com\/search?q=%23ProjectHomeLouisDay","trendMapped":"project+home+louis+day","trendVolume":556645},{"stateName":"NV","trendName":"#VoiceSaveOwen","placeID":"2436704","placeName":"Las Vegas","searchUrl":"http:\/\/twitter.com\/search?q=%23VoiceSaveOwen","trendMapped":"voice+save+owen","trendVolume":250325},{"stateName":"NV","trendName":"Atl\u00e9tico","placeID":"2436704","placeName":"Las Vegas","searchUrl":"http:\/\/twitter.com\/search?q=Atl%C3%A9tico","trendMapped":"atl\u00e9tico","trendVolume":331283},{"stateName":"NV","trendName":"Canada","placeID":"2436704","placeName":"Las Vegas","searchUrl":"http:\/\/twitter.com\/search?q=Canada","trendMapped":"canada","trendVolume":186825},{"stateName":"NV","trendName":"Lemonade","placeID":"2436704","placeName":"Las Vegas","searchUrl":"http:\/\/twitter.com\/search?q=Lemonade","trendMapped":"lemonade","trendVolume":537537},{"stateName":"NY","trendName":"#BringItHomeDLSU","placeID":"2459115","placeName":"New York","searchUrl":"http:\/\/twitter.com\/search?q=%23BringItHomeDLSU","trendMapped":"bring+it+home+dlsu","trendVolume":266974},{"stateName":"NY","trendName":"#ProjectHomeLouisDay","placeID":"2459115","placeName":"New York","searchUrl":"http:\/\/twitter.com\/search?q=%23ProjectHomeLouisDay","trendMapped":"project+home+louis+day","trendVolume":574360},{"stateName":"NY","trendName":"#VoiceSaveOwen","placeID":"2459115","placeName":"New York","searchUrl":"http:\/\/twitter.com\/search?q=%23VoiceSaveOwen","trendMapped":"voice+save+owen","trendVolume":249045},{"stateName":"NY","trendName":"Atl\u00e9tico","placeID":"2459115","placeName":"New York","searchUrl":"http:\/\/twitter.com\/search?q=Atl%C3%A9tico","trendMapped":"atl\u00e9tico","trendVolume":351539},{"stateName":"NY","trendName":"Maracaibo","placeID":"2459115","placeName":"New York","searchUrl":"http:\/\/twitter.com\/search?q=Maracaibo","trendMapped":"maracaibo","trendVolume":200732},{"stateName":"NY","trendName":"Saul","placeID":"2459115","placeName":"New York","searchUrl":"http:\/\/twitter.com\/search?q=Saul","trendMapped":"saul","trendVolume":165941},{"stateName":"OH","trendName":"#BringItHomeDLSU","placeID":"2383660","placeName":"Columbus","searchUrl":"http:\/\/twitter.com\/search?q=%23BringItHomeDLSU","trendMapped":"bring+it+home+dlsu","trendVolume":264294},{"stateName":"OH","trendName":"#LEMONADE","placeID":"2380358","placeName":"Cincinnati","searchUrl":"http:\/\/twitter.com\/search?q=%23LEMONADE","trendMapped":"lemonade","trendVolume":237756},{"stateName":"OH","trendName":"#ProjectHomeLouisDay","placeID":"2383660","placeName":"Columbus","searchUrl":"http:\/\/twitter.com\/search?q=%23ProjectHomeLouisDay","trendMapped":"project+home+louis+day","trendVolume":603101},{"stateName":"OH","trendName":"#VoiceSaveDaniel","placeID":"2383660","placeName":"Columbus","searchUrl":"http:\/\/twitter.com\/search?q=%23VoiceSaveDaniel","trendMapped":"voice+save+daniel","trendVolume":204760},{"stateName":"OH","trendName":"#VoiceSaveOwen","placeID":"2381475","placeName":"Cleveland","searchUrl":"http:\/\/twitter.com\/search?q=%23VoiceSaveOwen","trendMapped":"voice+save+owen","trendVolume":250325},{"stateName":"OH","trendName":"Atl\u00e9tico","placeID":"2383660","placeName":"Columbus","searchUrl":"http:\/\/twitter.com\/search?q=Atl%C3%A9tico","trendMapped":"atl\u00e9tico","trendVolume":355009},{"stateName":"OH","trendName":"Bayern","placeID":"2380358","placeName":"Cincinnati","searchUrl":"http:\/\/twitter.com\/search?q=Bayern","trendMapped":"bayern","trendVolume":324243},{"stateName":"OH","trendName":"Bieber","placeID":"2381475","placeName":"Cleveland","searchUrl":"http:\/\/twitter.com\/search?q=Bieber","trendMapped":"bieber","trendVolume":182053},{"stateName":"OH","trendName":"ESPN","placeID":"2383660","placeName":"Columbus","searchUrl":"http:\/\/twitter.com\/search?q=ESPN","trendMapped":"espn","trendVolume":187989},{"stateName":"OH","trendName":"Lemonade","placeID":"2383660","placeName":"Columbus","searchUrl":"http:\/\/twitter.com\/search?q=Lemonade","trendMapped":"lemonade","trendVolume":518075},{"stateName":"OH","trendName":"Maracaibo","placeID":"2381475","placeName":"Cleveland","searchUrl":"http:\/\/twitter.com\/search?q=Maracaibo","trendMapped":"maracaibo","trendVolume":200024},{"stateName":"OH","trendName":"Sanders","placeID":"2383660","placeName":"Columbus","searchUrl":"http:\/\/twitter.com\/search?q=Sanders","trendMapped":"sanders","trendVolume":230014},{"stateName":"OH","trendName":"Saul","placeID":"2383660","placeName":"Columbus","searchUrl":"http:\/\/twitter.com\/search?q=Saul","trendMapped":"saul","trendVolume":122592},{"stateName":"OK","trendName":"#BringItHomeDLSU","placeID":"2464592","placeName":"Oklahoma City","searchUrl":"http:\/\/twitter.com\/search?q=%23BringItHomeDLSU","trendMapped":"bring+it+home+dlsu","trendVolume":256978},{"stateName":"OK","trendName":"#DolanTwinsNewVideo","placeID":"2464592","placeName":"Oklahoma City","searchUrl":"http:\/\/twitter.com\/search?q=%23DolanTwinsNewVideo","trendMapped":"dolan+twins+new+video","trendVolume":121372},{"stateName":"OK","trendName":"#ProjectHomeLouisDay","placeID":"2464592","placeName":"Oklahoma City","searchUrl":"http:\/\/twitter.com\/search?q=%23ProjectHomeLouisDay","trendMapped":"project+home+louis+day","trendVolume":564479},{"stateName":"OK","trendName":"#SuperTuesday","placeID":"2464592","placeName":"Oklahoma City","searchUrl":"http:\/\/twitter.com\/search?q=%23SuperTuesday","trendMapped":"super+tuesday","trendVolume":115356},{"stateName":"OK","trendName":"#VoiceSaveDaniel","placeID":"2464592","placeName":"Oklahoma City","searchUrl":"http:\/\/twitter.com\/search?q=%23VoiceSaveDaniel","trendMapped":"voice+save+daniel","trendVolume":204773},{"stateName":"OK","trendName":"#VoiceSaveOwen","placeID":"2464592","placeName":"Oklahoma City","searchUrl":"http:\/\/twitter.com\/search?q=%23VoiceSaveOwen","trendMapped":"voice+save+owen","trendVolume":250325},{"stateName":"OK","trendName":"Atl\u00e9tico","placeID":"2464592","placeName":"Oklahoma City","searchUrl":"http:\/\/twitter.com\/search?q=Atl%C3%A9tico","trendMapped":"atl\u00e9tico","trendVolume":344829},{"stateName":"OK","trendName":"Bayern","placeID":"2464592","placeName":"Oklahoma City","searchUrl":"http:\/\/twitter.com\/search?q=Bayern","trendMapped":"bayern","trendVolume":324243},{"stateName":"OR","trendName":"#BringItHomeDLSU","placeID":"2475687","placeName":"Portland","searchUrl":"http:\/\/twitter.com\/search?q=%23BringItHomeDLSU","trendMapped":"bring+it+home+dlsu","trendVolume":256906},{"stateName":"OR","trendName":"#ProjectHomeLouisDay","placeID":"2475687","placeName":"Portland","searchUrl":"http:\/\/twitter.com\/search?q=%23ProjectHomeLouisDay","trendMapped":"project+home+louis+day","trendVolume":539381},{"stateName":"OR","trendName":"#SuperTuesday","placeID":"2475687","placeName":"Portland","searchUrl":"http:\/\/twitter.com\/search?q=%23SuperTuesday","trendMapped":"super+tuesday","trendVolume":108147},{"stateName":"OR","trendName":"#VoiceSaveOwen","placeID":"2475687","placeName":"Portland","searchUrl":"http:\/\/twitter.com\/search?q=%23VoiceSaveOwen","trendMapped":"voice+save+owen","trendVolume":249657},{"stateName":"OR","trendName":"Apple","placeID":"2475687","placeName":"Portland","searchUrl":"http:\/\/twitter.com\/search?q=Apple","trendMapped":"apple","trendVolume":727589},{"stateName":"OR","trendName":"Atl\u00e9tico","placeID":"2475687","placeName":"Portland","searchUrl":"http:\/\/twitter.com\/search?q=Atl%C3%A9tico","trendMapped":"atl\u00e9tico","trendVolume":351539},{"stateName":"OR","trendName":"Maracaibo","placeID":"2475687","placeName":"Portland","searchUrl":"http:\/\/twitter.com\/search?q=Maracaibo","trendMapped":"maracaibo","trendVolume":200222},{"stateName":"PA","trendName":"#BringItHomeDLSU","placeID":"2471217","placeName":"Philadelphia","searchUrl":"http:\/\/twitter.com\/search?q=%23BringItHomeDLSU","trendMapped":"bring+it+home+dlsu","trendVolume":262103},{"stateName":"PA","trendName":"#DolanTwinsNewVideo","placeID":"2473224","placeName":"Pittsburgh","searchUrl":"http:\/\/twitter.com\/search?q=%23DolanTwinsNewVideo","trendMapped":"dolan+twins+new+video","trendVolume":121466},{"stateName":"PA","trendName":"#ProjectHomeLouisDay","placeID":"2473224","placeName":"Pittsburgh","searchUrl":"http:\/\/twitter.com\/search?q=%23ProjectHomeLouisDay","trendMapped":"project+home+louis+day","trendVolume":606317},{"stateName":"PA","trendName":"#SuperTuesday","placeID":"2471217","placeName":"Philadelphia","searchUrl":"http:\/\/twitter.com\/search?q=%23SuperTuesday","trendMapped":"super+tuesday","trendVolume":114343},{"stateName":"PA","trendName":"#VoiceSaveDaniel","placeID":"2473224","placeName":"Pittsburgh","searchUrl":"http:\/\/twitter.com\/search?q=%23VoiceSaveDaniel","trendMapped":"voice+save+daniel","trendVolume":204773},{"stateName":"PA","trendName":"#VoiceSaveOwen","placeID":"2473224","placeName":"Pittsburgh","searchUrl":"http:\/\/twitter.com\/search?q=%23VoiceSaveOwen","trendMapped":"voice+save+owen","trendVolume":250653},{"stateName":"PA","trendName":"Atl\u00e9tico","placeID":"2471217","placeName":"Philadelphia","searchUrl":"http:\/\/twitter.com\/search?q=Atl%C3%A9tico","trendMapped":"atl\u00e9tico","trendVolume":222173},{"stateName":"PA","trendName":"Cruz","placeID":"2418046","placeName":"Harrisburg","searchUrl":"http:\/\/twitter.com\/search?q=Cruz","trendMapped":"cruz","trendVolume":506916},{"stateName":"PA","trendName":"Hillary","placeID":"2418046","placeName":"Harrisburg","searchUrl":"http:\/\/twitter.com\/search?q=Hillary","trendMapped":"hillary","trendVolume":413730},{"stateName":"PA","trendName":"Hillary Clinton","placeID":"2418046","placeName":"Harrisburg","searchUrl":"http:\/\/twitter.com\/search?q=%22Hillary+Clinton%22","trendMapped":"Hillary+Clinton","trendVolume":136465},{"stateName":"PA","trendName":"Maracaibo","placeID":"2473224","placeName":"Pittsburgh","searchUrl":"http:\/\/twitter.com\/search?q=Maracaibo","trendMapped":"maracaibo","trendVolume":200041},{"stateName":"RI","trendName":"#ProjectHomeLouisDay","placeID":"2477058","placeName":"Providence","searchUrl":"http:\/\/twitter.com\/search?q=%23ProjectHomeLouisDay","trendMapped":"project+home+louis+day","trendVolume":594062},{"stateName":"RI","trendName":"Atl\u00e9tico","placeID":"2477058","placeName":"Providence","searchUrl":"http:\/\/twitter.com\/search?q=Atl%C3%A9tico","trendMapped":"atl\u00e9tico","trendVolume":318670},{"stateName":"RI","trendName":"Clinton","placeID":"2477058","placeName":"Providence","searchUrl":"http:\/\/twitter.com\/search?q=Clinton","trendMapped":"clinton","trendVolume":310651},{"stateName":"RI","trendName":"Trump","placeID":"2477058","placeName":"Providence","searchUrl":"http:\/\/twitter.com\/search?q=Trump","trendMapped":"trump","trendVolume":1255302},{"stateName":"TN","trendName":"#BringItHomeDLSU","placeID":"2457170","placeName":"Nashville","searchUrl":"http:\/\/twitter.com\/search?q=%23BringItHomeDLSU","trendMapped":"bring+it+home+dlsu","trendVolume":256978},{"stateName":"TN","trendName":"#ProjectHomeLouisDay","placeID":"2457170","placeName":"Nashville","searchUrl":"http:\/\/twitter.com\/search?q=%23ProjectHomeLouisDay","trendMapped":"project+home+louis+day","trendVolume":525652},{"stateName":"TN","trendName":"#SuperTuesday","placeID":"2457170","placeName":"Nashville","searchUrl":"http:\/\/twitter.com\/search?q=%23SuperTuesday","trendMapped":"super+tuesday","trendVolume":113686},{"stateName":"TN","trendName":"#VoiceSaveOwen","placeID":"2457170","placeName":"Nashville","searchUrl":"http:\/\/twitter.com\/search?q=%23VoiceSaveOwen","trendMapped":"voice+save+owen","trendVolume":250308},{"stateName":"TN","trendName":"Atl\u00e9tico","placeID":"2457170","placeName":"Nashville","searchUrl":"http:\/\/twitter.com\/search?q=Atl%C3%A9tico","trendMapped":"atl\u00e9tico","trendVolume":338946},{"stateName":"TN","trendName":"Cruz","placeID":"2449323","placeName":"Memphis","searchUrl":"http:\/\/twitter.com\/search?q=Cruz","trendMapped":"cruz","trendVolume":518761},{"stateName":"TN","trendName":"Hillary","placeID":"2457170","placeName":"Nashville","searchUrl":"http:\/\/twitter.com\/search?q=Hillary","trendMapped":"hillary","trendVolume":283048},{"stateName":"TN","trendName":"Trump","placeID":"2449323","placeName":"Memphis","searchUrl":"http:\/\/twitter.com\/search?q=Trump","trendMapped":"trump","trendVolume":1282349},{"stateName":"TX","trendName":"#BringItHomeDLSU","placeID":"2487796","placeName":"San Antonio","searchUrl":"http:\/\/twitter.com\/search?q=%23BringItHomeDLSU","trendMapped":"bring+it+home+dlsu","trendVolume":249171},{"stateName":"TX","trendName":"#DolanTwinsNewVideo","placeID":"2487796","placeName":"San Antonio","searchUrl":"http:\/\/twitter.com\/search?q=%23DolanTwinsNewVideo","trendMapped":"dolan+twins+new+video","trendVolume":121466},{"stateName":"TX","trendName":"#ProjectHomeLouisDay","placeID":"2487796","placeName":"San Antonio","searchUrl":"http:\/\/twitter.com\/search?q=%23ProjectHomeLouisDay","trendMapped":"project+home+louis+day","trendVolume":677740},{"stateName":"TX","trendName":"#SuperTuesday","placeID":"2487796","placeName":"San Antonio","searchUrl":"http:\/\/twitter.com\/search?q=%23SuperTuesday","trendMapped":"super+tuesday","trendVolume":114764},{"stateName":"TX","trendName":"#VoiceSaveDaniel","placeID":"2357536","placeName":"Austin","searchUrl":"http:\/\/twitter.com\/search?q=%23VoiceSaveDaniel","trendMapped":"voice+save+daniel","trendVolume":204777},{"stateName":"TX","trendName":"#VoiceSaveOwen","placeID":"2487796","placeName":"San Antonio","searchUrl":"http:\/\/twitter.com\/search?q=%23VoiceSaveOwen","trendMapped":"voice+save+owen","trendVolume":250340},{"stateName":"TX","trendName":"Atl\u00e9tico","placeID":"2487796","placeName":"San Antonio","searchUrl":"http:\/\/twitter.com\/search?q=Atl%C3%A9tico","trendMapped":"atl\u00e9tico","trendVolume":354286},{"stateName":"TX","trendName":"Bayern","placeID":"2388929","placeName":"Dallas-Ft. Worth","searchUrl":"http:\/\/twitter.com\/search?q=Bayern","trendMapped":"bayern","trendVolume":322835},{"stateName":"TX","trendName":"Beyonce","placeID":"2397816","placeName":"El Paso","searchUrl":"http:\/\/twitter.com\/search?q=Beyonce","trendMapped":"beyonce","trendVolume":584453},{"stateName":"TX","trendName":"Beyonc\u00e9","placeID":"2424766","placeName":"Houston","searchUrl":"http:\/\/twitter.com\/search?q=Beyonc%C3%A9","trendMapped":"beyonc\u00e9","trendVolume":567205},{"stateName":"TX","trendName":"Lemonade","placeID":"2424766","placeName":"Houston","searchUrl":"http:\/\/twitter.com\/search?q=Lemonade","trendMapped":"lemonade","trendVolume":483498},{"stateName":"TX","trendName":"Saul","placeID":"2487796","placeName":"San Antonio","searchUrl":"http:\/\/twitter.com\/search?q=Saul","trendMapped":"saul","trendVolume":122592},{"stateName":"TX","trendName":"Skip Bayless","placeID":"2487796","placeName":"San Antonio","searchUrl":"http:\/\/twitter.com\/search?q=%22Skip+Bayless%22","trendMapped":"Skip+Bayless","trendVolume":55771},{"stateName":"TX","trendName":"Trump","placeID":"2397816","placeName":"El Paso","searchUrl":"http:\/\/twitter.com\/search?q=Trump","trendMapped":"trump","trendVolume":1318834},{"stateName":"UT","trendName":"#VoiceSaveOwen","placeID":"2487610","placeName":"Salt Lake City","searchUrl":"http:\/\/twitter.com\/search?q=%23VoiceSaveOwen","trendMapped":"voice+save+owen","trendVolume":250308},{"stateName":"UT","trendName":"Atl\u00e9tico","placeID":"2487610","placeName":"Salt Lake City","searchUrl":"http:\/\/twitter.com\/search?q=Atl%C3%A9tico","trendMapped":"atl\u00e9tico","trendVolume":340933},{"stateName":"UT","trendName":"Trump","placeID":"2487610","placeName":"Salt Lake City","searchUrl":"http:\/\/twitter.com\/search?q=Trump","trendMapped":"trump","trendVolume":1262890},{"stateName":"VA","trendName":"#BringItHomeDLSU","placeID":"2512636","placeName":"Virginia Beach","searchUrl":"http:\/\/twitter.com\/search?q=%23BringItHomeDLSU","trendMapped":"bring+it+home+dlsu","trendVolume":258858},{"stateName":"VA","trendName":"#ProjectHomeLouisDay","placeID":"2512636","placeName":"Virginia Beach","searchUrl":"http:\/\/twitter.com\/search?q=%23ProjectHomeLouisDay","trendMapped":"project+home+louis+day","trendVolume":621864},{"stateName":"VA","trendName":"#SuperTuesday","placeID":"2512636","placeName":"Virginia Beach","searchUrl":"http:\/\/twitter.com\/search?q=%23SuperTuesday","trendMapped":"super+tuesday","trendVolume":109267},{"stateName":"VA","trendName":"#VoiceSaveOwen","placeID":"2512636","placeName":"Virginia Beach","searchUrl":"http:\/\/twitter.com\/search?q=%23VoiceSaveOwen","trendMapped":"voice+save+owen","trendVolume":250721},{"stateName":"VA","trendName":"Atl\u00e9tico","placeID":"2512636","placeName":"Virginia Beach","searchUrl":"http:\/\/twitter.com\/search?q=Atl%C3%A9tico","trendMapped":"atl\u00e9tico","trendVolume":354286},{"stateName":"VA","trendName":"Beyonc\u00e9","placeID":"2480894","placeName":"Richmond","searchUrl":"http:\/\/twitter.com\/search?q=Beyonc%C3%A9","trendMapped":"beyonc\u00e9","trendVolume":571781},{"stateName":"VA","trendName":"ESPN","placeID":"2460389","placeName":"Norfolk","searchUrl":"http:\/\/twitter.com\/search?q=ESPN","trendMapped":"espn","trendVolume":185053},{"stateName":"VA","trendName":"Hillary","placeID":"2480894","placeName":"Richmond","searchUrl":"http:\/\/twitter.com\/search?q=Hillary","trendMapped":"hillary","trendVolume":392692},{"stateName":"VA","trendName":"Maracaibo","placeID":"2512636","placeName":"Virginia Beach","searchUrl":"http:\/\/twitter.com\/search?q=Maracaibo","trendMapped":"maracaibo","trendVolume":200222},{"stateName":"VA","trendName":"Trump","placeID":"2480894","placeName":"Richmond","searchUrl":"http:\/\/twitter.com\/search?q=Trump","trendMapped":"trump","trendVolume":1255302},{"stateName":"VA","trendName":"Views","placeID":"2460389","placeName":"Norfolk","searchUrl":"http:\/\/twitter.com\/search?q=Views","trendMapped":"views","trendVolume":378714},{"stateName":"WA","trendName":"#BringItHomeDLSU","placeID":"2490383","placeName":"Seattle","searchUrl":"http:\/\/twitter.com\/search?q=%23BringItHomeDLSU","trendMapped":"bring+it+home+dlsu","trendVolume":267334},{"stateName":"WA","trendName":"#ProjectHomeLouisDay","placeID":"2490383","placeName":"Seattle","searchUrl":"http:\/\/twitter.com\/search?q=%23ProjectHomeLouisDay","trendMapped":"project+home+louis+day","trendVolume":639095},{"stateName":"WA","trendName":"#SuperTuesday","placeID":"2490383","placeName":"Seattle","searchUrl":"http:\/\/twitter.com\/search?q=%23SuperTuesday","trendMapped":"super+tuesday","trendVolume":114343},{"stateName":"WA","trendName":"#VoiceSaveOwen","placeID":"2490383","placeName":"Seattle","searchUrl":"http:\/\/twitter.com\/search?q=%23VoiceSaveOwen","trendMapped":"voice+save+owen","trendVolume":250340},{"stateName":"WA","trendName":"#YoFirmoYoRevoco","placeID":"2490383","placeName":"Seattle","searchUrl":"http:\/\/twitter.com\/search?q=%23YoFirmoYoRevoco","trendMapped":"yo+firmo+yo+revoco","trendVolume":107816},{"stateName":"WA","trendName":"Atl\u00e9tico","placeID":"2490383","placeName":"Seattle","searchUrl":"http:\/\/twitter.com\/search?q=Atl%C3%A9tico","trendMapped":"atl\u00e9tico","trendVolume":355009},{"stateName":"WI","trendName":"#DolanTwinsNewVideo","placeID":"2451822","placeName":"Milwaukee","searchUrl":"http:\/\/twitter.com\/search?q=%23DolanTwinsNewVideo","trendMapped":"dolan+twins+new+video","trendVolume":121466},{"stateName":"WI","trendName":"#ProjectHomeLouisDay","placeID":"2451822","placeName":"Milwaukee","searchUrl":"http:\/\/twitter.com\/search?q=%23ProjectHomeLouisDay","trendMapped":"project+home+louis+day","trendVolume":615263},{"stateName":"WI","trendName":"#VoiceSaveOwen","placeID":"2451822","placeName":"Milwaukee","searchUrl":"http:\/\/twitter.com\/search?q=%23VoiceSaveOwen","trendMapped":"voice+save+owen","trendVolume":250721},{"stateName":"WI","trendName":"America","placeID":"2451822","placeName":"Milwaukee","searchUrl":"http:\/\/twitter.com\/search?q=America","trendMapped":"america","trendVolume":448870},{"stateName":"WI","trendName":"Atl\u00e9tico","placeID":"2451822","placeName":"Milwaukee","searchUrl":"http:\/\/twitter.com\/search?q=Atl%C3%A9tico","trendMapped":"atl\u00e9tico","trendVolume":350136},{"stateName":"WI","trendName":"Clinton","placeID":"2451822","placeName":"Milwaukee","searchUrl":"http:\/\/twitter.com\/search?q=Clinton","trendMapped":"clinton","trendVolume":346525},{"stateName":"XX","trendName":"#BringItHomeDLSU","placeID":"23424977","placeName":"United States","searchUrl":"http:\/\/twitter.com\/search?q=%23BringItHomeDLSU","trendMapped":"bring+it+home+dlsu","trendVolume":228509},{"stateName":"XX","trendName":"#DolanTwinsNewVideo","placeID":"23424977","placeName":"United States","searchUrl":"http:\/\/twitter.com\/search?q=%23DolanTwinsNewVideo","trendMapped":"dolan+twins+new+video","trendVolume":121541},{"stateName":"XX","trendName":"#ProjectHomeLouisDay","placeID":"23424977","placeName":"United States","searchUrl":"http:\/\/twitter.com\/search?q=%23ProjectHomeLouisDay","trendMapped":"project+home+louis+day","trendVolume":611903}]