[{"stateName":"AL","trendName":"Am\u00e9rica","placeID":"2364559","placeName":"Birmingham","searchUrl":"http:\/\/twitter.com\/search?q=Am%C3%A9rica","trendMapped":"am\u00e9rica","trendVolume":556375},{"stateName":"AL","trendName":"Cruz","placeID":"2364559","placeName":"Birmingham","searchUrl":"http:\/\/twitter.com\/search?q=Cruz","trendMapped":"cruz","trendVolume":545081},{"stateName":"AL","trendName":"House","placeID":"2364559","placeName":"Birmingham","searchUrl":"http:\/\/twitter.com\/search?q=House","trendMapped":"house","trendVolume":515492},{"stateName":"AL","trendName":"Views","placeID":"2364559","placeName":"Birmingham","searchUrl":"http:\/\/twitter.com\/search?q=Views","trendMapped":"views","trendVolume":704957},{"stateName":"AZ","trendName":"#727Tracklist","placeID":"2508428","placeName":"Tucson","searchUrl":"http:\/\/twitter.com\/search?q=%23727Tracklist","trendMapped":"727+tracklist","trendVolume":281045},{"stateName":"AZ","trendName":"#FormationWorldTour","placeID":"2508428","placeName":"Tucson","searchUrl":"http:\/\/twitter.com\/search?q=%23FormationWorldTour","trendMapped":"formation+world+tour","trendVolume":198797},{"stateName":"AZ","trendName":"#NationalSuperheroDay","placeID":"2449808","placeName":"Mesa","searchUrl":"http:\/\/twitter.com\/search?q=%23NationalSuperheroDay","trendMapped":"national+superhero+day","trendVolume":156737},{"stateName":"AZ","trendName":"#ProjectHomeLouisDay","placeID":"2471390","placeName":"Phoenix","searchUrl":"http:\/\/twitter.com\/search?q=%23ProjectHomeLouisDay","trendMapped":"project+home+louis+day","trendVolume":746532},{"stateName":"AZ","trendName":"#ProjectHomeOT4Day","placeID":"2508428","placeName":"Tucson","searchUrl":"http:\/\/twitter.com\/search?q=%23ProjectHomeOT4Day","trendMapped":"project+home+ot4+day","trendVolume":358018},{"stateName":"AZ","trendName":"#VIEWS","placeID":"2508428","placeName":"Tucson","searchUrl":"http:\/\/twitter.com\/search?q=%23VIEWS","trendMapped":"views","trendVolume":244966},{"stateName":"AZ","trendName":"#asklauren","placeID":"2508428","placeName":"Tucson","searchUrl":"http:\/\/twitter.com\/search?q=%23asklauren","trendMapped":"asklauren","trendVolume":213909},{"stateName":"AZ","trendName":"Am\u00e9rica","placeID":"2449808","placeName":"Mesa","searchUrl":"http:\/\/twitter.com\/search?q=Am%C3%A9rica","trendMapped":"am\u00e9rica","trendVolume":550609},{"stateName":"AZ","trendName":"Bayern","placeID":"2508428","placeName":"Tucson","searchUrl":"http:\/\/twitter.com\/search?q=Bayern","trendMapped":"bayern","trendVolume":326148},{"stateName":"CA","trendName":"#727Tracklist","placeID":"2487956","placeName":"San Francisco","searchUrl":"http:\/\/twitter.com\/search?q=%23727Tracklist","trendMapped":"727+tracklist","trendVolume":244523},{"stateName":"CA","trendName":"#FormationWorldTour","placeID":"2488042","placeName":"San Jose","searchUrl":"http:\/\/twitter.com\/search?q=%23FormationWorldTour","trendMapped":"formation+world+tour","trendVolume":218602},{"stateName":"CA","trendName":"#NationalSuperheroDay","placeID":"2488042","placeName":"San Jose","searchUrl":"http:\/\/twitter.com\/search?q=%23NationalSuperheroDay","trendMapped":"national+superhero+day","trendVolume":160324},{"stateName":"CA","trendName":"#ProjectHomeOT4Day","placeID":"2488042","placeName":"San Jose","searchUrl":"http:\/\/twitter.com\/search?q=%23ProjectHomeOT4Day","trendMapped":"project+home+ot4+day","trendVolume":373820},{"stateName":"CA","trendName":"#VIEWS","placeID":"2487956","placeName":"San Francisco","searchUrl":"http:\/\/twitter.com\/search?q=%23VIEWS","trendMapped":"views","trendVolume":245454},{"stateName":"CA","trendName":"#asklauren","placeID":"2488042","placeName":"San Jose","searchUrl":"http:\/\/twitter.com\/search?q=%23asklauren","trendMapped":"asklauren","trendVolume":213909},{"stateName":"CA","trendName":"Am\u00e9rica","placeID":"2488042","placeName":"San Jose","searchUrl":"http:\/\/twitter.com\/search?q=Am%C3%A9rica","trendMapped":"am\u00e9rica","trendVolume":553686},{"stateName":"CA","trendName":"Bayern","placeID":"2487889","placeName":"San Diego","searchUrl":"http:\/\/twitter.com\/search?q=Bayern","trendMapped":"bayern","trendVolume":329530},{"stateName":"CA","trendName":"Becky","placeID":"2486340","placeName":"Sacramento","searchUrl":"http:\/\/twitter.com\/search?q=Becky","trendMapped":"becky","trendVolume":209555},{"stateName":"CO","trendName":"#727Tracklist","placeID":"2383489","placeName":"Colorado Springs","searchUrl":"http:\/\/twitter.com\/search?q=%23727Tracklist","trendMapped":"727+tracklist","trendVolume":198178},{"stateName":"CO","trendName":"#FormationWorldTour","placeID":"2383489","placeName":"Colorado Springs","searchUrl":"http:\/\/twitter.com\/search?q=%23FormationWorldTour","trendMapped":"formation+world+tour","trendVolume":196546},{"stateName":"CO","trendName":"#NationalSuperheroDay","placeID":"2383489","placeName":"Colorado Springs","searchUrl":"http:\/\/twitter.com\/search?q=%23NationalSuperheroDay","trendMapped":"national+superhero+day","trendVolume":160324},{"stateName":"CO","trendName":"#ProjectHomeOT4Day","placeID":"2391279","placeName":"Denver","searchUrl":"http:\/\/twitter.com\/search?q=%23ProjectHomeOT4Day","trendMapped":"project+home+ot4+day","trendVolume":367262},{"stateName":"CO","trendName":"#VIEWS","placeID":"2391279","placeName":"Denver","searchUrl":"http:\/\/twitter.com\/search?q=%23VIEWS","trendMapped":"views","trendVolume":246201},{"stateName":"CO","trendName":"#asklauren","placeID":"2391279","placeName":"Denver","searchUrl":"http:\/\/twitter.com\/search?q=%23asklauren","trendMapped":"asklauren","trendVolume":213486},{"stateName":"CO","trendName":"Am\u00e9rica","placeID":"2391279","placeName":"Denver","searchUrl":"http:\/\/twitter.com\/search?q=Am%C3%A9rica","trendMapped":"am\u00e9rica","trendVolume":553686},{"stateName":"CO","trendName":"Carly","placeID":"2391279","placeName":"Denver","searchUrl":"http:\/\/twitter.com\/search?q=Carly","trendMapped":"carly","trendVolume":243336},{"stateName":"CO","trendName":"Ted Cruz","placeID":"2391279","placeName":"Denver","searchUrl":"http:\/\/twitter.com\/search?q=%22Ted+Cruz%22","trendMapped":"Ted+Cruz","trendVolume":183170},{"stateName":"CT","trendName":"#FormationWorldTour","placeID":"2458410","placeName":"New Haven","searchUrl":"http:\/\/twitter.com\/search?q=%23FormationWorldTour","trendMapped":"formation+world+tour","trendVolume":199696},{"stateName":"CT","trendName":"#NationalSuperheroDay","placeID":"2458410","placeName":"New Haven","searchUrl":"http:\/\/twitter.com\/search?q=%23NationalSuperheroDay","trendMapped":"national+superhero+day","trendVolume":160324},{"stateName":"CT","trendName":"#ProjectHomeOT4Day","placeID":"2458410","placeName":"New Haven","searchUrl":"http:\/\/twitter.com\/search?q=%23ProjectHomeOT4Day","trendMapped":"project+home+ot4+day","trendVolume":317378},{"stateName":"CT","trendName":"#VIEWS","placeID":"2458410","placeName":"New Haven","searchUrl":"http:\/\/twitter.com\/search?q=%23VIEWS","trendMapped":"views","trendVolume":246201},{"stateName":"CT","trendName":"#asklauren","placeID":"2458410","placeName":"New Haven","searchUrl":"http:\/\/twitter.com\/search?q=%23asklauren","trendMapped":"asklauren","trendVolume":212942},{"stateName":"CT","trendName":"Am\u00e9rica","placeID":"2458410","placeName":"New Haven","searchUrl":"http:\/\/twitter.com\/search?q=Am%C3%A9rica","trendMapped":"am\u00e9rica","trendVolume":558856},{"stateName":"CT","trendName":"Bayern","placeID":"2458410","placeName":"New Haven","searchUrl":"http:\/\/twitter.com\/search?q=Bayern","trendMapped":"bayern","trendVolume":328122},{"stateName":"CT","trendName":"Ted Cruz","placeID":"2458410","placeName":"New Haven","searchUrl":"http:\/\/twitter.com\/search?q=%22Ted+Cruz%22","trendMapped":"Ted+Cruz","trendVolume":189589},{"stateName":"DC","trendName":"#FormationWorldTour","placeID":"2514815","placeName":"Washington","searchUrl":"http:\/\/twitter.com\/search?q=%23FormationWorldTour","trendMapped":"formation+world+tour","trendVolume":198222},{"stateName":"DC","trendName":"#NationalSuperheroDay","placeID":"2514815","placeName":"Washington","searchUrl":"http:\/\/twitter.com\/search?q=%23NationalSuperheroDay","trendMapped":"national+superhero+day","trendVolume":139068},{"stateName":"DC","trendName":"#ProjectHomeOT4Day","placeID":"2514815","placeName":"Washington","searchUrl":"http:\/\/twitter.com\/search?q=%23ProjectHomeOT4Day","trendMapped":"project+home+ot4+day","trendVolume":367262},{"stateName":"DC","trendName":"#asklauren","placeID":"2514815","placeName":"Washington","searchUrl":"http:\/\/twitter.com\/search?q=%23asklauren","trendMapped":"asklauren","trendVolume":210671},{"stateName":"DC","trendName":"Am\u00e9rica","placeID":"2514815","placeName":"Washington","searchUrl":"http:\/\/twitter.com\/search?q=Am%C3%A9rica","trendMapped":"am\u00e9rica","trendVolume":552458},{"stateName":"DC","trendName":"Bayern","placeID":"2514815","placeName":"Washington","searchUrl":"http:\/\/twitter.com\/search?q=Bayern","trendMapped":"bayern","trendVolume":329530},{"stateName":"DC","trendName":"Trump","placeID":"2514815","placeName":"Washington","searchUrl":"http:\/\/twitter.com\/search?q=Trump","trendMapped":"trump","trendVolume":1074238},{"stateName":"FL","trendName":"#727Tracklist","placeID":"2503863","placeName":"Tampa","searchUrl":"http:\/\/twitter.com\/search?q=%23727Tracklist","trendMapped":"727+tracklist","trendVolume":216766},{"stateName":"FL","trendName":"#Empire","placeID":"2503863","placeName":"Tampa","searchUrl":"http:\/\/twitter.com\/search?q=%23Empire","trendMapped":"empire","trendVolume":136383},{"stateName":"FL","trendName":"#FormationWorldTour","placeID":"2466256","placeName":"Orlando","searchUrl":"http:\/\/twitter.com\/search?q=%23FormationWorldTour","trendMapped":"formation+world+tour","trendVolume":241800},{"stateName":"FL","trendName":"#ProjectHomeLouisDay","placeID":"2466256","placeName":"Orlando","searchUrl":"http:\/\/twitter.com\/search?q=%23ProjectHomeLouisDay","trendMapped":"project+home+louis+day","trendVolume":746825},{"stateName":"FL","trendName":"#ProjectHomeOT4Day","placeID":"2503863","placeName":"Tampa","searchUrl":"http:\/\/twitter.com\/search?q=%23ProjectHomeOT4Day","trendMapped":"project+home+ot4+day","trendVolume":367262},{"stateName":"FL","trendName":"#VIEWS","placeID":"2466256","placeName":"Orlando","searchUrl":"http:\/\/twitter.com\/search?q=%23VIEWS","trendMapped":"views","trendVolume":266835},{"stateName":"FL","trendName":"#YoFirmoYoRevoco","placeID":"2450022","placeName":"Miami","searchUrl":"http:\/\/twitter.com\/search?q=%23YoFirmoYoRevoco","trendMapped":"yo+firmo+yo+revoco","trendVolume":220482},{"stateName":"FL","trendName":"#asklauren","placeID":"2503863","placeName":"Tampa","searchUrl":"http:\/\/twitter.com\/search?q=%23asklauren","trendMapped":"asklauren","trendVolume":213574},{"stateName":"FL","trendName":"Am\u00e9rica","placeID":"2503863","placeName":"Tampa","searchUrl":"http:\/\/twitter.com\/search?q=Am%C3%A9rica","trendMapped":"am\u00e9rica","trendVolume":558856},{"stateName":"FL","trendName":"Bayern","placeID":"2450022","placeName":"Miami","searchUrl":"http:\/\/twitter.com\/search?q=Bayern","trendMapped":"bayern","trendVolume":328122},{"stateName":"FL","trendName":"Becky","placeID":"2503713","placeName":"Tallahassee","searchUrl":"http:\/\/twitter.com\/search?q=Becky","trendMapped":"becky","trendVolume":208110},{"stateName":"FL","trendName":"Beyonc\u00e9","placeID":"2503713","placeName":"Tallahassee","searchUrl":"http:\/\/twitter.com\/search?q=Beyonc%C3%A9","trendMapped":"beyonc\u00e9","trendVolume":584964},{"stateName":"FL","trendName":"Carly","placeID":"2503863","placeName":"Tampa","searchUrl":"http:\/\/twitter.com\/search?q=Carly","trendMapped":"carly","trendVolume":223218},{"stateName":"FL","trendName":"Cruz","placeID":"2428344","placeName":"Jacksonville","searchUrl":"http:\/\/twitter.com\/search?q=Cruz","trendMapped":"cruz","trendVolume":578396},{"stateName":"FL","trendName":"Drake","placeID":"2503713","placeName":"Tallahassee","searchUrl":"http:\/\/twitter.com\/search?q=Drake","trendMapped":"drake","trendVolume":671094},{"stateName":"FL","trendName":"Trump","placeID":"2503713","placeName":"Tallahassee","searchUrl":"http:\/\/twitter.com\/search?q=Trump","trendMapped":"trump","trendVolume":1218805},{"stateName":"GA","trendName":"#FormationWorldTour","placeID":"2357024","placeName":"Atlanta","searchUrl":"http:\/\/twitter.com\/search?q=%23FormationWorldTour","trendMapped":"formation+world+tour","trendVolume":221053},{"stateName":"GA","trendName":"#NationalSuperheroDay","placeID":"2357024","placeName":"Atlanta","searchUrl":"http:\/\/twitter.com\/search?q=%23NationalSuperheroDay","trendMapped":"national+superhero+day","trendVolume":160324},{"stateName":"GA","trendName":"#ProjectHomeOT4Day","placeID":"2357024","placeName":"Atlanta","searchUrl":"http:\/\/twitter.com\/search?q=%23ProjectHomeOT4Day","trendMapped":"project+home+ot4+day","trendVolume":333668},{"stateName":"GA","trendName":"#VIEWS","placeID":"2357024","placeName":"Atlanta","searchUrl":"http:\/\/twitter.com\/search?q=%23VIEWS","trendMapped":"views","trendVolume":245293},{"stateName":"GA","trendName":"#asklauren","placeID":"2357024","placeName":"Atlanta","searchUrl":"http:\/\/twitter.com\/search?q=%23asklauren","trendMapped":"asklauren","trendVolume":212875},{"stateName":"HI","trendName":"#ProjectHomeOT4Day","placeID":"2423945","placeName":"Honolulu","searchUrl":"http:\/\/twitter.com\/search?q=%23ProjectHomeOT4Day","trendMapped":"project+home+ot4+day","trendVolume":373820},{"stateName":"HI","trendName":"#VIEWS","placeID":"2423945","placeName":"Honolulu","searchUrl":"http:\/\/twitter.com\/search?q=%23VIEWS","trendMapped":"views","trendVolume":245786},{"stateName":"HI","trendName":"#asklauren","placeID":"2423945","placeName":"Honolulu","searchUrl":"http:\/\/twitter.com\/search?q=%23asklauren","trendMapped":"asklauren","trendVolume":213645},{"stateName":"HI","trendName":"Ted Cruz","placeID":"2423945","placeName":"Honolulu","searchUrl":"http:\/\/twitter.com\/search?q=%22Ted+Cruz%22","trendMapped":"Ted+Cruz","trendVolume":182431},{"stateName":"HI","trendName":"Trump","placeID":"2423945","placeName":"Honolulu","searchUrl":"http:\/\/twitter.com\/search?q=Trump","trendMapped":"trump","trendVolume":1169296},{"stateName":"IL","trendName":"#727Tracklist","placeID":"2379574","placeName":"Chicago","searchUrl":"http:\/\/twitter.com\/search?q=%23727Tracklist","trendMapped":"727+tracklist","trendVolume":254917},{"stateName":"IL","trendName":"#FormationWorldTour","placeID":"2379574","placeName":"Chicago","searchUrl":"http:\/\/twitter.com\/search?q=%23FormationWorldTour","trendMapped":"formation+world+tour","trendVolume":198222},{"stateName":"IL","trendName":"#ProjectHomeOT4Day","placeID":"2379574","placeName":"Chicago","searchUrl":"http:\/\/twitter.com\/search?q=%23ProjectHomeOT4Day","trendMapped":"project+home+ot4+day","trendVolume":361884},{"stateName":"IL","trendName":"#VIEWS","placeID":"2379574","placeName":"Chicago","searchUrl":"http:\/\/twitter.com\/search?q=%23VIEWS","trendMapped":"views","trendVolume":309404},{"stateName":"IL","trendName":"#asklauren","placeID":"2379574","placeName":"Chicago","searchUrl":"http:\/\/twitter.com\/search?q=%23asklauren","trendMapped":"asklauren","trendVolume":213565},{"stateName":"IL","trendName":"Bayern","placeID":"2379574","placeName":"Chicago","searchUrl":"http:\/\/twitter.com\/search?q=Bayern","trendMapped":"bayern","trendVolume":328122},{"stateName":"IN","trendName":"#727Tracklist","placeID":"2427032","placeName":"Indianapolis","searchUrl":"http:\/\/twitter.com\/search?q=%23727Tracklist","trendMapped":"727+tracklist","trendVolume":207795},{"stateName":"IN","trendName":"#NationalSuperheroDay","placeID":"2427032","placeName":"Indianapolis","searchUrl":"http:\/\/twitter.com\/search?q=%23NationalSuperheroDay","trendMapped":"national+superhero+day","trendVolume":147675},{"stateName":"IN","trendName":"#ProjectHomeOT4Day","placeID":"2427032","placeName":"Indianapolis","searchUrl":"http:\/\/twitter.com\/search?q=%23ProjectHomeOT4Day","trendMapped":"project+home+ot4+day","trendVolume":339823},{"stateName":"IN","trendName":"#asklauren","placeID":"2427032","placeName":"Indianapolis","searchUrl":"http:\/\/twitter.com\/search?q=%23asklauren","trendMapped":"asklauren","trendVolume":213645},{"stateName":"KY","trendName":"#727Tracklist","placeID":"2442327","placeName":"Louisville","searchUrl":"http:\/\/twitter.com\/search?q=%23727Tracklist","trendMapped":"727+tracklist","trendVolume":216766},{"stateName":"KY","trendName":"#FormationWorldTour","placeID":"2442327","placeName":"Louisville","searchUrl":"http:\/\/twitter.com\/search?q=%23FormationWorldTour","trendMapped":"formation+world+tour","trendVolume":189694},{"stateName":"KY","trendName":"#NationalSuperheroDay","placeID":"2442327","placeName":"Louisville","searchUrl":"http:\/\/twitter.com\/search?q=%23NationalSuperheroDay","trendMapped":"national+superhero+day","trendVolume":131397},{"stateName":"KY","trendName":"#ProjectHomeOT4Day","placeID":"2442327","placeName":"Louisville","searchUrl":"http:\/\/twitter.com\/search?q=%23ProjectHomeOT4Day","trendMapped":"project+home+ot4+day","trendVolume":373820},{"stateName":"KY","trendName":"#asklauren","placeID":"2442327","placeName":"Louisville","searchUrl":"http:\/\/twitter.com\/search?q=%23asklauren","trendMapped":"asklauren","trendVolume":213197},{"stateName":"KY","trendName":"Bayern","placeID":"2442327","placeName":"Louisville","searchUrl":"http:\/\/twitter.com\/search?q=Bayern","trendMapped":"bayern","trendVolume":328122},{"stateName":"LA","trendName":"#NationalSuperheroDay","placeID":"2458833","placeName":"New Orleans","searchUrl":"http:\/\/twitter.com\/search?q=%23NationalSuperheroDay","trendMapped":"national+superhero+day","trendVolume":147675},{"stateName":"LA","trendName":"#ProjectHomeOT4Day","placeID":"2458833","placeName":"New Orleans","searchUrl":"http:\/\/twitter.com\/search?q=%23ProjectHomeOT4Day","trendMapped":"project+home+ot4+day","trendVolume":361884},{"stateName":"LA","trendName":"Bayern","placeID":"2458833","placeName":"New Orleans","searchUrl":"http:\/\/twitter.com\/search?q=Bayern","trendMapped":"bayern","trendVolume":325509},{"stateName":"LA","trendName":"Becky","placeID":"2458833","placeName":"New Orleans","searchUrl":"http:\/\/twitter.com\/search?q=Becky","trendMapped":"becky","trendVolume":173723},{"stateName":"LA","trendName":"Cruz","placeID":"2458833","placeName":"New Orleans","searchUrl":"http:\/\/twitter.com\/search?q=Cruz","trendMapped":"cruz","trendVolume":558621},{"stateName":"LA","trendName":"Trump","placeID":"2359991","placeName":"Baton Rouge","searchUrl":"http:\/\/twitter.com\/search?q=Trump","trendMapped":"trump","trendVolume":1271068},{"stateName":"MA","trendName":"#727Tracklist","placeID":"2367105","placeName":"Boston","searchUrl":"http:\/\/twitter.com\/search?q=%23727Tracklist","trendMapped":"727+tracklist","trendVolume":285420},{"stateName":"MA","trendName":"#FormationWorldTour","placeID":"2367105","placeName":"Boston","searchUrl":"http:\/\/twitter.com\/search?q=%23FormationWorldTour","trendMapped":"formation+world+tour","trendVolume":187443},{"stateName":"MA","trendName":"#ProjectHomeOT4Day","placeID":"2367105","placeName":"Boston","searchUrl":"http:\/\/twitter.com\/search?q=%23ProjectHomeOT4Day","trendMapped":"project+home+ot4+day","trendVolume":373820},{"stateName":"MA","trendName":"#asklauren","placeID":"2367105","placeName":"Boston","searchUrl":"http:\/\/twitter.com\/search?q=%23asklauren","trendMapped":"asklauren","trendVolume":212958},{"stateName":"MA","trendName":"Am\u00e9rica","placeID":"2367105","placeName":"Boston","searchUrl":"http:\/\/twitter.com\/search?q=Am%C3%A9rica","trendMapped":"am\u00e9rica","trendVolume":558856},{"stateName":"MA","trendName":"Bayern","placeID":"2367105","placeName":"Boston","searchUrl":"http:\/\/twitter.com\/search?q=Bayern","trendMapped":"bayern","trendVolume":329530},{"stateName":"MA","trendName":"Trump","placeID":"2367105","placeName":"Boston","searchUrl":"http:\/\/twitter.com\/search?q=Trump","trendMapped":"trump","trendVolume":1050708},{"stateName":"MD","trendName":"#FormationWorldTour","placeID":"2358820","placeName":"Baltimore","searchUrl":"http:\/\/twitter.com\/search?q=%23FormationWorldTour","trendMapped":"formation+world+tour","trendVolume":236889},{"stateName":"MD","trendName":"#ProjectHomeOT4Day","placeID":"2358820","placeName":"Baltimore","searchUrl":"http:\/\/twitter.com\/search?q=%23ProjectHomeOT4Day","trendMapped":"project+home+ot4+day","trendVolume":353109},{"stateName":"MD","trendName":"#asklauren","placeID":"2358820","placeName":"Baltimore","searchUrl":"http:\/\/twitter.com\/search?q=%23asklauren","trendMapped":"asklauren","trendVolume":212278},{"stateName":"MD","trendName":"Am\u00e9rica","placeID":"2358820","placeName":"Baltimore","searchUrl":"http:\/\/twitter.com\/search?q=Am%C3%A9rica","trendMapped":"am\u00e9rica","trendVolume":558856},{"stateName":"MD","trendName":"Bayern","placeID":"2358820","placeName":"Baltimore","searchUrl":"http:\/\/twitter.com\/search?q=Bayern","trendMapped":"bayern","trendVolume":329530},{"stateName":"MD","trendName":"Trump","placeID":"2358820","placeName":"Baltimore","searchUrl":"http:\/\/twitter.com\/search?q=Trump","trendMapped":"trump","trendVolume":1169296},{"stateName":"MI","trendName":"#ProjectHomeLouisDay","placeID":"2391585","placeName":"Detroit","searchUrl":"http:\/\/twitter.com\/search?q=%23ProjectHomeLouisDay","trendMapped":"project+home+louis+day","trendVolume":742731},{"stateName":"MI","trendName":"#ProjectHomeOT4Day","placeID":"2391585","placeName":"Detroit","searchUrl":"http:\/\/twitter.com\/search?q=%23ProjectHomeOT4Day","trendMapped":"project+home+ot4+day","trendVolume":373820},{"stateName":"MI","trendName":"#asklauren","placeID":"2391585","placeName":"Detroit","searchUrl":"http:\/\/twitter.com\/search?q=%23asklauren","trendMapped":"asklauren","trendVolume":213565},{"stateName":"MI","trendName":"Am\u00e9rica","placeID":"2391585","placeName":"Detroit","searchUrl":"http:\/\/twitter.com\/search?q=Am%C3%A9rica","trendMapped":"am\u00e9rica","trendVolume":556375},{"stateName":"MI","trendName":"Views","placeID":"2391585","placeName":"Detroit","searchUrl":"http:\/\/twitter.com\/search?q=Views","trendMapped":"views","trendVolume":604126},{"stateName":"MN","trendName":"#NationalSuperheroDay","placeID":"2452078","placeName":"Minneapolis","searchUrl":"http:\/\/twitter.com\/search?q=%23NationalSuperheroDay","trendMapped":"national+superhero+day","trendVolume":160324},{"stateName":"MN","trendName":"#ProjectHomeOT4Day","placeID":"2452078","placeName":"Minneapolis","searchUrl":"http:\/\/twitter.com\/search?q=%23ProjectHomeOT4Day","trendMapped":"project+home+ot4+day","trendVolume":367262},{"stateName":"MN","trendName":"#asklauren","placeID":"2452078","placeName":"Minneapolis","searchUrl":"http:\/\/twitter.com\/search?q=%23asklauren","trendMapped":"asklauren","trendVolume":213459},{"stateName":"MN","trendName":"Am\u00e9rica","placeID":"2452078","placeName":"Minneapolis","searchUrl":"http:\/\/twitter.com\/search?q=Am%C3%A9rica","trendMapped":"am\u00e9rica","trendVolume":553686},{"stateName":"MN","trendName":"Bayern","placeID":"2452078","placeName":"Minneapolis","searchUrl":"http:\/\/twitter.com\/search?q=Bayern","trendMapped":"bayern","trendVolume":324365},{"stateName":"MN","trendName":"Views","placeID":"2452078","placeName":"Minneapolis","searchUrl":"http:\/\/twitter.com\/search?q=Views","trendMapped":"views","trendVolume":673596},{"stateName":"MO","trendName":"#727Tracklist","placeID":"2430683","placeName":"Kansas City","searchUrl":"http:\/\/twitter.com\/search?q=%23727Tracklist","trendMapped":"727+tracklist","trendVolume":201415},{"stateName":"MO","trendName":"#FormationWorldTour","placeID":"2486982","placeName":"St. Louis","searchUrl":"http:\/\/twitter.com\/search?q=%23FormationWorldTour","trendMapped":"formation+world+tour","trendVolume":187443},{"stateName":"MO","trendName":"#ProjectHomeOT4Day","placeID":"2486982","placeName":"St. Louis","searchUrl":"http:\/\/twitter.com\/search?q=%23ProjectHomeOT4Day","trendMapped":"project+home+ot4+day","trendVolume":373820},{"stateName":"MO","trendName":"#VIEWS","placeID":"2486982","placeName":"St. Louis","searchUrl":"http:\/\/twitter.com\/search?q=%23VIEWS","trendMapped":"views","trendVolume":278129},{"stateName":"MO","trendName":"#asklauren","placeID":"2486982","placeName":"St. Louis","searchUrl":"http:\/\/twitter.com\/search?q=%23asklauren","trendMapped":"asklauren","trendVolume":212991},{"stateName":"MO","trendName":"Am\u00e9rica","placeID":"2430683","placeName":"Kansas City","searchUrl":"http:\/\/twitter.com\/search?q=Am%C3%A9rica","trendMapped":"am\u00e9rica","trendVolume":556375},{"stateName":"MO","trendName":"Bayern","placeID":"2486982","placeName":"St. Louis","searchUrl":"http:\/\/twitter.com\/search?q=Bayern","trendMapped":"bayern","trendVolume":328122},{"stateName":"MS","trendName":"Becky","placeID":"2428184","placeName":"Jackson","searchUrl":"http:\/\/twitter.com\/search?q=Becky","trendMapped":"becky","trendVolume":202371},{"stateName":"MS","trendName":"Trump","placeID":"2428184","placeName":"Jackson","searchUrl":"http:\/\/twitter.com\/search?q=Trump","trendMapped":"trump","trendVolume":850301},{"stateName":"MS","trendName":"Views","placeID":"2428184","placeName":"Jackson","searchUrl":"http:\/\/twitter.com\/search?q=Views","trendMapped":"views","trendVolume":564148},{"stateName":"NC","trendName":"#Empire","placeID":"2378426","placeName":"Charlotte","searchUrl":"http:\/\/twitter.com\/search?q=%23Empire","trendMapped":"empire","trendVolume":136080},{"stateName":"NC","trendName":"#FormationWorldTour","placeID":"2478307","placeName":"Raleigh","searchUrl":"http:\/\/twitter.com\/search?q=%23FormationWorldTour","trendMapped":"formation+world+tour","trendVolume":236018},{"stateName":"NC","trendName":"#NationalSuperheroDay","placeID":"2378426","placeName":"Charlotte","searchUrl":"http:\/\/twitter.com\/search?q=%23NationalSuperheroDay","trendMapped":"national+superhero+day","trendVolume":155170},{"stateName":"NC","trendName":"#ProjectHomeOT4Day","placeID":"2478307","placeName":"Raleigh","searchUrl":"http:\/\/twitter.com\/search?q=%23ProjectHomeOT4Day","trendMapped":"project+home+ot4+day","trendVolume":367262},{"stateName":"NC","trendName":"#VIEWS","placeID":"2478307","placeName":"Raleigh","searchUrl":"http:\/\/twitter.com\/search?q=%23VIEWS","trendMapped":"views","trendVolume":282115},{"stateName":"NC","trendName":"#asklauren","placeID":"2478307","placeName":"Raleigh","searchUrl":"http:\/\/twitter.com\/search?q=%23asklauren","trendMapped":"asklauren","trendVolume":210671},{"stateName":"NC","trendName":"America","placeID":"2414469","placeName":"Greensboro","searchUrl":"http:\/\/twitter.com\/search?q=America","trendMapped":"america","trendVolume":469994},{"stateName":"NC","trendName":"Am\u00e9rica","placeID":"2478307","placeName":"Raleigh","searchUrl":"http:\/\/twitter.com\/search?q=Am%C3%A9rica","trendMapped":"am\u00e9rica","trendVolume":558856},{"stateName":"NC","trendName":"Bayern","placeID":"2478307","placeName":"Raleigh","searchUrl":"http:\/\/twitter.com\/search?q=Bayern","trendMapped":"bayern","trendVolume":329057},{"stateName":"NC","trendName":"House","placeID":"2378426","placeName":"Charlotte","searchUrl":"http:\/\/twitter.com\/search?q=House","trendMapped":"house","trendVolume":526864},{"stateName":"NE","trendName":"#ProjectHomeOT4Day","placeID":"2465512","placeName":"Omaha","searchUrl":"http:\/\/twitter.com\/search?q=%23ProjectHomeOT4Day","trendMapped":"project+home+ot4+day","trendVolume":275148},{"stateName":"NE","trendName":"Am\u00e9rica","placeID":"2465512","placeName":"Omaha","searchUrl":"http:\/\/twitter.com\/search?q=Am%C3%A9rica","trendMapped":"am\u00e9rica","trendVolume":552458},{"stateName":"NE","trendName":"Cruz","placeID":"2465512","placeName":"Omaha","searchUrl":"http:\/\/twitter.com\/search?q=Cruz","trendMapped":"cruz","trendVolume":591069},{"stateName":"NE","trendName":"Donald Trump","placeID":"2465512","placeName":"Omaha","searchUrl":"http:\/\/twitter.com\/search?q=%22Donald+Trump%22","trendMapped":"Donald+Trump","trendVolume":293900},{"stateName":"NM","trendName":"#727Tracklist","placeID":"2352824","placeName":"Albuquerque","searchUrl":"http:\/\/twitter.com\/search?q=%23727Tracklist","trendMapped":"727+tracklist","trendVolume":198178},{"stateName":"NM","trendName":"#FormationWorldTour","placeID":"2352824","placeName":"Albuquerque","searchUrl":"http:\/\/twitter.com\/search?q=%23FormationWorldTour","trendMapped":"formation+world+tour","trendVolume":198797},{"stateName":"NM","trendName":"#NationalSuperheroDay","placeID":"2352824","placeName":"Albuquerque","searchUrl":"http:\/\/twitter.com\/search?q=%23NationalSuperheroDay","trendMapped":"national+superhero+day","trendVolume":137686},{"stateName":"NM","trendName":"#ProjectHomeOT4Day","placeID":"2352824","placeName":"Albuquerque","searchUrl":"http:\/\/twitter.com\/search?q=%23ProjectHomeOT4Day","trendMapped":"project+home+ot4+day","trendVolume":367262},{"stateName":"NM","trendName":"#asklauren","placeID":"2352824","placeName":"Albuquerque","searchUrl":"http:\/\/twitter.com\/search?q=%23asklauren","trendMapped":"asklauren","trendVolume":213486},{"stateName":"NM","trendName":"Am\u00e9rica","placeID":"2352824","placeName":"Albuquerque","searchUrl":"http:\/\/twitter.com\/search?q=Am%C3%A9rica","trendMapped":"am\u00e9rica","trendVolume":558856},{"stateName":"NV","trendName":"#NationalSuperheroDay","placeID":"2436704","placeName":"Las Vegas","searchUrl":"http:\/\/twitter.com\/search?q=%23NationalSuperheroDay","trendMapped":"national+superhero+day","trendVolume":134972},{"stateName":"NV","trendName":"#ProjectHomeOT4Day","placeID":"2436704","placeName":"Las Vegas","searchUrl":"http:\/\/twitter.com\/search?q=%23ProjectHomeOT4Day","trendMapped":"project+home+ot4+day","trendVolume":367262},{"stateName":"NV","trendName":"#VIEWS","placeID":"2436704","placeName":"Las Vegas","searchUrl":"http:\/\/twitter.com\/search?q=%23VIEWS","trendMapped":"views","trendVolume":245293},{"stateName":"NV","trendName":"#asklauren","placeID":"2436704","placeName":"Las Vegas","searchUrl":"http:\/\/twitter.com\/search?q=%23asklauren","trendMapped":"asklauren","trendVolume":213645},{"stateName":"NV","trendName":"Am\u00e9rica","placeID":"2436704","placeName":"Las Vegas","searchUrl":"http:\/\/twitter.com\/search?q=Am%C3%A9rica","trendMapped":"am\u00e9rica","trendVolume":558856},{"stateName":"NY","trendName":"#727Tracklist","placeID":"2459115","placeName":"New York","searchUrl":"http:\/\/twitter.com\/search?q=%23727Tracklist","trendMapped":"727+tracklist","trendVolume":198178},{"stateName":"NY","trendName":"#NationalSuperheroDay","placeID":"2459115","placeName":"New York","searchUrl":"http:\/\/twitter.com\/search?q=%23NationalSuperheroDay","trendMapped":"national+superhero+day","trendVolume":154237},{"stateName":"NY","trendName":"#ProjectHomeOT4Day","placeID":"2459115","placeName":"New York","searchUrl":"http:\/\/twitter.com\/search?q=%23ProjectHomeOT4Day","trendMapped":"project+home+ot4+day","trendVolume":326875},{"stateName":"NY","trendName":"#VIEWS","placeID":"2459115","placeName":"New York","searchUrl":"http:\/\/twitter.com\/search?q=%23VIEWS","trendMapped":"views","trendVolume":245934},{"stateName":"NY","trendName":"#asklauren","placeID":"2459115","placeName":"New York","searchUrl":"http:\/\/twitter.com\/search?q=%23asklauren","trendMapped":"asklauren","trendVolume":210029},{"stateName":"NY","trendName":"Am\u00e9rica","placeID":"2459115","placeName":"New York","searchUrl":"http:\/\/twitter.com\/search?q=Am%C3%A9rica","trendMapped":"am\u00e9rica","trendVolume":550609},{"stateName":"NY","trendName":"Bayern","placeID":"2459115","placeName":"New York","searchUrl":"http:\/\/twitter.com\/search?q=Bayern","trendMapped":"bayern","trendVolume":329530},{"stateName":"OH","trendName":"#FormationWorldTour","placeID":"2381475","placeName":"Cleveland","searchUrl":"http:\/\/twitter.com\/search?q=%23FormationWorldTour","trendMapped":"formation+world+tour","trendVolume":227784},{"stateName":"OH","trendName":"#NationalSuperheroDay","placeID":"2383660","placeName":"Columbus","searchUrl":"http:\/\/twitter.com\/search?q=%23NationalSuperheroDay","trendMapped":"national+superhero+day","trendVolume":155170},{"stateName":"OH","trendName":"#ProjectHomeOT4Day","placeID":"2383660","placeName":"Columbus","searchUrl":"http:\/\/twitter.com\/search?q=%23ProjectHomeOT4Day","trendMapped":"project+home+ot4+day","trendVolume":343757},{"stateName":"OH","trendName":"#VIEWS","placeID":"2383660","placeName":"Columbus","searchUrl":"http:\/\/twitter.com\/search?q=%23VIEWS","trendMapped":"views","trendVolume":309404},{"stateName":"OH","trendName":"#asklauren","placeID":"2383660","placeName":"Columbus","searchUrl":"http:\/\/twitter.com\/search?q=%23asklauren","trendMapped":"asklauren","trendVolume":213613},{"stateName":"OH","trendName":"Am\u00e9rica","placeID":"2380358","placeName":"Cincinnati","searchUrl":"http:\/\/twitter.com\/search?q=Am%C3%A9rica","trendMapped":"am\u00e9rica","trendVolume":558856},{"stateName":"OH","trendName":"Bayern","placeID":"2383660","placeName":"Columbus","searchUrl":"http:\/\/twitter.com\/search?q=Bayern","trendMapped":"bayern","trendVolume":328122},{"stateName":"OH","trendName":"Cruz","placeID":"2380358","placeName":"Cincinnati","searchUrl":"http:\/\/twitter.com\/search?q=Cruz","trendMapped":"cruz","trendVolume":558999},{"stateName":"OK","trendName":"#asklauren","placeID":"2464592","placeName":"Oklahoma City","searchUrl":"http:\/\/twitter.com\/search?q=%23asklauren","trendMapped":"asklauren","trendVolume":209709},{"stateName":"OK","trendName":"Drake","placeID":"2464592","placeName":"Oklahoma City","searchUrl":"http:\/\/twitter.com\/search?q=Drake","trendMapped":"drake","trendVolume":714871},{"stateName":"OR","trendName":"#FormationWorldTour","placeID":"2475687","placeName":"Portland","searchUrl":"http:\/\/twitter.com\/search?q=%23FormationWorldTour","trendMapped":"formation+world+tour","trendVolume":198797},{"stateName":"OR","trendName":"#NationalSuperheroDay","placeID":"2475687","placeName":"Portland","searchUrl":"http:\/\/twitter.com\/search?q=%23NationalSuperheroDay","trendMapped":"national+superhero+day","trendVolume":129747},{"stateName":"OR","trendName":"#ProjectHomeOT4Day","placeID":"2475687","placeName":"Portland","searchUrl":"http:\/\/twitter.com\/search?q=%23ProjectHomeOT4Day","trendMapped":"project+home+ot4+day","trendVolume":298102},{"stateName":"OR","trendName":"#asklauren","placeID":"2475687","placeName":"Portland","searchUrl":"http:\/\/twitter.com\/search?q=%23asklauren","trendMapped":"asklauren","trendVolume":213459},{"stateName":"OR","trendName":"Am\u00e9rica","placeID":"2475687","placeName":"Portland","searchUrl":"http:\/\/twitter.com\/search?q=Am%C3%A9rica","trendMapped":"am\u00e9rica","trendVolume":553686},{"stateName":"PA","trendName":"#727Tracklist","placeID":"2473224","placeName":"Pittsburgh","searchUrl":"http:\/\/twitter.com\/search?q=%23727Tracklist","trendMapped":"727+tracklist","trendVolume":214646},{"stateName":"PA","trendName":"#FormationWorldTour","placeID":"2471217","placeName":"Philadelphia","searchUrl":"http:\/\/twitter.com\/search?q=%23FormationWorldTour","trendMapped":"formation+world+tour","trendVolume":193532},{"stateName":"PA","trendName":"#NationalSuperheroDay","placeID":"2471217","placeName":"Philadelphia","searchUrl":"http:\/\/twitter.com\/search?q=%23NationalSuperheroDay","trendMapped":"national+superhero+day","trendVolume":148849},{"stateName":"PA","trendName":"#ProjectHomeOT4Day","placeID":"2473224","placeName":"Pittsburgh","searchUrl":"http:\/\/twitter.com\/search?q=%23ProjectHomeOT4Day","trendMapped":"project+home+ot4+day","trendVolume":367262},{"stateName":"PA","trendName":"#VIEWS","placeID":"2473224","placeName":"Pittsburgh","searchUrl":"http:\/\/twitter.com\/search?q=%23VIEWS","trendMapped":"views","trendVolume":245786},{"stateName":"PA","trendName":"#asklauren","placeID":"2473224","placeName":"Pittsburgh","searchUrl":"http:\/\/twitter.com\/search?q=%23asklauren","trendMapped":"asklauren","trendVolume":213565},{"stateName":"PA","trendName":"Am\u00e9rica","placeID":"2473224","placeName":"Pittsburgh","searchUrl":"http:\/\/twitter.com\/search?q=Am%C3%A9rica","trendMapped":"am\u00e9rica","trendVolume":558856},{"stateName":"PA","trendName":"Bayern","placeID":"2471217","placeName":"Philadelphia","searchUrl":"http:\/\/twitter.com\/search?q=Bayern","trendMapped":"bayern","trendVolume":329530},{"stateName":"PA","trendName":"Beyonc\u00e9","placeID":"2418046","placeName":"Harrisburg","searchUrl":"http:\/\/twitter.com\/search?q=Beyonc%C3%A9","trendMapped":"beyonc\u00e9","trendVolume":588790},{"stateName":"PA","trendName":"Cruz","placeID":"2418046","placeName":"Harrisburg","searchUrl":"http:\/\/twitter.com\/search?q=Cruz","trendMapped":"cruz","trendVolume":535603},{"stateName":"RI","trendName":"#NationalSuperheroDay","placeID":"2477058","placeName":"Providence","searchUrl":"http:\/\/twitter.com\/search?q=%23NationalSuperheroDay","trendMapped":"national+superhero+day","trendVolume":141818},{"stateName":"RI","trendName":"#ProjectHomeOT4Day","placeID":"2477058","placeName":"Providence","searchUrl":"http:\/\/twitter.com\/search?q=%23ProjectHomeOT4Day","trendMapped":"project+home+ot4+day","trendVolume":326875},{"stateName":"RI","trendName":"#asklauren","placeID":"2477058","placeName":"Providence","searchUrl":"http:\/\/twitter.com\/search?q=%23asklauren","trendMapped":"asklauren","trendVolume":212395},{"stateName":"RI","trendName":"Trump","placeID":"2477058","placeName":"Providence","searchUrl":"http:\/\/twitter.com\/search?q=Trump","trendMapped":"trump","trendVolume":1062925},{"stateName":"TN","trendName":"#727Tracklist","placeID":"2457170","placeName":"Nashville","searchUrl":"http:\/\/twitter.com\/search?q=%23727Tracklist","trendMapped":"727+tracklist","trendVolume":207795},{"stateName":"TN","trendName":"#Empire","placeID":"2457170","placeName":"Nashville","searchUrl":"http:\/\/twitter.com\/search?q=%23Empire","trendMapped":"empire","trendVolume":136080},{"stateName":"TN","trendName":"#FormationWorldTour","placeID":"2457170","placeName":"Nashville","searchUrl":"http:\/\/twitter.com\/search?q=%23FormationWorldTour","trendMapped":"formation+world+tour","trendVolume":197189},{"stateName":"TN","trendName":"#NationalSuperheroDay","placeID":"2457170","placeName":"Nashville","searchUrl":"http:\/\/twitter.com\/search?q=%23NationalSuperheroDay","trendMapped":"national+superhero+day","trendVolume":141818},{"stateName":"TN","trendName":"#ProjectHomeOT4Day","placeID":"2457170","placeName":"Nashville","searchUrl":"http:\/\/twitter.com\/search?q=%23ProjectHomeOT4Day","trendMapped":"project+home+ot4+day","trendVolume":373820},{"stateName":"TN","trendName":"#VIEWS","placeID":"2457170","placeName":"Nashville","searchUrl":"http:\/\/twitter.com\/search?q=%23VIEWS","trendMapped":"views","trendVolume":245934},{"stateName":"TN","trendName":"#asklauren","placeID":"2457170","placeName":"Nashville","searchUrl":"http:\/\/twitter.com\/search?q=%23asklauren","trendMapped":"asklauren","trendVolume":212930},{"stateName":"TN","trendName":"Am\u00e9rica","placeID":"2457170","placeName":"Nashville","searchUrl":"http:\/\/twitter.com\/search?q=Am%C3%A9rica","trendMapped":"am\u00e9rica","trendVolume":558856},{"stateName":"TN","trendName":"Bayern","placeID":"2457170","placeName":"Nashville","searchUrl":"http:\/\/twitter.com\/search?q=Bayern","trendMapped":"bayern","trendVolume":326148},{"stateName":"TN","trendName":"Becky","placeID":"2457170","placeName":"Nashville","searchUrl":"http:\/\/twitter.com\/search?q=Becky","trendMapped":"becky","trendVolume":173723},{"stateName":"TN","trendName":"Cruz","placeID":"2449323","placeName":"Memphis","searchUrl":"http:\/\/twitter.com\/search?q=Cruz","trendMapped":"cruz","trendVolume":585262},{"stateName":"TN","trendName":"Drake","placeID":"2449323","placeName":"Memphis","searchUrl":"http:\/\/twitter.com\/search?q=Drake","trendMapped":"drake","trendVolume":618264},{"stateName":"TN","trendName":"Ted Cruz","placeID":"2457170","placeName":"Nashville","searchUrl":"http:\/\/twitter.com\/search?q=%22Ted+Cruz%22","trendMapped":"Ted+Cruz","trendVolume":201157},{"stateName":"TX","trendName":"#727Tracklist","placeID":"2487796","placeName":"San Antonio","searchUrl":"http:\/\/twitter.com\/search?q=%23727Tracklist","trendMapped":"727+tracklist","trendVolume":259089},{"stateName":"TX","trendName":"#FormationWorldTour","placeID":"2487796","placeName":"San Antonio","searchUrl":"http:\/\/twitter.com\/search?q=%23FormationWorldTour","trendMapped":"formation+world+tour","trendVolume":229543},{"stateName":"TX","trendName":"#NationalSuperheroDay","placeID":"2388929","placeName":"Dallas-Ft. Worth","searchUrl":"http:\/\/twitter.com\/search?q=%23NationalSuperheroDay","trendMapped":"national+superhero+day","trendVolume":156737},{"stateName":"TX","trendName":"#ProjectHomeOT4Day","placeID":"2487796","placeName":"San Antonio","searchUrl":"http:\/\/twitter.com\/search?q=%23ProjectHomeOT4Day","trendMapped":"project+home+ot4+day","trendVolume":373820},{"stateName":"TX","trendName":"#VIEWS","placeID":"2487796","placeName":"San Antonio","searchUrl":"http:\/\/twitter.com\/search?q=%23VIEWS","trendMapped":"views","trendVolume":285551},{"stateName":"TX","trendName":"#asklauren","placeID":"2487796","placeName":"San Antonio","searchUrl":"http:\/\/twitter.com\/search?q=%23asklauren","trendMapped":"asklauren","trendVolume":213485},{"stateName":"TX","trendName":"Am\u00e9rica","placeID":"2487796","placeName":"San Antonio","searchUrl":"http:\/\/twitter.com\/search?q=Am%C3%A9rica","trendMapped":"am\u00e9rica","trendVolume":558856},{"stateName":"TX","trendName":"Apple","placeID":"2357536","placeName":"Austin","searchUrl":"http:\/\/twitter.com\/search?q=Apple","trendMapped":"apple","trendVolume":661222},{"stateName":"TX","trendName":"Bayern","placeID":"2487796","placeName":"San Antonio","searchUrl":"http:\/\/twitter.com\/search?q=Bayern","trendMapped":"bayern","trendVolume":329530},{"stateName":"TX","trendName":"Carly Fiorina","placeID":"2357536","placeName":"Austin","searchUrl":"http:\/\/twitter.com\/search?q=%22Carly+Fiorina%22","trendMapped":"Carly+Fiorina","trendVolume":147972},{"stateName":"TX","trendName":"Trump","placeID":"2397816","placeName":"El Paso","searchUrl":"http:\/\/twitter.com\/search?q=Trump","trendMapped":"trump","trendVolume":1271068},{"stateName":"TX","trendName":"Views","placeID":"2357536","placeName":"Austin","searchUrl":"http:\/\/twitter.com\/search?q=Views","trendMapped":"views","trendVolume":653381},{"stateName":"UT","trendName":"#727Tracklist","placeID":"2487610","placeName":"Salt Lake City","searchUrl":"http:\/\/twitter.com\/search?q=%23727Tracklist","trendMapped":"727+tracklist","trendVolume":198178},{"stateName":"UT","trendName":"#FormationWorldTour","placeID":"2487610","placeName":"Salt Lake City","searchUrl":"http:\/\/twitter.com\/search?q=%23FormationWorldTour","trendMapped":"formation+world+tour","trendVolume":186402},{"stateName":"UT","trendName":"#ProjectHomeOT4Day","placeID":"2487610","placeName":"Salt Lake City","searchUrl":"http:\/\/twitter.com\/search?q=%23ProjectHomeOT4Day","trendMapped":"project+home+ot4+day","trendVolume":373820},{"stateName":"UT","trendName":"#asklauren","placeID":"2487610","placeName":"Salt Lake City","searchUrl":"http:\/\/twitter.com\/search?q=%23asklauren","trendMapped":"asklauren","trendVolume":208996},{"stateName":"UT","trendName":"Am\u00e9rica","placeID":"2487610","placeName":"Salt Lake City","searchUrl":"http:\/\/twitter.com\/search?q=Am%C3%A9rica","trendMapped":"am\u00e9rica","trendVolume":552458},{"stateName":"UT","trendName":"Bayern","placeID":"2487610","placeName":"Salt Lake City","searchUrl":"http:\/\/twitter.com\/search?q=Bayern","trendMapped":"bayern","trendVolume":329530},{"stateName":"UT","trendName":"Drake","placeID":"2487610","placeName":"Salt Lake City","searchUrl":"http:\/\/twitter.com\/search?q=Drake","trendMapped":"drake","trendVolume":591786},{"stateName":"UT","trendName":"Trump","placeID":"2487610","placeName":"Salt Lake City","searchUrl":"http:\/\/twitter.com\/search?q=Trump","trendMapped":"trump","trendVolume":1061999},{"stateName":"VA","trendName":"#727Tracklist","placeID":"2512636","placeName":"Virginia Beach","searchUrl":"http:\/\/twitter.com\/search?q=%23727Tracklist","trendMapped":"727+tracklist","trendVolume":216766},{"stateName":"VA","trendName":"#FormationWorldTour","placeID":"2512636","placeName":"Virginia Beach","searchUrl":"http:\/\/twitter.com\/search?q=%23FormationWorldTour","trendMapped":"formation+world+tour","trendVolume":239630},{"stateName":"VA","trendName":"#NationalSuperheroDay","placeID":"2512636","placeName":"Virginia Beach","searchUrl":"http:\/\/twitter.com\/search?q=%23NationalSuperheroDay","trendMapped":"national+superhero+day","trendVolume":134972},{"stateName":"VA","trendName":"#ProjectHomeOT4Day","placeID":"2512636","placeName":"Virginia Beach","searchUrl":"http:\/\/twitter.com\/search?q=%23ProjectHomeOT4Day","trendMapped":"project+home+ot4+day","trendVolume":353109},{"stateName":"VA","trendName":"#asklauren","placeID":"2512636","placeName":"Virginia Beach","searchUrl":"http:\/\/twitter.com\/search?q=%23asklauren","trendMapped":"asklauren","trendVolume":212602},{"stateName":"VA","trendName":"Am\u00e9rica","placeID":"2460389","placeName":"Norfolk","searchUrl":"http:\/\/twitter.com\/search?q=Am%C3%A9rica","trendMapped":"am\u00e9rica","trendVolume":552458},{"stateName":"VA","trendName":"Cruz","placeID":"2480894","placeName":"Richmond","searchUrl":"http:\/\/twitter.com\/search?q=Cruz","trendMapped":"cruz","trendVolume":541776},{"stateName":"VA","trendName":"Drake","placeID":"2460389","placeName":"Norfolk","searchUrl":"http:\/\/twitter.com\/search?q=Drake","trendMapped":"drake","trendVolume":709419},{"stateName":"VA","trendName":"Views","placeID":"2480894","placeName":"Richmond","searchUrl":"http:\/\/twitter.com\/search?q=Views","trendMapped":"views","trendVolume":626308},{"stateName":"WA","trendName":"#FormationWorldTour","placeID":"2490383","placeName":"Seattle","searchUrl":"http:\/\/twitter.com\/search?q=%23FormationWorldTour","trendMapped":"formation+world+tour","trendVolume":176136},{"stateName":"WA","trendName":"#NationalSuperheroDay","placeID":"2490383","placeName":"Seattle","searchUrl":"http:\/\/twitter.com\/search?q=%23NationalSuperheroDay","trendMapped":"national+superhero+day","trendVolume":154237},{"stateName":"WA","trendName":"#ProjectHomeOT4Day","placeID":"2490383","placeName":"Seattle","searchUrl":"http:\/\/twitter.com\/search?q=%23ProjectHomeOT4Day","trendMapped":"project+home+ot4+day","trendVolume":371110},{"stateName":"WA","trendName":"#asklauren","placeID":"2490383","placeName":"Seattle","searchUrl":"http:\/\/twitter.com\/search?q=%23asklauren","trendMapped":"asklauren","trendVolume":213613},{"stateName":"WA","trendName":"Am\u00e9rica","placeID":"2490383","placeName":"Seattle","searchUrl":"http:\/\/twitter.com\/search?q=Am%C3%A9rica","trendMapped":"am\u00e9rica","trendVolume":558856},{"stateName":"WA","trendName":"Views","placeID":"2490383","placeName":"Seattle","searchUrl":"http:\/\/twitter.com\/search?q=Views","trendMapped":"views","trendVolume":637918},{"stateName":"WI","trendName":"#727Tracklist","placeID":"2451822","placeName":"Milwaukee","searchUrl":"http:\/\/twitter.com\/search?q=%23727Tracklist","trendMapped":"727+tracklist","trendVolume":216766},{"stateName":"WI","trendName":"#NationalSuperheroDay","placeID":"2451822","placeName":"Milwaukee","searchUrl":"http:\/\/twitter.com\/search?q=%23NationalSuperheroDay","trendMapped":"national+superhero+day","trendVolume":147675},{"stateName":"WI","trendName":"#ProjectHomeOT4Day","placeID":"2451822","placeName":"Milwaukee","searchUrl":"http:\/\/twitter.com\/search?q=%23ProjectHomeOT4Day","trendMapped":"project+home+ot4+day","trendVolume":361884},{"stateName":"WI","trendName":"#asklauren","placeID":"2451822","placeName":"Milwaukee","searchUrl":"http:\/\/twitter.com\/search?q=%23asklauren","trendMapped":"asklauren","trendVolume":212643},{"stateName":"WI","trendName":"America","placeID":"2451822","placeName":"Milwaukee","searchUrl":"http:\/\/twitter.com\/search?q=America","trendMapped":"america","trendVolume":536303},{"stateName":"WI","trendName":"Bayern","placeID":"2451822","placeName":"Milwaukee","searchUrl":"http:\/\/twitter.com\/search?q=Bayern","trendMapped":"bayern","trendVolume":325509},{"stateName":"WI","trendName":"Views","placeID":"2451822","placeName":"Milwaukee","searchUrl":"http:\/\/twitter.com\/search?q=Views","trendMapped":"views","trendVolume":661780},{"stateName":"XX","trendName":"#FormationWorldTour","placeID":"23424977","placeName":"United States","searchUrl":"http:\/\/twitter.com\/search?q=%23FormationWorldTour","trendMapped":"formation+world+tour","trendVolume":196546},{"stateName":"XX","trendName":"#NationalSuperheroDay","placeID":"23424977","placeName":"United States","searchUrl":"http:\/\/twitter.com\/search?q=%23NationalSuperheroDay","trendMapped":"national+superhero+day","trendVolume":156737},{"stateName":"XX","trendName":"#ProjectHomeOT4Day","placeID":"23424977","placeName":"United States","searchUrl":"http:\/\/twitter.com\/search?q=%23ProjectHomeOT4Day","trendMapped":"project+home+ot4+day","trendVolume":371110},{"stateName":"XX","trendName":"#VIEWS","placeID":"23424977","placeName":"United States","searchUrl":"http:\/\/twitter.com\/search?q=%23VIEWS","trendMapped":"views","trendVolume":245934},{"stateName":"XX","trendName":"#asklauren","placeID":"23424977","placeName":"United States","searchUrl":"http:\/\/twitter.com\/search?q=%23asklauren","trendMapped":"asklauren","trendVolume":213516}]