[{"stateName":"AL","trendName":"#BirdmanUltimatums","placeID":"2364559","placeName":"Birmingham","searchUrl":"http:\/\/twitter.com\/search?q=%23BirdmanUltimatums","trendMapped":"birdman+ultimatums","trendVolume":64169},{"stateName":"AL","trendName":"#LEMONADE","placeID":"2364559","placeName":"Birmingham","searchUrl":"http:\/\/twitter.com\/search?q=%23LEMONADE","trendMapped":"lemonade","trendVolume":1331002},{"stateName":"AL","trendName":"Beyonce","placeID":"2364559","placeName":"Birmingham","searchUrl":"http:\/\/twitter.com\/search?q=Beyonce","trendMapped":"beyonce","trendVolume":1555535},{"stateName":"AL","trendName":"Beyonc\u00e9","placeID":"2364559","placeName":"Birmingham","searchUrl":"http:\/\/twitter.com\/search?q=Beyonc%C3%A9","trendMapped":"beyonc\u00e9","trendVolume":2039023},{"stateName":"AZ","trendName":"#GameofThrones","placeID":"2508428","placeName":"Tucson","searchUrl":"http:\/\/twitter.com\/search?q=%23GameofThrones","trendMapped":"gameof+thrones","trendVolume":189681},{"stateName":"AZ","trendName":"#LEMONADE","placeID":"2508428","placeName":"Tucson","searchUrl":"http:\/\/twitter.com\/search?q=%23LEMONADE","trendMapped":"lemonade","trendVolume":1458271},{"stateName":"AZ","trendName":"#NiallDay","placeID":"2449808","placeName":"Mesa","searchUrl":"http:\/\/twitter.com\/search?q=%23NiallDay","trendMapped":"niall+day","trendVolume":812066},{"stateName":"AZ","trendName":"#PiliPinasDebates2016","placeID":"2508428","placeName":"Tucson","searchUrl":"http:\/\/twitter.com\/search?q=%23PiliPinasDebates2016","trendMapped":"pili+pinas+debates2016","trendVolume":1264548},{"stateName":"AZ","trendName":"#ProjectHome","placeID":"2471390","placeName":"Phoenix","searchUrl":"http:\/\/twitter.com\/search?q=%23ProjectHome","trendMapped":"project+home","trendVolume":994732},{"stateName":"AZ","trendName":"Beyonc\u00e9","placeID":"2508428","placeName":"Tucson","searchUrl":"http:\/\/twitter.com\/search?q=Beyonc%C3%A9","trendMapped":"beyonc\u00e9","trendVolume":1893048},{"stateName":"AZ","trendName":"Lemonade","placeID":"2508428","placeName":"Tucson","searchUrl":"http:\/\/twitter.com\/search?q=Lemonade","trendMapped":"lemonade","trendVolume":1491182},{"stateName":"CA","trendName":"#GameofThrones","placeID":"2488042","placeName":"San Jose","searchUrl":"http:\/\/twitter.com\/search?q=%23GameofThrones","trendMapped":"gameof+thrones","trendVolume":232870},{"stateName":"CA","trendName":"#LEMONADE","placeID":"2488042","placeName":"San Jose","searchUrl":"http:\/\/twitter.com\/search?q=%23LEMONADE","trendMapped":"lemonade","trendVolume":1474059},{"stateName":"CA","trendName":"#NiallDay","placeID":"2488042","placeName":"San Jose","searchUrl":"http:\/\/twitter.com\/search?q=%23NiallDay","trendMapped":"niall+day","trendVolume":815325},{"stateName":"CA","trendName":"#PiliPinasDebates2016","placeID":"2488042","placeName":"San Jose","searchUrl":"http:\/\/twitter.com\/search?q=%23PiliPinasDebates2016","trendMapped":"pili+pinas+debates2016","trendVolume":1263597},{"stateName":"CA","trendName":"#ProjectHome","placeID":"2486340","placeName":"Sacramento","searchUrl":"http:\/\/twitter.com\/search?q=%23ProjectHome","trendMapped":"project+home","trendVolume":619344},{"stateName":"CA","trendName":"Beyonce","placeID":"2487889","placeName":"San Diego","searchUrl":"http:\/\/twitter.com\/search?q=Beyonce","trendMapped":"beyonce","trendVolume":1848047},{"stateName":"CA","trendName":"Beyonc\u00e9","placeID":"2487956","placeName":"San Francisco","searchUrl":"http:\/\/twitter.com\/search?q=Beyonc%C3%A9","trendMapped":"beyonc\u00e9","trendVolume":2003895},{"stateName":"CA","trendName":"Jack Gilinsky","placeID":"2488042","placeName":"San Jose","searchUrl":"http:\/\/twitter.com\/search?q=%22Jack+Gilinsky%22","trendMapped":"Jack+Gilinsky","trendVolume":183397},{"stateName":"CA","trendName":"Lemonade","placeID":"2488042","placeName":"San Jose","searchUrl":"http:\/\/twitter.com\/search?q=Lemonade","trendMapped":"lemonade","trendVolume":1534146},{"stateName":"CA","trendName":"Prince","placeID":"2487956","placeName":"San Francisco","searchUrl":"http:\/\/twitter.com\/search?q=Prince","trendMapped":"prince","trendVolume":1095155},{"stateName":"CA","trendName":"Suarez","placeID":"2488042","placeName":"San Jose","searchUrl":"http:\/\/twitter.com\/search?q=Suarez","trendMapped":"suarez","trendVolume":304736},{"stateName":"CA","trendName":"beyonc\u00e9","placeID":"2486340","placeName":"Sacramento","searchUrl":"http:\/\/twitter.com\/search?q=beyonc%C3%A9","trendMapped":"beyonc\u00e9","trendVolume":1943192},{"stateName":"CO","trendName":"#EarthDay","placeID":"2391279","placeName":"Denver","searchUrl":"http:\/\/twitter.com\/search?q=%23EarthDay","trendMapped":"earth+day","trendVolume":187963},{"stateName":"CO","trendName":"#GameofThrones","placeID":"2383489","placeName":"Colorado Springs","searchUrl":"http:\/\/twitter.com\/search?q=%23GameofThrones","trendMapped":"gameof+thrones","trendVolume":244355},{"stateName":"CO","trendName":"#LEMONADE","placeID":"2391279","placeName":"Denver","searchUrl":"http:\/\/twitter.com\/search?q=%23LEMONADE","trendMapped":"lemonade","trendVolume":1420103},{"stateName":"CO","trendName":"#NiallDay","placeID":"2383489","placeName":"Colorado Springs","searchUrl":"http:\/\/twitter.com\/search?q=%23NiallDay","trendMapped":"niall+day","trendVolume":704942},{"stateName":"CO","trendName":"#PiliPinasDebates2016","placeID":"2383489","placeName":"Colorado Springs","searchUrl":"http:\/\/twitter.com\/search?q=%23PiliPinasDebates2016","trendMapped":"pili+pinas+debates2016","trendVolume":1260103},{"stateName":"CO","trendName":"Beyonc\u00e9","placeID":"2391279","placeName":"Denver","searchUrl":"http:\/\/twitter.com\/search?q=Beyonc%C3%A9","trendMapped":"beyonc\u00e9","trendVolume":1693901},{"stateName":"CO","trendName":"Lemonade","placeID":"2383489","placeName":"Colorado Springs","searchUrl":"http:\/\/twitter.com\/search?q=Lemonade","trendMapped":"lemonade","trendVolume":1504854},{"stateName":"CT","trendName":"#LEMONADE","placeID":"2458410","placeName":"New Haven","searchUrl":"http:\/\/twitter.com\/search?q=%23LEMONADE","trendMapped":"lemonade","trendVolume":1439459},{"stateName":"CT","trendName":"Beyonc\u00e9","placeID":"2458410","placeName":"New Haven","searchUrl":"http:\/\/twitter.com\/search?q=Beyonc%C3%A9","trendMapped":"beyonc\u00e9","trendVolume":1917149},{"stateName":"DC","trendName":"#EarthDay","placeID":"2514815","placeName":"Washington","searchUrl":"http:\/\/twitter.com\/search?q=%23EarthDay","trendMapped":"earth+day","trendVolume":188483},{"stateName":"DC","trendName":"#GameofThrones","placeID":"2514815","placeName":"Washington","searchUrl":"http:\/\/twitter.com\/search?q=%23GameofThrones","trendMapped":"gameof+thrones","trendVolume":221880},{"stateName":"DC","trendName":"#LEMONADE","placeID":"2514815","placeName":"Washington","searchUrl":"http:\/\/twitter.com\/search?q=%23LEMONADE","trendMapped":"lemonade","trendVolume":1288712},{"stateName":"DC","trendName":"#NiallDay","placeID":"2514815","placeName":"Washington","searchUrl":"http:\/\/twitter.com\/search?q=%23NiallDay","trendMapped":"niall+day","trendVolume":812066},{"stateName":"DC","trendName":"#PiliPinasDebates2016","placeID":"2514815","placeName":"Washington","searchUrl":"http:\/\/twitter.com\/search?q=%23PiliPinasDebates2016","trendMapped":"pili+pinas+debates2016","trendVolume":1263924},{"stateName":"DC","trendName":"Prince","placeID":"2514815","placeName":"Washington","searchUrl":"http:\/\/twitter.com\/search?q=Prince","trendMapped":"prince","trendVolume":1132054},{"stateName":"FL","trendName":"#EarthDay","placeID":"2428344","placeName":"Jacksonville","searchUrl":"http:\/\/twitter.com\/search?q=%23EarthDay","trendMapped":"earth+day","trendVolume":166985},{"stateName":"FL","trendName":"#LEMONADE","placeID":"2503863","placeName":"Tampa","searchUrl":"http:\/\/twitter.com\/search?q=%23LEMONADE","trendMapped":"lemonade","trendVolume":1822116},{"stateName":"FL","trendName":"#NiallDay","placeID":"2503863","placeName":"Tampa","searchUrl":"http:\/\/twitter.com\/search?q=%23NiallDay","trendMapped":"niall+day","trendVolume":803754},{"stateName":"FL","trendName":"#PiliPinasDebates2016","placeID":"2503863","placeName":"Tampa","searchUrl":"http:\/\/twitter.com\/search?q=%23PiliPinasDebates2016","trendMapped":"pili+pinas+debates2016","trendVolume":1262885},{"stateName":"FL","trendName":"Beyonc\u00e9","placeID":"2503863","placeName":"Tampa","searchUrl":"http:\/\/twitter.com\/search?q=Beyonc%C3%A9","trendMapped":"beyonc\u00e9","trendVolume":2034395},{"stateName":"FL","trendName":"Prince","placeID":"2503863","placeName":"Tampa","searchUrl":"http:\/\/twitter.com\/search?q=Prince","trendMapped":"prince","trendVolume":1091522},{"stateName":"FL","trendName":"beyonc\u00e9","placeID":"2503863","placeName":"Tampa","searchUrl":"http:\/\/twitter.com\/search?q=beyonc%C3%A9","trendMapped":"beyonc\u00e9","trendVolume":1943192},{"stateName":"GA","trendName":"#GameofThrones","placeID":"2357024","placeName":"Atlanta","searchUrl":"http:\/\/twitter.com\/search?q=%23GameofThrones","trendMapped":"gameof+thrones","trendVolume":213403},{"stateName":"GA","trendName":"#LEMONADE","placeID":"2357024","placeName":"Atlanta","searchUrl":"http:\/\/twitter.com\/search?q=%23LEMONADE","trendMapped":"lemonade","trendVolume":1237092},{"stateName":"GA","trendName":"#NiallDay","placeID":"2357024","placeName":"Atlanta","searchUrl":"http:\/\/twitter.com\/search?q=%23NiallDay","trendMapped":"niall+day","trendVolume":797968},{"stateName":"GA","trendName":"#PiliPinasDebates2016","placeID":"2357024","placeName":"Atlanta","searchUrl":"http:\/\/twitter.com\/search?q=%23PiliPinasDebates2016","trendMapped":"pili+pinas+debates2016","trendVolume":1251537},{"stateName":"GA","trendName":"Prince","placeID":"2357024","placeName":"Atlanta","searchUrl":"http:\/\/twitter.com\/search?q=Prince","trendMapped":"prince","trendVolume":1103421},{"stateName":"HI","trendName":"#LEMONADE","placeID":"2423945","placeName":"Honolulu","searchUrl":"http:\/\/twitter.com\/search?q=%23LEMONADE","trendMapped":"lemonade","trendVolume":1761902},{"stateName":"HI","trendName":"Prince","placeID":"2423945","placeName":"Honolulu","searchUrl":"http:\/\/twitter.com\/search?q=Prince","trendMapped":"prince","trendVolume":1132054},{"stateName":"IL","trendName":"#GameofThrones","placeID":"2379574","placeName":"Chicago","searchUrl":"http:\/\/twitter.com\/search?q=%23GameofThrones","trendMapped":"gameof+thrones","trendVolume":221880},{"stateName":"IL","trendName":"#LEMONADE","placeID":"2379574","placeName":"Chicago","searchUrl":"http:\/\/twitter.com\/search?q=%23LEMONADE","trendMapped":"lemonade","trendVolume":1253302},{"stateName":"IL","trendName":"#NiallDay","placeID":"2379574","placeName":"Chicago","searchUrl":"http:\/\/twitter.com\/search?q=%23NiallDay","trendMapped":"niall+day","trendVolume":815325},{"stateName":"IL","trendName":"#PiliPinasDebates2016","placeID":"2379574","placeName":"Chicago","searchUrl":"http:\/\/twitter.com\/search?q=%23PiliPinasDebates2016","trendMapped":"pili+pinas+debates2016","trendVolume":1261671},{"stateName":"IL","trendName":"Gago","placeID":"2379574","placeName":"Chicago","searchUrl":"http:\/\/twitter.com\/search?q=Gago","trendMapped":"gago","trendVolume":185042},{"stateName":"IL","trendName":"Rangers","placeID":"2379574","placeName":"Chicago","searchUrl":"http:\/\/twitter.com\/search?q=Rangers","trendMapped":"rangers","trendVolume":74635},{"stateName":"IN","trendName":"#LEMONADE","placeID":"2427032","placeName":"Indianapolis","searchUrl":"http:\/\/twitter.com\/search?q=%23LEMONADE","trendMapped":"lemonade","trendVolume":1264279},{"stateName":"IN","trendName":"#NiallDay","placeID":"2427032","placeName":"Indianapolis","searchUrl":"http:\/\/twitter.com\/search?q=%23NiallDay","trendMapped":"niall+day","trendVolume":792992},{"stateName":"IN","trendName":"Beyonc\u00e9","placeID":"2427032","placeName":"Indianapolis","searchUrl":"http:\/\/twitter.com\/search?q=Beyonc%C3%A9","trendMapped":"beyonc\u00e9","trendVolume":2019472},{"stateName":"IN","trendName":"Lemonade","placeID":"2427032","placeName":"Indianapolis","searchUrl":"http:\/\/twitter.com\/search?q=Lemonade","trendMapped":"lemonade","trendVolume":1827358},{"stateName":"IN","trendName":"Prince","placeID":"2427032","placeName":"Indianapolis","searchUrl":"http:\/\/twitter.com\/search?q=Prince","trendMapped":"prince","trendVolume":1132054},{"stateName":"KY","trendName":"#LEMONADE","placeID":"2442327","placeName":"Louisville","searchUrl":"http:\/\/twitter.com\/search?q=%23LEMONADE","trendMapped":"lemonade","trendVolume":1390926},{"stateName":"KY","trendName":"Beyonc\u00e9","placeID":"2442327","placeName":"Louisville","searchUrl":"http:\/\/twitter.com\/search?q=Beyonc%C3%A9","trendMapped":"beyonc\u00e9","trendVolume":1808310},{"stateName":"KY","trendName":"Prince","placeID":"2442327","placeName":"Louisville","searchUrl":"http:\/\/twitter.com\/search?q=Prince","trendMapped":"prince","trendVolume":1080686},{"stateName":"LA","trendName":"#LEMONADE","placeID":"2458833","placeName":"New Orleans","searchUrl":"http:\/\/twitter.com\/search?q=%23LEMONADE","trendMapped":"lemonade","trendVolume":1309940},{"stateName":"LA","trendName":"Beyonc\u00e9","placeID":"2458833","placeName":"New Orleans","searchUrl":"http:\/\/twitter.com\/search?q=Beyonc%C3%A9","trendMapped":"beyonc\u00e9","trendVolume":2019472},{"stateName":"LA","trendName":"Prince","placeID":"2458833","placeName":"New Orleans","searchUrl":"http:\/\/twitter.com\/search?q=Prince","trendMapped":"prince","trendVolume":1091522},{"stateName":"MA","trendName":"#GameofThrones","placeID":"2367105","placeName":"Boston","searchUrl":"http:\/\/twitter.com\/search?q=%23GameofThrones","trendMapped":"gameof+thrones","trendVolume":198415},{"stateName":"MA","trendName":"#LEMONADE","placeID":"2367105","placeName":"Boston","searchUrl":"http:\/\/twitter.com\/search?q=%23LEMONADE","trendMapped":"lemonade","trendVolume":1439459},{"stateName":"MA","trendName":"#NiallDay","placeID":"2367105","placeName":"Boston","searchUrl":"http:\/\/twitter.com\/search?q=%23NiallDay","trendMapped":"niall+day","trendVolume":813307},{"stateName":"MA","trendName":"Beyonc\u00e9","placeID":"2367105","placeName":"Boston","searchUrl":"http:\/\/twitter.com\/search?q=Beyonc%C3%A9","trendMapped":"beyonc\u00e9","trendVolume":1821808},{"stateName":"MA","trendName":"Lemonade","placeID":"2367105","placeName":"Boston","searchUrl":"http:\/\/twitter.com\/search?q=Lemonade","trendMapped":"lemonade","trendVolume":1551001},{"stateName":"MD","trendName":"#LEMONADE","placeID":"2358820","placeName":"Baltimore","searchUrl":"http:\/\/twitter.com\/search?q=%23LEMONADE","trendMapped":"lemonade","trendVolume":1348431},{"stateName":"MD","trendName":"Beyonc\u00e9","placeID":"2358820","placeName":"Baltimore","searchUrl":"http:\/\/twitter.com\/search?q=Beyonc%C3%A9","trendMapped":"beyonc\u00e9","trendVolume":1769332},{"stateName":"MD","trendName":"Prince","placeID":"2358820","placeName":"Baltimore","searchUrl":"http:\/\/twitter.com\/search?q=Prince","trendMapped":"prince","trendVolume":1073022},{"stateName":"MD","trendName":"beyonc\u00e9","placeID":"2358820","placeName":"Baltimore","searchUrl":"http:\/\/twitter.com\/search?q=beyonc%C3%A9","trendMapped":"beyonc\u00e9","trendVolume":1943192},{"stateName":"MI","trendName":"#LEMONADE","placeID":"2391585","placeName":"Detroit","searchUrl":"http:\/\/twitter.com\/search?q=%23LEMONADE","trendMapped":"lemonade","trendVolume":1336671},{"stateName":"MI","trendName":"#NiallDay","placeID":"2391585","placeName":"Detroit","searchUrl":"http:\/\/twitter.com\/search?q=%23NiallDay","trendMapped":"niall+day","trendVolume":732299},{"stateName":"MI","trendName":"#PiliPinasDebates2016","placeID":"2391585","placeName":"Detroit","searchUrl":"http:\/\/twitter.com\/search?q=%23PiliPinasDebates2016","trendMapped":"pili+pinas+debates2016","trendVolume":1264548},{"stateName":"MI","trendName":"Beyonc\u00e9","placeID":"2391585","placeName":"Detroit","searchUrl":"http:\/\/twitter.com\/search?q=Beyonc%C3%A9","trendMapped":"beyonc\u00e9","trendVolume":1917149},{"stateName":"MI","trendName":"Prince","placeID":"2391585","placeName":"Detroit","searchUrl":"http:\/\/twitter.com\/search?q=Prince","trendMapped":"prince","trendVolume":1095155},{"stateName":"MN","trendName":"#LEMONADE","placeID":"2452078","placeName":"Minneapolis","searchUrl":"http:\/\/twitter.com\/search?q=%23LEMONADE","trendMapped":"lemonade","trendVolume":1794698},{"stateName":"MN","trendName":"#PiliPinasDebates2016","placeID":"2452078","placeName":"Minneapolis","searchUrl":"http:\/\/twitter.com\/search?q=%23PiliPinasDebates2016","trendMapped":"pili+pinas+debates2016","trendVolume":1253597},{"stateName":"MN","trendName":"Beyonc\u00e9","placeID":"2452078","placeName":"Minneapolis","searchUrl":"http:\/\/twitter.com\/search?q=Beyonc%C3%A9","trendMapped":"beyonc\u00e9","trendVolume":1954992},{"stateName":"MN","trendName":"Lemonade","placeID":"2452078","placeName":"Minneapolis","searchUrl":"http:\/\/twitter.com\/search?q=Lemonade","trendMapped":"lemonade","trendVolume":1919333},{"stateName":"MN","trendName":"Prince","placeID":"2452078","placeName":"Minneapolis","searchUrl":"http:\/\/twitter.com\/search?q=Prince","trendMapped":"prince","trendVolume":1103421},{"stateName":"MO","trendName":"#LEMONADE","placeID":"2486982","placeName":"St. Louis","searchUrl":"http:\/\/twitter.com\/search?q=%23LEMONADE","trendMapped":"lemonade","trendVolume":1390926},{"stateName":"MO","trendName":"Beyonc\u00e9","placeID":"2486982","placeName":"St. Louis","searchUrl":"http:\/\/twitter.com\/search?q=Beyonc%C3%A9","trendMapped":"beyonc\u00e9","trendVolume":2039023},{"stateName":"MO","trendName":"Lemonade","placeID":"2430683","placeName":"Kansas City","searchUrl":"http:\/\/twitter.com\/search?q=Lemonade","trendMapped":"lemonade","trendVolume":2190712},{"stateName":"MO","trendName":"Prince","placeID":"2486982","placeName":"St. Louis","searchUrl":"http:\/\/twitter.com\/search?q=Prince","trendMapped":"prince","trendVolume":1103421},{"stateName":"MS","trendName":"#LEMONADE","placeID":"2428184","placeName":"Jackson","searchUrl":"http:\/\/twitter.com\/search?q=%23LEMONADE","trendMapped":"lemonade","trendVolume":1348431},{"stateName":"MS","trendName":"Beyonce","placeID":"2428184","placeName":"Jackson","searchUrl":"http:\/\/twitter.com\/search?q=Beyonce","trendMapped":"beyonce","trendVolume":1739979},{"stateName":"NC","trendName":"#EarthDay","placeID":"2378426","placeName":"Charlotte","searchUrl":"http:\/\/twitter.com\/search?q=%23EarthDay","trendMapped":"earth+day","trendVolume":213544},{"stateName":"NC","trendName":"#GameofThrones","placeID":"2378426","placeName":"Charlotte","searchUrl":"http:\/\/twitter.com\/search?q=%23GameofThrones","trendMapped":"gameof+thrones","trendVolume":198415},{"stateName":"NC","trendName":"#LEMONADE","placeID":"2478307","placeName":"Raleigh","searchUrl":"http:\/\/twitter.com\/search?q=%23LEMONADE","trendMapped":"lemonade","trendVolume":1420103},{"stateName":"NC","trendName":"#NiallDay","placeID":"2414469","placeName":"Greensboro","searchUrl":"http:\/\/twitter.com\/search?q=%23NiallDay","trendMapped":"niall+day","trendVolume":792992},{"stateName":"NC","trendName":"Beyonce","placeID":"2378426","placeName":"Charlotte","searchUrl":"http:\/\/twitter.com\/search?q=Beyonce","trendMapped":"beyonce","trendVolume":1715682},{"stateName":"NC","trendName":"Beyonc\u00e9","placeID":"2478307","placeName":"Raleigh","searchUrl":"http:\/\/twitter.com\/search?q=Beyonc%C3%A9","trendMapped":"beyonc\u00e9","trendVolume":2034395},{"stateName":"NC","trendName":"Lemonade","placeID":"2378426","placeName":"Charlotte","searchUrl":"http:\/\/twitter.com\/search?q=Lemonade","trendMapped":"lemonade","trendVolume":113635},{"stateName":"NE","trendName":"#LEMONADE","placeID":"2465512","placeName":"Omaha","searchUrl":"http:\/\/twitter.com\/search?q=%23LEMONADE","trendMapped":"lemonade","trendVolume":1439459},{"stateName":"NE","trendName":"Beyonc\u00e9","placeID":"2465512","placeName":"Omaha","searchUrl":"http:\/\/twitter.com\/search?q=Beyonc%C3%A9","trendMapped":"beyonc\u00e9","trendVolume":2003895},{"stateName":"NE","trendName":"Prince","placeID":"2465512","placeName":"Omaha","searchUrl":"http:\/\/twitter.com\/search?q=Prince","trendMapped":"prince","trendVolume":1056555},{"stateName":"NE","trendName":"beyonc\u00e9","placeID":"2465512","placeName":"Omaha","searchUrl":"http:\/\/twitter.com\/search?q=beyonc%C3%A9","trendMapped":"beyonc\u00e9","trendVolume":1943192},{"stateName":"NM","trendName":"#GameofThrones","placeID":"2352824","placeName":"Albuquerque","searchUrl":"http:\/\/twitter.com\/search?q=%23GameofThrones","trendMapped":"gameof+thrones","trendVolume":207064},{"stateName":"NM","trendName":"#LEMONADE","placeID":"2352824","placeName":"Albuquerque","searchUrl":"http:\/\/twitter.com\/search?q=%23LEMONADE","trendMapped":"lemonade","trendVolume":1265434},{"stateName":"NM","trendName":"#NiallDay","placeID":"2352824","placeName":"Albuquerque","searchUrl":"http:\/\/twitter.com\/search?q=%23NiallDay","trendMapped":"niall+day","trendVolume":790421},{"stateName":"NM","trendName":"#PiliPinasDebates2016","placeID":"2352824","placeName":"Albuquerque","searchUrl":"http:\/\/twitter.com\/search?q=%23PiliPinasDebates2016","trendMapped":"pili+pinas+debates2016","trendVolume":1256601},{"stateName":"NV","trendName":"#LEMONADE","placeID":"2436704","placeName":"Las Vegas","searchUrl":"http:\/\/twitter.com\/search?q=%23LEMONADE","trendMapped":"lemonade","trendVolume":1471034},{"stateName":"NV","trendName":"Beyonc\u00e9","placeID":"2436704","placeName":"Las Vegas","searchUrl":"http:\/\/twitter.com\/search?q=Beyonc%C3%A9","trendMapped":"beyonc\u00e9","trendVolume":1893048},{"stateName":"NV","trendName":"Prince","placeID":"2436704","placeName":"Las Vegas","searchUrl":"http:\/\/twitter.com\/search?q=Prince","trendMapped":"prince","trendVolume":1132054},{"stateName":"NY","trendName":"#LEMONADE","placeID":"2459115","placeName":"New York","searchUrl":"http:\/\/twitter.com\/search?q=%23LEMONADE","trendMapped":"lemonade","trendVolume":1245691},{"stateName":"NY","trendName":"#PiliPinasDebates2016","placeID":"2459115","placeName":"New York","searchUrl":"http:\/\/twitter.com\/search?q=%23PiliPinasDebates2016","trendMapped":"pili+pinas+debates2016","trendVolume":1256601},{"stateName":"OH","trendName":"#GameofThrones","placeID":"2381475","placeName":"Cleveland","searchUrl":"http:\/\/twitter.com\/search?q=%23GameofThrones","trendMapped":"gameof+thrones","trendVolume":244355},{"stateName":"OH","trendName":"#LEMONADE","placeID":"2383660","placeName":"Columbus","searchUrl":"http:\/\/twitter.com\/search?q=%23LEMONADE","trendMapped":"lemonade","trendVolume":1485655},{"stateName":"OH","trendName":"Beyonce","placeID":"2380358","placeName":"Cincinnati","searchUrl":"http:\/\/twitter.com\/search?q=Beyonce","trendMapped":"beyonce","trendVolume":2024561},{"stateName":"OH","trendName":"Beyonc\u00e9","placeID":"2383660","placeName":"Columbus","searchUrl":"http:\/\/twitter.com\/search?q=Beyonc%C3%A9","trendMapped":"beyonc\u00e9","trendVolume":1878918},{"stateName":"OH","trendName":"Prince","placeID":"2383660","placeName":"Columbus","searchUrl":"http:\/\/twitter.com\/search?q=Prince","trendMapped":"prince","trendVolume":1091522},{"stateName":"OK","trendName":"#LEMONADE","placeID":"2464592","placeName":"Oklahoma City","searchUrl":"http:\/\/twitter.com\/search?q=%23LEMONADE","trendMapped":"lemonade","trendVolume":1474059},{"stateName":"OK","trendName":"Beyonce","placeID":"2464592","placeName":"Oklahoma City","searchUrl":"http:\/\/twitter.com\/search?q=Beyonce","trendMapped":"beyonce","trendVolume":2010010},{"stateName":"OK","trendName":"Prince","placeID":"2464592","placeName":"Oklahoma City","searchUrl":"http:\/\/twitter.com\/search?q=Prince","trendMapped":"prince","trendVolume":1084023},{"stateName":"OR","trendName":"#LEMONADE","placeID":"2475687","placeName":"Portland","searchUrl":"http:\/\/twitter.com\/search?q=%23LEMONADE","trendMapped":"lemonade","trendVolume":1474059},{"stateName":"OR","trendName":"Beyonce","placeID":"2475687","placeName":"Portland","searchUrl":"http:\/\/twitter.com\/search?q=Beyonce","trendMapped":"beyonce","trendVolume":1749446},{"stateName":"OR","trendName":"Beyonc\u00e9","placeID":"2475687","placeName":"Portland","searchUrl":"http:\/\/twitter.com\/search?q=Beyonc%C3%A9","trendMapped":"beyonc\u00e9","trendVolume":1828898},{"stateName":"OR","trendName":"Lemonade","placeID":"2475687","placeName":"Portland","searchUrl":"http:\/\/twitter.com\/search?q=Lemonade","trendMapped":"lemonade","trendVolume":2045507},{"stateName":"OR","trendName":"Prince","placeID":"2475687","placeName":"Portland","searchUrl":"http:\/\/twitter.com\/search?q=Prince","trendMapped":"prince","trendVolume":1103421},{"stateName":"OR","trendName":"beyonc\u00e9","placeID":"2475687","placeName":"Portland","searchUrl":"http:\/\/twitter.com\/search?q=beyonc%C3%A9","trendMapped":"beyonc\u00e9","trendVolume":1943192},{"stateName":"PA","trendName":"#GameofThrones","placeID":"2471217","placeName":"Philadelphia","searchUrl":"http:\/\/twitter.com\/search?q=%23GameofThrones","trendMapped":"gameof+thrones","trendVolume":226168},{"stateName":"PA","trendName":"#LEMONADE","placeID":"2473224","placeName":"Pittsburgh","searchUrl":"http:\/\/twitter.com\/search?q=%23LEMONADE","trendMapped":"lemonade","trendVolume":1358422},{"stateName":"PA","trendName":"#NiallDay","placeID":"2471217","placeName":"Philadelphia","searchUrl":"http:\/\/twitter.com\/search?q=%23NiallDay","trendMapped":"niall+day","trendVolume":774858},{"stateName":"PA","trendName":"#PiliPinasDebates2016","placeID":"2471217","placeName":"Philadelphia","searchUrl":"http:\/\/twitter.com\/search?q=%23PiliPinasDebates2016","trendMapped":"pili+pinas+debates2016","trendVolume":1261188},{"stateName":"PA","trendName":"#Shakespeare400","placeID":"2418046","placeName":"Harrisburg","searchUrl":"http:\/\/twitter.com\/search?q=%23Shakespeare400","trendMapped":"shakespeare400","trendVolume":179286},{"stateName":"PA","trendName":"Beyonc\u00e9","placeID":"2473224","placeName":"Pittsburgh","searchUrl":"http:\/\/twitter.com\/search?q=Beyonc%C3%A9","trendMapped":"beyonc\u00e9","trendVolume":1998789},{"stateName":"PA","trendName":"Lemonade","placeID":"2473224","placeName":"Pittsburgh","searchUrl":"http:\/\/twitter.com\/search?q=Lemonade","trendMapped":"lemonade","trendVolume":1982642},{"stateName":"RI","trendName":"#LEMONADE","placeID":"2477058","placeName":"Providence","searchUrl":"http:\/\/twitter.com\/search?q=%23LEMONADE","trendMapped":"lemonade","trendVolume":1420103},{"stateName":"RI","trendName":"Beyonce","placeID":"2477058","placeName":"Providence","searchUrl":"http:\/\/twitter.com\/search?q=Beyonce","trendMapped":"beyonce","trendVolume":1555535},{"stateName":"RI","trendName":"Beyonc\u00e9","placeID":"2477058","placeName":"Providence","searchUrl":"http:\/\/twitter.com\/search?q=Beyonc%C3%A9","trendMapped":"beyonc\u00e9","trendVolume":2039023},{"stateName":"TN","trendName":"#LEMONADE","placeID":"2457170","placeName":"Nashville","searchUrl":"http:\/\/twitter.com\/search?q=%23LEMONADE","trendMapped":"lemonade","trendVolume":1358422},{"stateName":"TN","trendName":"#NiallDay","placeID":"2457170","placeName":"Nashville","searchUrl":"http:\/\/twitter.com\/search?q=%23NiallDay","trendMapped":"niall+day","trendVolume":799976},{"stateName":"TN","trendName":"#PiliPinasDebates2016","placeID":"2457170","placeName":"Nashville","searchUrl":"http:\/\/twitter.com\/search?q=%23PiliPinasDebates2016","trendMapped":"pili+pinas+debates2016","trendVolume":1264548},{"stateName":"TN","trendName":"Beyonce","placeID":"2449323","placeName":"Memphis","searchUrl":"http:\/\/twitter.com\/search?q=Beyonce","trendMapped":"beyonce","trendVolume":2010010},{"stateName":"TN","trendName":"Beyonc\u00e9","placeID":"2457170","placeName":"Nashville","searchUrl":"http:\/\/twitter.com\/search?q=Beyonc%C3%A9","trendMapped":"beyonc\u00e9","trendVolume":1917149},{"stateName":"TN","trendName":"Lemonade","placeID":"2457170","placeName":"Nashville","searchUrl":"http:\/\/twitter.com\/search?q=Lemonade","trendMapped":"lemonade","trendVolume":1836829},{"stateName":"TN","trendName":"Prince","placeID":"2457170","placeName":"Nashville","searchUrl":"http:\/\/twitter.com\/search?q=Prince","trendMapped":"prince","trendVolume":1060826},{"stateName":"TX","trendName":"#GameofThrones","placeID":"2424766","placeName":"Houston","searchUrl":"http:\/\/twitter.com\/search?q=%23GameofThrones","trendMapped":"gameof+thrones","trendVolume":244355},{"stateName":"TX","trendName":"#LEMONADE","placeID":"2487796","placeName":"San Antonio","searchUrl":"http:\/\/twitter.com\/search?q=%23LEMONADE","trendMapped":"lemonade","trendVolume":1458271},{"stateName":"TX","trendName":"#NiallDay","placeID":"2424766","placeName":"Houston","searchUrl":"http:\/\/twitter.com\/search?q=%23NiallDay","trendMapped":"niall+day","trendVolume":816378},{"stateName":"TX","trendName":"#PiliPinasDebates2016","placeID":"2388929","placeName":"Dallas-Ft. Worth","searchUrl":"http:\/\/twitter.com\/search?q=%23PiliPinasDebates2016","trendMapped":"pili+pinas+debates2016","trendVolume":1262885},{"stateName":"TX","trendName":"Beyonc\u00e9","placeID":"2487796","placeName":"San Antonio","searchUrl":"http:\/\/twitter.com\/search?q=Beyonc%C3%A9","trendMapped":"beyonc\u00e9","trendVolume":2019472},{"stateName":"TX","trendName":"Gago","placeID":"2424766","placeName":"Houston","searchUrl":"http:\/\/twitter.com\/search?q=Gago","trendMapped":"gago","trendVolume":187665},{"stateName":"TX","trendName":"Jack Gilinsky","placeID":"2424766","placeName":"Houston","searchUrl":"http:\/\/twitter.com\/search?q=%22Jack+Gilinsky%22","trendMapped":"Jack+Gilinsky","trendVolume":183580},{"stateName":"TX","trendName":"Lemonade","placeID":"2487796","placeName":"San Antonio","searchUrl":"http:\/\/twitter.com\/search?q=Lemonade","trendMapped":"lemonade","trendVolume":1982642},{"stateName":"TX","trendName":"Prince","placeID":"2487796","placeName":"San Antonio","searchUrl":"http:\/\/twitter.com\/search?q=Prince","trendMapped":"prince","trendVolume":1132054},{"stateName":"UT","trendName":"#EarthDay","placeID":"2487610","placeName":"Salt Lake City","searchUrl":"http:\/\/twitter.com\/search?q=%23EarthDay","trendMapped":"earth+day","trendVolume":188713},{"stateName":"UT","trendName":"#LEMONADE","placeID":"2487610","placeName":"Salt Lake City","searchUrl":"http:\/\/twitter.com\/search?q=%23LEMONADE","trendMapped":"lemonade","trendVolume":1485655},{"stateName":"UT","trendName":"Beyonc\u00e9","placeID":"2487610","placeName":"Salt Lake City","searchUrl":"http:\/\/twitter.com\/search?q=Beyonc%C3%A9","trendMapped":"beyonc\u00e9","trendVolume":1988236},{"stateName":"UT","trendName":"Suarez","placeID":"2487610","placeName":"Salt Lake City","searchUrl":"http:\/\/twitter.com\/search?q=Suarez","trendMapped":"suarez","trendVolume":304736},{"stateName":"VA","trendName":"#LEMONADE","placeID":"2512636","placeName":"Virginia Beach","searchUrl":"http:\/\/twitter.com\/search?q=%23LEMONADE","trendMapped":"lemonade","trendVolume":1377580},{"stateName":"VA","trendName":"#NiallDay","placeID":"2512636","placeName":"Virginia Beach","searchUrl":"http:\/\/twitter.com\/search?q=%23NiallDay","trendMapped":"niall+day","trendVolume":783560},{"stateName":"VA","trendName":"#PiliPinasDebates2016","placeID":"2512636","placeName":"Virginia Beach","searchUrl":"http:\/\/twitter.com\/search?q=%23PiliPinasDebates2016","trendMapped":"pili+pinas+debates2016","trendVolume":1263924},{"stateName":"VA","trendName":"Beyonc\u00e9","placeID":"2480894","placeName":"Richmond","searchUrl":"http:\/\/twitter.com\/search?q=Beyonc%C3%A9","trendMapped":"beyonc\u00e9","trendVolume":1893048},{"stateName":"VA","trendName":"Lemonade","placeID":"2480894","placeName":"Richmond","searchUrl":"http:\/\/twitter.com\/search?q=Lemonade","trendMapped":"lemonade","trendVolume":1854925},{"stateName":"VA","trendName":"Prince","placeID":"2480894","placeName":"Richmond","searchUrl":"http:\/\/twitter.com\/search?q=Prince","trendMapped":"prince","trendVolume":1084023},{"stateName":"VA","trendName":"Suarez","placeID":"2512636","placeName":"Virginia Beach","searchUrl":"http:\/\/twitter.com\/search?q=Suarez","trendMapped":"suarez","trendVolume":304084},{"stateName":"WA","trendName":"#LEMONADE","placeID":"2490383","placeName":"Seattle","searchUrl":"http:\/\/twitter.com\/search?q=%23LEMONADE","trendMapped":"lemonade","trendVolume":1485655},{"stateName":"WA","trendName":"Beyonc\u00e9","placeID":"2490383","placeName":"Seattle","searchUrl":"http:\/\/twitter.com\/search?q=Beyonc%C3%A9","trendMapped":"beyonc\u00e9","trendVolume":1973156},{"stateName":"WI","trendName":"#EarthDay","placeID":"2451822","placeName":"Milwaukee","searchUrl":"http:\/\/twitter.com\/search?q=%23EarthDay","trendMapped":"earth+day","trendVolume":213544},{"stateName":"WI","trendName":"#LEMONADE","placeID":"2451822","placeName":"Milwaukee","searchUrl":"http:\/\/twitter.com\/search?q=%23LEMONADE","trendMapped":"lemonade","trendVolume":1156378},{"stateName":"WI","trendName":"Beyonc\u00e9","placeID":"2451822","placeName":"Milwaukee","searchUrl":"http:\/\/twitter.com\/search?q=Beyonc%C3%A9","trendMapped":"beyonc\u00e9","trendVolume":2019472},{"stateName":"XX","trendName":"#GameofThrones","placeID":"23424977","placeName":"United States","searchUrl":"http:\/\/twitter.com\/search?q=%23GameofThrones","trendMapped":"gameof+thrones","trendVolume":232870},{"stateName":"XX","trendName":"#LEMONADE","placeID":"23424977","placeName":"United States","searchUrl":"http:\/\/twitter.com\/search?q=%23LEMONADE","trendMapped":"lemonade","trendVolume":1265434},{"stateName":"XX","trendName":"#NiallDay","placeID":"23424977","placeName":"United States","searchUrl":"http:\/\/twitter.com\/search?q=%23NiallDay","trendMapped":"niall+day","trendVolume":760181},{"stateName":"XX","trendName":"#PiliPinasDebates2016","placeID":"23424977","placeName":"United States","searchUrl":"http:\/\/twitter.com\/search?q=%23PiliPinasDebates2016","trendMapped":"pili+pinas+debates2016","trendVolume":1262885}]