[{"stateName":"AL","trendName":"Beyonce","placeID":"2364559","placeName":"Birmingham","searchUrl":"http:\/\/twitter.com\/search?q=Beyonce","trendMapped":"beyonce","trendVolume":681646},{"stateName":"AL","trendName":"Beyonc\u00e9","placeID":"2364559","placeName":"Birmingham","searchUrl":"http:\/\/twitter.com\/search?q=Beyonc%C3%A9","trendMapped":"beyonc\u00e9","trendVolume":808372},{"stateName":"AZ","trendName":"#DolanTwinsNewVideo","placeID":"2508428","placeName":"Tucson","searchUrl":"http:\/\/twitter.com\/search?q=%23DolanTwinsNewVideo","trendMapped":"dolan+twins+new+video","trendVolume":120520},{"stateName":"AZ","trendName":"#LHHATL","placeID":"2449808","placeName":"Mesa","searchUrl":"http:\/\/twitter.com\/search?q=%23LHHATL","trendMapped":"lhhatl","trendVolume":52864},{"stateName":"AZ","trendName":"#ProjectHomeHarryDay","placeID":"2508428","placeName":"Tucson","searchUrl":"http:\/\/twitter.com\/search?q=%23ProjectHomeHarryDay","trendMapped":"project+home+harry+day","trendVolume":741027},{"stateName":"AZ","trendName":"#WorldPenguinDay","placeID":"2449808","placeName":"Mesa","searchUrl":"http:\/\/twitter.com\/search?q=%23WorldPenguinDay","trendMapped":"world+penguin+day","trendVolume":72091},{"stateName":"AZ","trendName":"Beyonc\u00e9","placeID":"2508428","placeName":"Tucson","searchUrl":"http:\/\/twitter.com\/search?q=Beyonc%C3%A9","trendMapped":"beyonc\u00e9","trendVolume":789956},{"stateName":"AZ","trendName":"Blues","placeID":"2471390","placeName":"Phoenix","searchUrl":"http:\/\/twitter.com\/search?q=Blues","trendMapped":"blues","trendVolume":150583},{"stateName":"AZ","trendName":"Cristiano","placeID":"2508428","placeName":"Tucson","searchUrl":"http:\/\/twitter.com\/search?q=Cristiano","trendMapped":"cristiano","trendVolume":167467},{"stateName":"AZ","trendName":"Westbrook","placeID":"2508428","placeName":"Tucson","searchUrl":"http:\/\/twitter.com\/search?q=Westbrook","trendMapped":"westbrook","trendVolume":157124},{"stateName":"CA","trendName":"#DolanTwinsNewVideo","placeID":"2488042","placeName":"San Jose","searchUrl":"http:\/\/twitter.com\/search?q=%23DolanTwinsNewVideo","trendMapped":"dolan+twins+new+video","trendVolume":121073},{"stateName":"CA","trendName":"#GameofThrones","placeID":"2487889","placeName":"San Diego","searchUrl":"http:\/\/twitter.com\/search?q=%23GameofThrones","trendMapped":"gameof+thrones","trendVolume":517242},{"stateName":"CA","trendName":"#LEMONADE","placeID":"2487956","placeName":"San Francisco","searchUrl":"http:\/\/twitter.com\/search?q=%23LEMONADE","trendMapped":"lemonade","trendVolume":357948},{"stateName":"CA","trendName":"#LHHATL","placeID":"2488042","placeName":"San Jose","searchUrl":"http:\/\/twitter.com\/search?q=%23LHHATL","trendMapped":"lhhatl","trendVolume":55954},{"stateName":"CA","trendName":"#LaSolucionVzlaEsCalle","placeID":"2442047","placeName":"Los Angeles","searchUrl":"http:\/\/twitter.com\/search?q=%23LaSolucionVzlaEsCalle","trendMapped":"la+solucion+vzla+es+calle","trendVolume":59776},{"stateName":"CA","trendName":"#ProjectHomeHarryDay","placeID":"2488042","placeName":"San Jose","searchUrl":"http:\/\/twitter.com\/search?q=%23ProjectHomeHarryDay","trendMapped":"project+home+harry+day","trendVolume":621582},{"stateName":"CA","trendName":"Beyonce","placeID":"2486340","placeName":"Sacramento","searchUrl":"http:\/\/twitter.com\/search?q=Beyonce","trendMapped":"beyonce","trendVolume":710999},{"stateName":"CA","trendName":"Beyonc\u00e9","placeID":"2486340","placeName":"Sacramento","searchUrl":"http:\/\/twitter.com\/search?q=Beyonc%C3%A9","trendMapped":"beyonc\u00e9","trendVolume":787837},{"stateName":"CA","trendName":"Blues","placeID":"2442047","placeName":"Los Angeles","searchUrl":"http:\/\/twitter.com\/search?q=Blues","trendMapped":"blues","trendVolume":150583},{"stateName":"CA","trendName":"Cristiano","placeID":"2488042","placeName":"San Jose","searchUrl":"http:\/\/twitter.com\/search?q=Cristiano","trendMapped":"cristiano","trendVolume":167467},{"stateName":"CA","trendName":"Hugo","placeID":"2442047","placeName":"Los Angeles","searchUrl":"http:\/\/twitter.com\/search?q=Hugo","trendMapped":"hugo","trendVolume":41175},{"stateName":"CA","trendName":"West Brom","placeID":"2407517","placeName":"Fresno","searchUrl":"http:\/\/twitter.com\/search?q=%22West+Brom%22","trendMapped":"West+Brom","trendVolume":55946},{"stateName":"CA","trendName":"Westbrook","placeID":"2488042","placeName":"San Jose","searchUrl":"http:\/\/twitter.com\/search?q=Westbrook","trendMapped":"westbrook","trendVolume":156660},{"stateName":"CO","trendName":"#DolanTwinsNewVideo","placeID":"2391279","placeName":"Denver","searchUrl":"http:\/\/twitter.com\/search?q=%23DolanTwinsNewVideo","trendMapped":"dolan+twins+new+video","trendVolume":121073},{"stateName":"CO","trendName":"#GameofThrones","placeID":"2391279","placeName":"Denver","searchUrl":"http:\/\/twitter.com\/search?q=%23GameofThrones","trendMapped":"gameof+thrones","trendVolume":350312},{"stateName":"CO","trendName":"#LEMONADE","placeID":"2391279","placeName":"Denver","searchUrl":"http:\/\/twitter.com\/search?q=%23LEMONADE","trendMapped":"lemonade","trendVolume":324284},{"stateName":"CO","trendName":"#LHHATL","placeID":"2383489","placeName":"Colorado Springs","searchUrl":"http:\/\/twitter.com\/search?q=%23LHHATL","trendMapped":"lhhatl","trendVolume":45779},{"stateName":"CO","trendName":"#ProjectHomeHarryDay","placeID":"2391279","placeName":"Denver","searchUrl":"http:\/\/twitter.com\/search?q=%23ProjectHomeHarryDay","trendMapped":"project+home+harry+day","trendVolume":535929},{"stateName":"CO","trendName":"Blues","placeID":"2383489","placeName":"Colorado Springs","searchUrl":"http:\/\/twitter.com\/search?q=Blues","trendMapped":"blues","trendVolume":144141},{"stateName":"CO","trendName":"Cristiano","placeID":"2383489","placeName":"Colorado Springs","searchUrl":"http:\/\/twitter.com\/search?q=Cristiano","trendMapped":"cristiano","trendVolume":167467},{"stateName":"CO","trendName":"West Brom","placeID":"2383489","placeName":"Colorado Springs","searchUrl":"http:\/\/twitter.com\/search?q=%22West+Brom%22","trendMapped":"West+Brom","trendVolume":55701},{"stateName":"CO","trendName":"Westbrook","placeID":"2383489","placeName":"Colorado Springs","searchUrl":"http:\/\/twitter.com\/search?q=Westbrook","trendMapped":"westbrook","trendVolume":102815},{"stateName":"CT","trendName":"Beyonc\u00e9","placeID":"2458410","placeName":"New Haven","searchUrl":"http:\/\/twitter.com\/search?q=Beyonc%C3%A9","trendMapped":"beyonc\u00e9","trendVolume":838586},{"stateName":"CT","trendName":"Blues","placeID":"2458410","placeName":"New Haven","searchUrl":"http:\/\/twitter.com\/search?q=Blues","trendMapped":"blues","trendVolume":140889},{"stateName":"CT","trendName":"Clippers","placeID":"2458410","placeName":"New Haven","searchUrl":"http:\/\/twitter.com\/search?q=Clippers","trendMapped":"clippers","trendVolume":72740},{"stateName":"CT","trendName":"Manchester","placeID":"2458410","placeName":"New Haven","searchUrl":"http:\/\/twitter.com\/search?q=Manchester","trendMapped":"manchester","trendVolume":280644},{"stateName":"DC","trendName":"#DolanTwinsNewVideo","placeID":"2514815","placeName":"Washington","searchUrl":"http:\/\/twitter.com\/search?q=%23DolanTwinsNewVideo","trendMapped":"dolan+twins+new+video","trendVolume":120781},{"stateName":"DC","trendName":"#LHHATL","placeID":"2514815","placeName":"Washington","searchUrl":"http:\/\/twitter.com\/search?q=%23LHHATL","trendMapped":"lhhatl","trendVolume":53495},{"stateName":"DC","trendName":"#ProjectHomeHarryDay","placeID":"2514815","placeName":"Washington","searchUrl":"http:\/\/twitter.com\/search?q=%23ProjectHomeHarryDay","trendMapped":"project+home+harry+day","trendVolume":573344},{"stateName":"DC","trendName":"Beyonc\u00e9","placeID":"2514815","placeName":"Washington","searchUrl":"http:\/\/twitter.com\/search?q=Beyonc%C3%A9","trendMapped":"beyonc\u00e9","trendVolume":785929},{"stateName":"DC","trendName":"Blues","placeID":"2514815","placeName":"Washington","searchUrl":"http:\/\/twitter.com\/search?q=Blues","trendMapped":"blues","trendVolume":142098},{"stateName":"DC","trendName":"Cristiano","placeID":"2514815","placeName":"Washington","searchUrl":"http:\/\/twitter.com\/search?q=Cristiano","trendMapped":"cristiano","trendVolume":147441},{"stateName":"DC","trendName":"Man City","placeID":"2514815","placeName":"Washington","searchUrl":"http:\/\/twitter.com\/search?q=%22Man+City%22","trendMapped":"Man+City","trendVolume":56983},{"stateName":"DC","trendName":"Real Madrid","placeID":"2514815","placeName":"Washington","searchUrl":"http:\/\/twitter.com\/search?q=%22Real+Madrid%22","trendMapped":"Real+Madrid","trendVolume":303333},{"stateName":"DC","trendName":"Westbrook","placeID":"2514815","placeName":"Washington","searchUrl":"http:\/\/twitter.com\/search?q=Westbrook","trendMapped":"westbrook","trendVolume":148843},{"stateName":"FL","trendName":"#GameofThrones","placeID":"2450022","placeName":"Miami","searchUrl":"http:\/\/twitter.com\/search?q=%23GameofThrones","trendMapped":"gameof+thrones","trendVolume":791447},{"stateName":"FL","trendName":"#LEMONADE","placeID":"2466256","placeName":"Orlando","searchUrl":"http:\/\/twitter.com\/search?q=%23LEMONADE","trendMapped":"lemonade","trendVolume":330365},{"stateName":"FL","trendName":"#LHHATL","placeID":"2450022","placeName":"Miami","searchUrl":"http:\/\/twitter.com\/search?q=%23LHHATL","trendMapped":"lhhatl","trendVolume":54368},{"stateName":"FL","trendName":"#ProjectHomeHarryDay","placeID":"2503863","placeName":"Tampa","searchUrl":"http:\/\/twitter.com\/search?q=%23ProjectHomeHarryDay","trendMapped":"project+home+harry+day","trendVolume":754893},{"stateName":"FL","trendName":"Beyonc\u00e9","placeID":"2503863","placeName":"Tampa","searchUrl":"http:\/\/twitter.com\/search?q=Beyonc%C3%A9","trendMapped":"beyonc\u00e9","trendVolume":844435},{"stateName":"FL","trendName":"Blues","placeID":"2503863","placeName":"Tampa","searchUrl":"http:\/\/twitter.com\/search?q=Blues","trendMapped":"blues","trendVolume":138652},{"stateName":"FL","trendName":"Cruz","placeID":"2428344","placeName":"Jacksonville","searchUrl":"http:\/\/twitter.com\/search?q=Cruz","trendMapped":"cruz","trendVolume":512529},{"stateName":"FL","trendName":"Lemonade","placeID":"2428344","placeName":"Jacksonville","searchUrl":"http:\/\/twitter.com\/search?q=Lemonade","trendMapped":"lemonade","trendVolume":541103},{"stateName":"FL","trendName":"Madrid","placeID":"2503863","placeName":"Tampa","searchUrl":"http:\/\/twitter.com\/search?q=Madrid","trendMapped":"madrid","trendVolume":628995},{"stateName":"FL","trendName":"Real Madrid","placeID":"2450022","placeName":"Miami","searchUrl":"http:\/\/twitter.com\/search?q=%22Real+Madrid%22","trendMapped":"Real+Madrid","trendVolume":313681},{"stateName":"FL","trendName":"Trump","placeID":"2503713","placeName":"Tallahassee","searchUrl":"http:\/\/twitter.com\/search?q=Trump","trendMapped":"trump","trendVolume":763116},{"stateName":"FL","trendName":"Westbrook","placeID":"2503863","placeName":"Tampa","searchUrl":"http:\/\/twitter.com\/search?q=Westbrook","trendMapped":"westbrook","trendVolume":160504},{"stateName":"GA","trendName":"#DolanTwinsNewVideo","placeID":"2357024","placeName":"Atlanta","searchUrl":"http:\/\/twitter.com\/search?q=%23DolanTwinsNewVideo","trendMapped":"dolan+twins+new+video","trendVolume":119361},{"stateName":"GA","trendName":"#ProjectHomeHarryDay","placeID":"2357024","placeName":"Atlanta","searchUrl":"http:\/\/twitter.com\/search?q=%23ProjectHomeHarryDay","trendMapped":"project+home+harry+day","trendVolume":636444},{"stateName":"GA","trendName":"Beyonc\u00e9","placeID":"2357024","placeName":"Atlanta","searchUrl":"http:\/\/twitter.com\/search?q=Beyonc%C3%A9","trendMapped":"beyonc\u00e9","trendVolume":788281},{"stateName":"GA","trendName":"Cristiano","placeID":"2357024","placeName":"Atlanta","searchUrl":"http:\/\/twitter.com\/search?q=Cristiano","trendMapped":"cristiano","trendVolume":167467},{"stateName":"GA","trendName":"Lemonade","placeID":"2357024","placeName":"Atlanta","searchUrl":"http:\/\/twitter.com\/search?q=Lemonade","trendMapped":"lemonade","trendVolume":638537},{"stateName":"GA","trendName":"Westbrook","placeID":"2357024","placeName":"Atlanta","searchUrl":"http:\/\/twitter.com\/search?q=Westbrook","trendMapped":"westbrook","trendVolume":156660},{"stateName":"HI","trendName":"#GameofThrones","placeID":"2423945","placeName":"Honolulu","searchUrl":"http:\/\/twitter.com\/search?q=%23GameofThrones","trendMapped":"gameof+thrones","trendVolume":517242},{"stateName":"HI","trendName":"#LEMONADE","placeID":"2423945","placeName":"Honolulu","searchUrl":"http:\/\/twitter.com\/search?q=%23LEMONADE","trendMapped":"lemonade","trendVolume":356543},{"stateName":"HI","trendName":"Beyonc\u00e9","placeID":"2423945","placeName":"Honolulu","searchUrl":"http:\/\/twitter.com\/search?q=Beyonc%C3%A9","trendMapped":"beyonc\u00e9","trendVolume":808956},{"stateName":"HI","trendName":"Trump","placeID":"2423945","placeName":"Honolulu","searchUrl":"http:\/\/twitter.com\/search?q=Trump","trendMapped":"trump","trendVolume":771050},{"stateName":"IL","trendName":"#DolanTwinsNewVideo","placeID":"2379574","placeName":"Chicago","searchUrl":"http:\/\/twitter.com\/search?q=%23DolanTwinsNewVideo","trendMapped":"dolan+twins+new+video","trendVolume":121173},{"stateName":"IL","trendName":"#LEMONADE","placeID":"2379574","placeName":"Chicago","searchUrl":"http:\/\/twitter.com\/search?q=%23LEMONADE","trendMapped":"lemonade","trendVolume":331180},{"stateName":"IL","trendName":"#ProjectHomeHarryDay","placeID":"2379574","placeName":"Chicago","searchUrl":"http:\/\/twitter.com\/search?q=%23ProjectHomeHarryDay","trendMapped":"project+home+harry+day","trendVolume":600850},{"stateName":"IL","trendName":"#WorldPenguinDay","placeID":"2379574","placeName":"Chicago","searchUrl":"http:\/\/twitter.com\/search?q=%23WorldPenguinDay","trendMapped":"world+penguin+day","trendVolume":72091},{"stateName":"IL","trendName":"Blues","placeID":"2379574","placeName":"Chicago","searchUrl":"http:\/\/twitter.com\/search?q=Blues","trendMapped":"blues","trendVolume":146767},{"stateName":"IL","trendName":"Hugo","placeID":"2379574","placeName":"Chicago","searchUrl":"http:\/\/twitter.com\/search?q=Hugo","trendMapped":"hugo","trendVolume":40778},{"stateName":"IL","trendName":"Madrid","placeID":"2379574","placeName":"Chicago","searchUrl":"http:\/\/twitter.com\/search?q=Madrid","trendMapped":"madrid","trendVolume":624585},{"stateName":"IL","trendName":"Real Madrid","placeID":"2379574","placeName":"Chicago","searchUrl":"http:\/\/twitter.com\/search?q=%22Real+Madrid%22","trendMapped":"Real+Madrid","trendVolume":238086},{"stateName":"IL","trendName":"Westbrook","placeID":"2379574","placeName":"Chicago","searchUrl":"http:\/\/twitter.com\/search?q=Westbrook","trendMapped":"westbrook","trendVolume":153572},{"stateName":"IN","trendName":"#DolanTwinsNewVideo","placeID":"2427032","placeName":"Indianapolis","searchUrl":"http:\/\/twitter.com\/search?q=%23DolanTwinsNewVideo","trendMapped":"dolan+twins+new+video","trendVolume":121073},{"stateName":"IN","trendName":"#GameofThrones","placeID":"2427032","placeName":"Indianapolis","searchUrl":"http:\/\/twitter.com\/search?q=%23GameofThrones","trendMapped":"gameof+thrones","trendVolume":888199},{"stateName":"IN","trendName":"#ProjectHomeHarryDay","placeID":"2427032","placeName":"Indianapolis","searchUrl":"http:\/\/twitter.com\/search?q=%23ProjectHomeHarryDay","trendMapped":"project+home+harry+day","trendVolume":607991},{"stateName":"IN","trendName":"Beyonc\u00e9","placeID":"2427032","placeName":"Indianapolis","searchUrl":"http:\/\/twitter.com\/search?q=Beyonc%C3%A9","trendMapped":"beyonc\u00e9","trendVolume":823732},{"stateName":"IN","trendName":"ESPN","placeID":"2427032","placeName":"Indianapolis","searchUrl":"http:\/\/twitter.com\/search?q=ESPN","trendMapped":"espn","trendVolume":164773},{"stateName":"IN","trendName":"Lemonade","placeID":"2427032","placeName":"Indianapolis","searchUrl":"http:\/\/twitter.com\/search?q=Lemonade","trendMapped":"lemonade","trendVolume":715605},{"stateName":"IN","trendName":"Westbrook","placeID":"2427032","placeName":"Indianapolis","searchUrl":"http:\/\/twitter.com\/search?q=Westbrook","trendMapped":"westbrook","trendVolume":142735},{"stateName":"KY","trendName":"#GameofThrones","placeID":"2442327","placeName":"Louisville","searchUrl":"http:\/\/twitter.com\/search?q=%23GameofThrones","trendMapped":"gameof+thrones","trendVolume":517242},{"stateName":"KY","trendName":"#LEMONADE","placeID":"2442327","placeName":"Louisville","searchUrl":"http:\/\/twitter.com\/search?q=%23LEMONADE","trendMapped":"lemonade","trendVolume":353183},{"stateName":"KY","trendName":"Beyonc\u00e9","placeID":"2442327","placeName":"Louisville","searchUrl":"http:\/\/twitter.com\/search?q=Beyonc%C3%A9","trendMapped":"beyonc\u00e9","trendVolume":819009},{"stateName":"LA","trendName":"#DolanTwinsNewVideo","placeID":"2359991","placeName":"Baton Rouge","searchUrl":"http:\/\/twitter.com\/search?q=%23DolanTwinsNewVideo","trendMapped":"dolan+twins+new+video","trendVolume":121073},{"stateName":"LA","trendName":"#LEMONADE","placeID":"2458833","placeName":"New Orleans","searchUrl":"http:\/\/twitter.com\/search?q=%23LEMONADE","trendMapped":"lemonade","trendVolume":254208},{"stateName":"LA","trendName":"#ProjectHomeHarryDay","placeID":"2359991","placeName":"Baton Rouge","searchUrl":"http:\/\/twitter.com\/search?q=%23ProjectHomeHarryDay","trendMapped":"project+home+harry+day","trendVolume":344711},{"stateName":"LA","trendName":"Bernie","placeID":"2458833","placeName":"New Orleans","searchUrl":"http:\/\/twitter.com\/search?q=Bernie","trendMapped":"bernie","trendVolume":264621},{"stateName":"LA","trendName":"Beyonc\u00e9","placeID":"2458833","placeName":"New Orleans","searchUrl":"http:\/\/twitter.com\/search?q=Beyonc%C3%A9","trendMapped":"beyonc\u00e9","trendVolume":833326},{"stateName":"LA","trendName":"Black","placeID":"2359991","placeName":"Baton Rouge","searchUrl":"http:\/\/twitter.com\/search?q=Black","trendMapped":"black","trendVolume":936584},{"stateName":"MA","trendName":"#CTPrimary","placeID":"2367105","placeName":"Boston","searchUrl":"http:\/\/twitter.com\/search?q=%23CTPrimary","trendMapped":"ct+primary","trendVolume":54739},{"stateName":"MA","trendName":"#DolanTwinsNewVideo","placeID":"2367105","placeName":"Boston","searchUrl":"http:\/\/twitter.com\/search?q=%23DolanTwinsNewVideo","trendMapped":"dolan+twins+new+video","trendVolume":118072},{"stateName":"MA","trendName":"#GameofThrones","placeID":"2367105","placeName":"Boston","searchUrl":"http:\/\/twitter.com\/search?q=%23GameofThrones","trendMapped":"gameof+thrones","trendVolume":790278},{"stateName":"MA","trendName":"#LEMONADE","placeID":"2367105","placeName":"Boston","searchUrl":"http:\/\/twitter.com\/search?q=%23LEMONADE","trendMapped":"lemonade","trendVolume":341362},{"stateName":"MA","trendName":"#LHHATL","placeID":"2367105","placeName":"Boston","searchUrl":"http:\/\/twitter.com\/search?q=%23LHHATL","trendMapped":"lhhatl","trendVolume":53789},{"stateName":"MA","trendName":"#ProjectHomeHarryDay","placeID":"2367105","placeName":"Boston","searchUrl":"http:\/\/twitter.com\/search?q=%23ProjectHomeHarryDay","trendMapped":"project+home+harry+day","trendVolume":479361},{"stateName":"MA","trendName":"#gameofthrones","placeID":"2367105","placeName":"Boston","searchUrl":"http:\/\/twitter.com\/search?q=%23gameofthrones","trendMapped":"gameofthrones","trendVolume":788109},{"stateName":"MA","trendName":"Westbrook","placeID":"2367105","placeName":"Boston","searchUrl":"http:\/\/twitter.com\/search?q=Westbrook","trendMapped":"westbrook","trendVolume":144345},{"stateName":"MD","trendName":"Beyonc\u00e9","placeID":"2358820","placeName":"Baltimore","searchUrl":"http:\/\/twitter.com\/search?q=Beyonc%C3%A9","trendMapped":"beyonc\u00e9","trendVolume":831522},{"stateName":"MD","trendName":"ESPN","placeID":"2358820","placeName":"Baltimore","searchUrl":"http:\/\/twitter.com\/search?q=ESPN","trendMapped":"espn","trendVolume":180357},{"stateName":"MI","trendName":"#GameofThrones","placeID":"2391585","placeName":"Detroit","searchUrl":"http:\/\/twitter.com\/search?q=%23GameofThrones","trendMapped":"gameof+thrones","trendVolume":791447},{"stateName":"MI","trendName":"#LEMONADE","placeID":"2391585","placeName":"Detroit","searchUrl":"http:\/\/twitter.com\/search?q=%23LEMONADE","trendMapped":"lemonade","trendVolume":265635},{"stateName":"MI","trendName":"#LaSolucionVzlaEsCalle","placeID":"2391585","placeName":"Detroit","searchUrl":"http:\/\/twitter.com\/search?q=%23LaSolucionVzlaEsCalle","trendMapped":"la+solucion+vzla+es+calle","trendVolume":61838},{"stateName":"MI","trendName":"#ProjectHomeHarryDay","placeID":"2391585","placeName":"Detroit","searchUrl":"http:\/\/twitter.com\/search?q=%23ProjectHomeHarryDay","trendMapped":"project+home+harry+day","trendVolume":573344},{"stateName":"MI","trendName":"Beyonc\u00e9","placeID":"2391585","placeName":"Detroit","searchUrl":"http:\/\/twitter.com\/search?q=Beyonc%C3%A9","trendMapped":"beyonc\u00e9","trendVolume":817161},{"stateName":"MI","trendName":"ESPN","placeID":"2391585","placeName":"Detroit","searchUrl":"http:\/\/twitter.com\/search?q=ESPN","trendMapped":"espn","trendVolume":181953},{"stateName":"MI","trendName":"Justin Bieber","placeID":"2391585","placeName":"Detroit","searchUrl":"http:\/\/twitter.com\/search?q=%22Justin+Bieber%22","trendMapped":"Justin+Bieber","trendVolume":126686},{"stateName":"MI","trendName":"Westbrook","placeID":"2391585","placeName":"Detroit","searchUrl":"http:\/\/twitter.com\/search?q=Westbrook","trendMapped":"westbrook","trendVolume":155122},{"stateName":"MN","trendName":"#DolanTwinsNewVideo","placeID":"2452078","placeName":"Minneapolis","searchUrl":"http:\/\/twitter.com\/search?q=%23DolanTwinsNewVideo","trendMapped":"dolan+twins+new+video","trendVolume":120520},{"stateName":"MN","trendName":"#ProjectHomeHarryDay","placeID":"2452078","placeName":"Minneapolis","searchUrl":"http:\/\/twitter.com\/search?q=%23ProjectHomeHarryDay","trendMapped":"project+home+harry+day","trendVolume":636444},{"stateName":"MN","trendName":"Cristiano","placeID":"2452078","placeName":"Minneapolis","searchUrl":"http:\/\/twitter.com\/search?q=Cristiano","trendMapped":"cristiano","trendVolume":161028},{"stateName":"MN","trendName":"House","placeID":"2452078","placeName":"Minneapolis","searchUrl":"http:\/\/twitter.com\/search?q=House","trendMapped":"house","trendVolume":459791},{"stateName":"MN","trendName":"Lemonade","placeID":"2452078","placeName":"Minneapolis","searchUrl":"http:\/\/twitter.com\/search?q=Lemonade","trendMapped":"lemonade","trendVolume":715847},{"stateName":"MO","trendName":"#DolanTwinsNewVideo","placeID":"2486982","placeName":"St. Louis","searchUrl":"http:\/\/twitter.com\/search?q=%23DolanTwinsNewVideo","trendMapped":"dolan+twins+new+video","trendVolume":121073},{"stateName":"MO","trendName":"#LEMONADE","placeID":"2430683","placeName":"Kansas City","searchUrl":"http:\/\/twitter.com\/search?q=%23LEMONADE","trendMapped":"lemonade","trendVolume":346916},{"stateName":"MO","trendName":"#LHHATL","placeID":"2486982","placeName":"St. Louis","searchUrl":"http:\/\/twitter.com\/search?q=%23LHHATL","trendMapped":"lhhatl","trendVolume":54070},{"stateName":"MO","trendName":"#LaSolucionVzlaEsCalle","placeID":"2486982","placeName":"St. Louis","searchUrl":"http:\/\/twitter.com\/search?q=%23LaSolucionVzlaEsCalle","trendMapped":"la+solucion+vzla+es+calle","trendVolume":61838},{"stateName":"MO","trendName":"#ProjectHomeHarryDay","placeID":"2486982","placeName":"St. Louis","searchUrl":"http:\/\/twitter.com\/search?q=%23ProjectHomeHarryDay","trendMapped":"project+home+harry+day","trendVolume":636444},{"stateName":"MO","trendName":"Beyonc\u00e9","placeID":"2430683","placeName":"Kansas City","searchUrl":"http:\/\/twitter.com\/search?q=Beyonc%C3%A9","trendMapped":"beyonc\u00e9","trendVolume":833326},{"stateName":"MO","trendName":"ESPN","placeID":"2486982","placeName":"St. Louis","searchUrl":"http:\/\/twitter.com\/search?q=ESPN","trendMapped":"espn","trendVolume":181953},{"stateName":"MO","trendName":"Hillary","placeID":"2430683","placeName":"Kansas City","searchUrl":"http:\/\/twitter.com\/search?q=Hillary","trendMapped":"hillary","trendVolume":282942},{"stateName":"MO","trendName":"Westbrook","placeID":"2486982","placeName":"St. Louis","searchUrl":"http:\/\/twitter.com\/search?q=Westbrook","trendMapped":"westbrook","trendVolume":120879},{"stateName":"MS","trendName":"Beyonc\u00e9","placeID":"2428184","placeName":"Jackson","searchUrl":"http:\/\/twitter.com\/search?q=Beyonc%C3%A9","trendMapped":"beyonc\u00e9","trendVolume":838586},{"stateName":"MS","trendName":"Lemonade","placeID":"2428184","placeName":"Jackson","searchUrl":"http:\/\/twitter.com\/search?q=Lemonade","trendMapped":"lemonade","trendVolume":572011},{"stateName":"NC","trendName":"#DolanTwinsNewVideo","placeID":"2378426","placeName":"Charlotte","searchUrl":"http:\/\/twitter.com\/search?q=%23DolanTwinsNewVideo","trendMapped":"dolan+twins+new+video","trendVolume":121073},{"stateName":"NC","trendName":"#GameofThrones","placeID":"2378426","placeName":"Charlotte","searchUrl":"http:\/\/twitter.com\/search?q=%23GameofThrones","trendMapped":"gameof+thrones","trendVolume":791447},{"stateName":"NC","trendName":"#LEMONADE","placeID":"2478307","placeName":"Raleigh","searchUrl":"http:\/\/twitter.com\/search?q=%23LEMONADE","trendMapped":"lemonade","trendVolume":343111},{"stateName":"NC","trendName":"#LHHATL","placeID":"2378426","placeName":"Charlotte","searchUrl":"http:\/\/twitter.com\/search?q=%23LHHATL","trendMapped":"lhhatl","trendVolume":53495},{"stateName":"NC","trendName":"#ProjectHomeHarryDay","placeID":"2478307","placeName":"Raleigh","searchUrl":"http:\/\/twitter.com\/search?q=%23ProjectHomeHarryDay","trendMapped":"project+home+harry+day","trendVolume":628783},{"stateName":"NC","trendName":"Bernie","placeID":"2478307","placeName":"Raleigh","searchUrl":"http:\/\/twitter.com\/search?q=Bernie","trendMapped":"bernie","trendVolume":263399},{"stateName":"NC","trendName":"Beyonc\u00e9","placeID":"2414469","placeName":"Greensboro","searchUrl":"http:\/\/twitter.com\/search?q=Beyonc%C3%A9","trendMapped":"beyonc\u00e9","trendVolume":817161},{"stateName":"NC","trendName":"Blues","placeID":"2378426","placeName":"Charlotte","searchUrl":"http:\/\/twitter.com\/search?q=Blues","trendMapped":"blues","trendVolume":149840},{"stateName":"NC","trendName":"Cristiano","placeID":"2378426","placeName":"Charlotte","searchUrl":"http:\/\/twitter.com\/search?q=Cristiano","trendMapped":"cristiano","trendVolume":152853},{"stateName":"NC","trendName":"Drake","placeID":"2414469","placeName":"Greensboro","searchUrl":"http:\/\/twitter.com\/search?q=Drake","trendMapped":"drake","trendVolume":540205},{"stateName":"NC","trendName":"ESPN","placeID":"2414469","placeName":"Greensboro","searchUrl":"http:\/\/twitter.com\/search?q=ESPN","trendMapped":"espn","trendVolume":177711},{"stateName":"NC","trendName":"Westbrook","placeID":"2378426","placeName":"Charlotte","searchUrl":"http:\/\/twitter.com\/search?q=Westbrook","trendMapped":"westbrook","trendVolume":156660},{"stateName":"NE","trendName":"#LEMONADE","placeID":"2465512","placeName":"Omaha","searchUrl":"http:\/\/twitter.com\/search?q=%23LEMONADE","trendMapped":"lemonade","trendVolume":352114},{"stateName":"NE","trendName":"#ProjectHomeHarryDay","placeID":"2465512","placeName":"Omaha","searchUrl":"http:\/\/twitter.com\/search?q=%23ProjectHomeHarryDay","trendMapped":"project+home+harry+day","trendVolume":442585},{"stateName":"NE","trendName":"Beyonce","placeID":"2465512","placeName":"Omaha","searchUrl":"http:\/\/twitter.com\/search?q=Beyonce","trendMapped":"beyonce","trendVolume":747434},{"stateName":"NE","trendName":"Beyonc\u00e9","placeID":"2465512","placeName":"Omaha","searchUrl":"http:\/\/twitter.com\/search?q=Beyonc%C3%A9","trendMapped":"beyonc\u00e9","trendVolume":814894},{"stateName":"NM","trendName":"#LHHATL","placeID":"2352824","placeName":"Albuquerque","searchUrl":"http:\/\/twitter.com\/search?q=%23LHHATL","trendMapped":"lhhatl","trendVolume":53495},{"stateName":"NM","trendName":"#ProjectHomeHarryDay","placeID":"2352824","placeName":"Albuquerque","searchUrl":"http:\/\/twitter.com\/search?q=%23ProjectHomeHarryDay","trendMapped":"project+home+harry+day","trendVolume":411825},{"stateName":"NM","trendName":"Beyonc\u00e9","placeID":"2352824","placeName":"Albuquerque","searchUrl":"http:\/\/twitter.com\/search?q=Beyonc%C3%A9","trendMapped":"beyonc\u00e9","trendVolume":783707},{"stateName":"NM","trendName":"Cristiano","placeID":"2352824","placeName":"Albuquerque","searchUrl":"http:\/\/twitter.com\/search?q=Cristiano","trendMapped":"cristiano","trendVolume":161672},{"stateName":"NM","trendName":"Hugo","placeID":"2352824","placeName":"Albuquerque","searchUrl":"http:\/\/twitter.com\/search?q=Hugo","trendMapped":"hugo","trendVolume":39390},{"stateName":"NM","trendName":"West Brom","placeID":"2352824","placeName":"Albuquerque","searchUrl":"http:\/\/twitter.com\/search?q=%22West+Brom%22","trendMapped":"West+Brom","trendVolume":55946},{"stateName":"NM","trendName":"Westbrook","placeID":"2352824","placeName":"Albuquerque","searchUrl":"http:\/\/twitter.com\/search?q=Westbrook","trendMapped":"westbrook","trendVolume":153572},{"stateName":"NV","trendName":"#GameofThrones","placeID":"2436704","placeName":"Las Vegas","searchUrl":"http:\/\/twitter.com\/search?q=%23GameofThrones","trendMapped":"gameof+thrones","trendVolume":888199},{"stateName":"NV","trendName":"#LEMONADE","placeID":"2436704","placeName":"Las Vegas","searchUrl":"http:\/\/twitter.com\/search?q=%23LEMONADE","trendMapped":"lemonade","trendVolume":344400},{"stateName":"NV","trendName":"Beyonce","placeID":"2436704","placeName":"Las Vegas","searchUrl":"http:\/\/twitter.com\/search?q=Beyonce","trendMapped":"beyonce","trendVolume":817158},{"stateName":"NV","trendName":"Beyonc\u00e9","placeID":"2436704","placeName":"Las Vegas","searchUrl":"http:\/\/twitter.com\/search?q=Beyonc%C3%A9","trendMapped":"beyonc\u00e9","trendVolume":803392},{"stateName":"NV","trendName":"Lemonade","placeID":"2436704","placeName":"Las Vegas","searchUrl":"http:\/\/twitter.com\/search?q=Lemonade","trendMapped":"lemonade","trendVolume":710586},{"stateName":"NY","trendName":"#DolanTwinsNewVideo","placeID":"2459115","placeName":"New York","searchUrl":"http:\/\/twitter.com\/search?q=%23DolanTwinsNewVideo","trendMapped":"dolan+twins+new+video","trendVolume":119973},{"stateName":"NY","trendName":"#ProjectHomeHarryDay","placeID":"2459115","placeName":"New York","searchUrl":"http:\/\/twitter.com\/search?q=%23ProjectHomeHarryDay","trendMapped":"project+home+harry+day","trendVolume":615131},{"stateName":"NY","trendName":"Blues","placeID":"2459115","placeName":"New York","searchUrl":"http:\/\/twitter.com\/search?q=Blues","trendMapped":"blues","trendVolume":150583},{"stateName":"NY","trendName":"Cristiano","placeID":"2459115","placeName":"New York","searchUrl":"http:\/\/twitter.com\/search?q=Cristiano","trendMapped":"cristiano","trendVolume":147441},{"stateName":"NY","trendName":"Real Madrid","placeID":"2459115","placeName":"New York","searchUrl":"http:\/\/twitter.com\/search?q=%22Real+Madrid%22","trendMapped":"Real+Madrid","trendVolume":286457},{"stateName":"NY","trendName":"Westbrook","placeID":"2459115","placeName":"New York","searchUrl":"http:\/\/twitter.com\/search?q=Westbrook","trendMapped":"westbrook","trendVolume":153572},{"stateName":"OH","trendName":"#LEMONADE","placeID":"2383660","placeName":"Columbus","searchUrl":"http:\/\/twitter.com\/search?q=%23LEMONADE","trendMapped":"lemonade","trendVolume":349849},{"stateName":"OH","trendName":"#LHHATL","placeID":"2381475","placeName":"Cleveland","searchUrl":"http:\/\/twitter.com\/search?q=%23LHHATL","trendMapped":"lhhatl","trendVolume":54610},{"stateName":"OH","trendName":"#ProjectHomeHarryDay","placeID":"2381475","placeName":"Cleveland","searchUrl":"http:\/\/twitter.com\/search?q=%23ProjectHomeHarryDay","trendMapped":"project+home+harry+day","trendVolume":697687},{"stateName":"OH","trendName":"Beyonc\u00e9","placeID":"2383660","placeName":"Columbus","searchUrl":"http:\/\/twitter.com\/search?q=Beyonc%C3%A9","trendMapped":"beyonc\u00e9","trendVolume":844435},{"stateName":"OH","trendName":"Lemonade","placeID":"2383660","placeName":"Columbus","searchUrl":"http:\/\/twitter.com\/search?q=Lemonade","trendMapped":"lemonade","trendVolume":580748},{"stateName":"OK","trendName":"#GameofThrones","placeID":"2464592","placeName":"Oklahoma City","searchUrl":"http:\/\/twitter.com\/search?q=%23GameofThrones","trendMapped":"gameof+thrones","trendVolume":351005},{"stateName":"OK","trendName":"#LHHATL","placeID":"2464592","placeName":"Oklahoma City","searchUrl":"http:\/\/twitter.com\/search?q=%23LHHATL","trendMapped":"lhhatl","trendVolume":54610},{"stateName":"OK","trendName":"#ProjectHomeHarryDay","placeID":"2464592","placeName":"Oklahoma City","searchUrl":"http:\/\/twitter.com\/search?q=%23ProjectHomeHarryDay","trendMapped":"project+home+harry+day","trendVolume":600850},{"stateName":"OK","trendName":"Beyonc\u00e9","placeID":"2464592","placeName":"Oklahoma City","searchUrl":"http:\/\/twitter.com\/search?q=Beyonc%C3%A9","trendMapped":"beyonc\u00e9","trendVolume":827038},{"stateName":"OK","trendName":"Blues","placeID":"2464592","placeName":"Oklahoma City","searchUrl":"http:\/\/twitter.com\/search?q=Blues","trendMapped":"blues","trendVolume":146767},{"stateName":"OK","trendName":"Cristiano","placeID":"2464592","placeName":"Oklahoma City","searchUrl":"http:\/\/twitter.com\/search?q=Cristiano","trendMapped":"cristiano","trendVolume":167467},{"stateName":"OK","trendName":"Spurs","placeID":"2464592","placeName":"Oklahoma City","searchUrl":"http:\/\/twitter.com\/search?q=Spurs","trendMapped":"spurs","trendVolume":173193},{"stateName":"OR","trendName":"#DolanTwinsNewVideo","placeID":"2475687","placeName":"Portland","searchUrl":"http:\/\/twitter.com\/search?q=%23DolanTwinsNewVideo","trendMapped":"dolan+twins+new+video","trendVolume":121073},{"stateName":"OR","trendName":"#GameofThrones","placeID":"2475687","placeName":"Portland","searchUrl":"http:\/\/twitter.com\/search?q=%23GameofThrones","trendMapped":"gameof+thrones","trendVolume":790714},{"stateName":"OR","trendName":"#LEMONADE","placeID":"2475687","placeName":"Portland","searchUrl":"http:\/\/twitter.com\/search?q=%23LEMONADE","trendMapped":"lemonade","trendVolume":330365},{"stateName":"OR","trendName":"#ProjectHomeHarryDay","placeID":"2475687","placeName":"Portland","searchUrl":"http:\/\/twitter.com\/search?q=%23ProjectHomeHarryDay","trendMapped":"project+home+harry+day","trendVolume":461493},{"stateName":"OR","trendName":"Cristiano","placeID":"2475687","placeName":"Portland","searchUrl":"http:\/\/twitter.com\/search?q=Cristiano","trendMapped":"cristiano","trendVolume":164986},{"stateName":"OR","trendName":"Westbrook","placeID":"2475687","placeName":"Portland","searchUrl":"http:\/\/twitter.com\/search?q=Westbrook","trendMapped":"westbrook","trendVolume":153572},{"stateName":"PA","trendName":"#DolanTwinsNewVideo","placeID":"2473224","placeName":"Pittsburgh","searchUrl":"http:\/\/twitter.com\/search?q=%23DolanTwinsNewVideo","trendMapped":"dolan+twins+new+video","trendVolume":121073},{"stateName":"PA","trendName":"#LEMONADE","placeID":"2471217","placeName":"Philadelphia","searchUrl":"http:\/\/twitter.com\/search?q=%23LEMONADE","trendMapped":"lemonade","trendVolume":327683},{"stateName":"PA","trendName":"#LHHATL","placeID":"2471217","placeName":"Philadelphia","searchUrl":"http:\/\/twitter.com\/search?q=%23LHHATL","trendMapped":"lhhatl","trendVolume":45779},{"stateName":"PA","trendName":"#ProjectHomeHarryDay","placeID":"2473224","placeName":"Pittsburgh","searchUrl":"http:\/\/twitter.com\/search?q=%23ProjectHomeHarryDay","trendMapped":"project+home+harry+day","trendVolume":628783},{"stateName":"PA","trendName":"#WorldPenguinDay","placeID":"2471217","placeName":"Philadelphia","searchUrl":"http:\/\/twitter.com\/search?q=%23WorldPenguinDay","trendMapped":"world+penguin+day","trendVolume":72553},{"stateName":"PA","trendName":"Beyonc\u00e9","placeID":"2473224","placeName":"Pittsburgh","searchUrl":"http:\/\/twitter.com\/search?q=Beyonc%C3%A9","trendMapped":"beyonc\u00e9","trendVolume":844435},{"stateName":"PA","trendName":"Man City","placeID":"2473224","placeName":"Pittsburgh","searchUrl":"http:\/\/twitter.com\/search?q=%22Man+City%22","trendMapped":"Man+City","trendVolume":60537},{"stateName":"PA","trendName":"Trump","placeID":"2418046","placeName":"Harrisburg","searchUrl":"http:\/\/twitter.com\/search?q=Trump","trendMapped":"trump","trendVolume":771050},{"stateName":"PA","trendName":"West Brom","placeID":"2471217","placeName":"Philadelphia","searchUrl":"http:\/\/twitter.com\/search?q=%22West+Brom%22","trendMapped":"West+Brom","trendVolume":55946},{"stateName":"PA","trendName":"Westbrook","placeID":"2471217","placeName":"Philadelphia","searchUrl":"http:\/\/twitter.com\/search?q=Westbrook","trendMapped":"westbrook","trendVolume":153572},{"stateName":"RI","trendName":"#DolanTwinsNewVideo","placeID":"2477058","placeName":"Providence","searchUrl":"http:\/\/twitter.com\/search?q=%23DolanTwinsNewVideo","trendMapped":"dolan+twins+new+video","trendVolume":120117},{"stateName":"RI","trendName":"#GameofThrones","placeID":"2477058","placeName":"Providence","searchUrl":"http:\/\/twitter.com\/search?q=%23GameofThrones","trendMapped":"gameof+thrones","trendVolume":517242},{"stateName":"RI","trendName":"#LEMONADE","placeID":"2477058","placeName":"Providence","searchUrl":"http:\/\/twitter.com\/search?q=%23LEMONADE","trendMapped":"lemonade","trendVolume":357948},{"stateName":"RI","trendName":"#gameofthrones","placeID":"2477058","placeName":"Providence","searchUrl":"http:\/\/twitter.com\/search?q=%23gameofthrones","trendMapped":"gameofthrones","trendVolume":788109},{"stateName":"RI","trendName":"Beyonc\u00e9","placeID":"2477058","placeName":"Providence","searchUrl":"http:\/\/twitter.com\/search?q=Beyonc%C3%A9","trendMapped":"beyonc\u00e9","trendVolume":783707},{"stateName":"RI","trendName":"Cristiano","placeID":"2477058","placeName":"Providence","searchUrl":"http:\/\/twitter.com\/search?q=Cristiano","trendMapped":"cristiano","trendVolume":167467},{"stateName":"RI","trendName":"Lemonade","placeID":"2477058","placeName":"Providence","searchUrl":"http:\/\/twitter.com\/search?q=Lemonade","trendMapped":"lemonade","trendVolume":727465},{"stateName":"RI","trendName":"Trump","placeID":"2477058","placeName":"Providence","searchUrl":"http:\/\/twitter.com\/search?q=Trump","trendMapped":"trump","trendVolume":746740},{"stateName":"TN","trendName":"#GameofThrones","placeID":"2457170","placeName":"Nashville","searchUrl":"http:\/\/twitter.com\/search?q=%23GameofThrones","trendMapped":"gameof+thrones","trendVolume":515491},{"stateName":"TN","trendName":"#LEMONADE","placeID":"2457170","placeName":"Nashville","searchUrl":"http:\/\/twitter.com\/search?q=%23LEMONADE","trendMapped":"lemonade","trendVolume":362745},{"stateName":"TN","trendName":"#LHHATL","placeID":"2457170","placeName":"Nashville","searchUrl":"http:\/\/twitter.com\/search?q=%23LHHATL","trendMapped":"lhhatl","trendVolume":54368},{"stateName":"TN","trendName":"#ProjectHomeHarryDay","placeID":"2457170","placeName":"Nashville","searchUrl":"http:\/\/twitter.com\/search?q=%23ProjectHomeHarryDay","trendMapped":"project+home+harry+day","trendVolume":636444},{"stateName":"TN","trendName":"Beyonce","placeID":"2449323","placeName":"Memphis","searchUrl":"http:\/\/twitter.com\/search?q=Beyonce","trendMapped":"beyonce","trendVolume":828025},{"stateName":"TN","trendName":"Beyonc\u00e9","placeID":"2457170","placeName":"Nashville","searchUrl":"http:\/\/twitter.com\/search?q=Beyonc%C3%A9","trendMapped":"beyonc\u00e9","trendVolume":783707},{"stateName":"TN","trendName":"Drake","placeID":"2449323","placeName":"Memphis","searchUrl":"http:\/\/twitter.com\/search?q=Drake","trendMapped":"drake","trendVolume":314892},{"stateName":"TN","trendName":"Lemonade","placeID":"2457170","placeName":"Nashville","searchUrl":"http:\/\/twitter.com\/search?q=Lemonade","trendMapped":"lemonade","trendVolume":616052},{"stateName":"TN","trendName":"Westbrook","placeID":"2457170","placeName":"Nashville","searchUrl":"http:\/\/twitter.com\/search?q=Westbrook","trendMapped":"westbrook","trendVolume":148843},{"stateName":"TX","trendName":"#DolanTwinsNewVideo","placeID":"2487796","placeName":"San Antonio","searchUrl":"http:\/\/twitter.com\/search?q=%23DolanTwinsNewVideo","trendMapped":"dolan+twins+new+video","trendVolume":121073},{"stateName":"TX","trendName":"#GameofThrones","placeID":"2388929","placeName":"Dallas-Ft. Worth","searchUrl":"http:\/\/twitter.com\/search?q=%23GameofThrones","trendMapped":"gameof+thrones","trendVolume":515491},{"stateName":"TX","trendName":"#LEMONADE","placeID":"2357536","placeName":"Austin","searchUrl":"http:\/\/twitter.com\/search?q=%23LEMONADE","trendMapped":"lemonade","trendVolume":344698},{"stateName":"TX","trendName":"#LHHATL","placeID":"2388929","placeName":"Dallas-Ft. Worth","searchUrl":"http:\/\/twitter.com\/search?q=%23LHHATL","trendMapped":"lhhatl","trendVolume":51368},{"stateName":"TX","trendName":"#ProjectHomeHarryDay","placeID":"2397816","placeName":"El Paso","searchUrl":"http:\/\/twitter.com\/search?q=%23ProjectHomeHarryDay","trendMapped":"project+home+harry+day","trendVolume":702017},{"stateName":"TX","trendName":"Beyonce","placeID":"2397816","placeName":"El Paso","searchUrl":"http:\/\/twitter.com\/search?q=Beyonce","trendMapped":"beyonce","trendVolume":822000},{"stateName":"TX","trendName":"Beyonc\u00e9","placeID":"2487796","placeName":"San Antonio","searchUrl":"http:\/\/twitter.com\/search?q=Beyonc%C3%A9","trendMapped":"beyonc\u00e9","trendVolume":833326},{"stateName":"TX","trendName":"Cristiano","placeID":"2487796","placeName":"San Antonio","searchUrl":"http:\/\/twitter.com\/search?q=Cristiano","trendMapped":"cristiano","trendVolume":161672},{"stateName":"TX","trendName":"Lemonade","placeID":"2487796","placeName":"San Antonio","searchUrl":"http:\/\/twitter.com\/search?q=Lemonade","trendMapped":"lemonade","trendVolume":681923},{"stateName":"TX","trendName":"Westbrook","placeID":"2424766","placeName":"Houston","searchUrl":"http:\/\/twitter.com\/search?q=Westbrook","trendMapped":"westbrook","trendVolume":156660},{"stateName":"UT","trendName":"#DolanTwinsNewVideo","placeID":"2487610","placeName":"Salt Lake City","searchUrl":"http:\/\/twitter.com\/search?q=%23DolanTwinsNewVideo","trendMapped":"dolan+twins+new+video","trendVolume":121173},{"stateName":"UT","trendName":"#GameofThrones","placeID":"2487610","placeName":"Salt Lake City","searchUrl":"http:\/\/twitter.com\/search?q=%23GameofThrones","trendMapped":"gameof+thrones","trendVolume":888199},{"stateName":"UT","trendName":"#LEMONADE","placeID":"2487610","placeName":"Salt Lake City","searchUrl":"http:\/\/twitter.com\/search?q=%23LEMONADE","trendMapped":"lemonade","trendVolume":345573},{"stateName":"UT","trendName":"Beyonc\u00e9","placeID":"2487610","placeName":"Salt Lake City","searchUrl":"http:\/\/twitter.com\/search?q=Beyonc%C3%A9","trendMapped":"beyonc\u00e9","trendVolume":833326},{"stateName":"UT","trendName":"Lemonade","placeID":"2487610","placeName":"Salt Lake City","searchUrl":"http:\/\/twitter.com\/search?q=Lemonade","trendMapped":"lemonade","trendVolume":643941},{"stateName":"VA","trendName":"#DolanTwinsNewVideo","placeID":"2512636","placeName":"Virginia Beach","searchUrl":"http:\/\/twitter.com\/search?q=%23DolanTwinsNewVideo","trendMapped":"dolan+twins+new+video","trendVolume":119973},{"stateName":"VA","trendName":"#GameofThrones","placeID":"2460389","placeName":"Norfolk","searchUrl":"http:\/\/twitter.com\/search?q=%23GameofThrones","trendMapped":"gameof+thrones","trendVolume":888199},{"stateName":"VA","trendName":"#LHHATL","placeID":"2512636","placeName":"Virginia Beach","searchUrl":"http:\/\/twitter.com\/search?q=%23LHHATL","trendMapped":"lhhatl","trendVolume":51628},{"stateName":"VA","trendName":"#ProjectHomeHarryDay","placeID":"2512636","placeName":"Virginia Beach","searchUrl":"http:\/\/twitter.com\/search?q=%23ProjectHomeHarryDay","trendMapped":"project+home+harry+day","trendVolume":615131},{"stateName":"VA","trendName":"Beyonc\u00e9","placeID":"2480894","placeName":"Richmond","searchUrl":"http:\/\/twitter.com\/search?q=Beyonc%C3%A9","trendMapped":"beyonc\u00e9","trendVolume":838586},{"stateName":"VA","trendName":"Lemonade","placeID":"2460389","placeName":"Norfolk","searchUrl":"http:\/\/twitter.com\/search?q=Lemonade","trendMapped":"lemonade","trendVolume":531363},{"stateName":"VA","trendName":"Westbrook","placeID":"2512636","placeName":"Virginia Beach","searchUrl":"http:\/\/twitter.com\/search?q=Westbrook","trendMapped":"westbrook","trendVolume":155122},{"stateName":"WA","trendName":"#DolanTwinsNewVideo","placeID":"2490383","placeName":"Seattle","searchUrl":"http:\/\/twitter.com\/search?q=%23DolanTwinsNewVideo","trendMapped":"dolan+twins+new+video","trendVolume":120231},{"stateName":"WA","trendName":"#GameofThrones","placeID":"2490383","placeName":"Seattle","searchUrl":"http:\/\/twitter.com\/search?q=%23GameofThrones","trendMapped":"gameof+thrones","trendVolume":517242},{"stateName":"WA","trendName":"#LEMONADE","placeID":"2490383","placeName":"Seattle","searchUrl":"http:\/\/twitter.com\/search?q=%23LEMONADE","trendMapped":"lemonade","trendVolume":338802},{"stateName":"WA","trendName":"#ProjectHomeHarryDay","placeID":"2490383","placeName":"Seattle","searchUrl":"http:\/\/twitter.com\/search?q=%23ProjectHomeHarryDay","trendMapped":"project+home+harry+day","trendVolume":417972},{"stateName":"WA","trendName":"Beyonc\u00e9","placeID":"2490383","placeName":"Seattle","searchUrl":"http:\/\/twitter.com\/search?q=Beyonc%C3%A9","trendMapped":"beyonc\u00e9","trendVolume":766993},{"stateName":"WA","trendName":"Blues","placeID":"2490383","placeName":"Seattle","searchUrl":"http:\/\/twitter.com\/search?q=Blues","trendMapped":"blues","trendVolume":150583},{"stateName":"WA","trendName":"Cristiano","placeID":"2490383","placeName":"Seattle","searchUrl":"http:\/\/twitter.com\/search?q=Cristiano","trendMapped":"cristiano","trendVolume":164986},{"stateName":"WA","trendName":"Westbrook","placeID":"2490383","placeName":"Seattle","searchUrl":"http:\/\/twitter.com\/search?q=Westbrook","trendMapped":"westbrook","trendVolume":156660},{"stateName":"WI","trendName":"#GameofThrones","placeID":"2451822","placeName":"Milwaukee","searchUrl":"http:\/\/twitter.com\/search?q=%23GameofThrones","trendMapped":"gameof+thrones","trendVolume":888199},{"stateName":"WI","trendName":"#LEMONADE","placeID":"2451822","placeName":"Milwaukee","searchUrl":"http:\/\/twitter.com\/search?q=%23LEMONADE","trendMapped":"lemonade","trendVolume":357948},{"stateName":"WI","trendName":"#ProjectHomeHarryDay","placeID":"2451822","placeName":"Milwaukee","searchUrl":"http:\/\/twitter.com\/search?q=%23ProjectHomeHarryDay","trendMapped":"project+home+harry+day","trendVolume":335680},{"stateName":"WI","trendName":"Lemonade","placeID":"2451822","placeName":"Milwaukee","searchUrl":"http:\/\/twitter.com\/search?q=Lemonade","trendMapped":"lemonade","trendVolume":629092},{"stateName":"WI","trendName":"Westbrook","placeID":"2451822","placeName":"Milwaukee","searchUrl":"http:\/\/twitter.com\/search?q=Westbrook","trendMapped":"westbrook","trendVolume":156660},{"stateName":"XX","trendName":"#DolanTwinsNewVideo","placeID":"23424977","placeName":"United States","searchUrl":"http:\/\/twitter.com\/search?q=%23DolanTwinsNewVideo","trendMapped":"dolan+twins+new+video","trendVolume":120231},{"stateName":"XX","trendName":"#LHHATL","placeID":"23424977","placeName":"United States","searchUrl":"http:\/\/twitter.com\/search?q=%23LHHATL","trendMapped":"lhhatl","trendVolume":54368},{"stateName":"XX","trendName":"#ProjectHomeHarryDay","placeID":"23424977","placeName":"United States","searchUrl":"http:\/\/twitter.com\/search?q=%23ProjectHomeHarryDay","trendMapped":"project+home+harry+day","trendVolume":473386},{"stateName":"XX","trendName":"Beyonc\u00e9","placeID":"23424977","placeName":"United States","searchUrl":"http:\/\/twitter.com\/search?q=Beyonc%C3%A9","trendMapped":"beyonc\u00e9","trendVolume":787837},{"stateName":"XX","trendName":"Blues","placeID":"23424977","placeName":"United States","searchUrl":"http:\/\/twitter.com\/search?q=Blues","trendMapped":"blues","trendVolume":136354},{"stateName":"XX","trendName":"Cristiano","placeID":"23424977","placeName":"United States","searchUrl":"http:\/\/twitter.com\/search?q=Cristiano","trendMapped":"cristiano","trendVolume":147436},{"stateName":"XX","trendName":"Hugo","placeID":"23424977","placeName":"United States","searchUrl":"http:\/\/twitter.com\/search?q=Hugo","trendMapped":"hugo","trendVolume":41175},{"stateName":"XX","trendName":"Westbrook","placeID":"23424977","placeName":"United States","searchUrl":"http:\/\/twitter.com\/search?q=Westbrook","trendMapped":"westbrook","trendVolume":157986}]