[{"stateName":"AL","trendName":"#NYPrimary","placeID":"2364559","placeName":"Birmingham","searchUrl":"http:\/\/twitter.com\/search?q=%23NYPrimary","trendMapped":"ny+primary","trendVolume":482003},{"stateName":"AL","trendName":"Harriet Tubman","placeID":"2364559","placeName":"Birmingham","searchUrl":"http:\/\/twitter.com\/search?q=%22Harriet+Tubman%22","trendMapped":"Harriet+Tubman","trendVolume":402499},{"stateName":"AL","trendName":"House","placeID":"2364559","placeName":"Birmingham","searchUrl":"http:\/\/twitter.com\/search?q=House","trendMapped":"house","trendVolume":537722},{"stateName":"AZ","trendName":"#HairMusicVideo","placeID":"2508428","placeName":"Tucson","searchUrl":"http:\/\/twitter.com\/search?q=%23HairMusicVideo","trendMapped":"hair+music+video","trendVolume":278093},{"stateName":"AZ","trendName":"#NYPrimary","placeID":"2471390","placeName":"Phoenix","searchUrl":"http:\/\/twitter.com\/search?q=%23NYPrimary","trendMapped":"ny+primary","trendVolume":483979},{"stateName":"AZ","trendName":"#PrimaryDay","placeID":"2471390","placeName":"Phoenix","searchUrl":"http:\/\/twitter.com\/search?q=%23PrimaryDay","trendMapped":"primary+day","trendVolume":206977},{"stateName":"AZ","trendName":"#TheFlash","placeID":"2449808","placeName":"Mesa","searchUrl":"http:\/\/twitter.com\/search?q=%23TheFlash","trendMapped":"the+flash","trendVolume":31374},{"stateName":"AZ","trendName":"#VoiceSaveEmily","placeID":"2508428","placeName":"Tucson","searchUrl":"http:\/\/twitter.com\/search?q=%23VoiceSaveEmily","trendMapped":"voice+save+emily","trendVolume":246716},{"stateName":"AZ","trendName":"#WhenIWas","placeID":"2508428","placeName":"Tucson","searchUrl":"http:\/\/twitter.com\/search?q=%23WhenIWas","trendMapped":"when+i+was","trendVolume":57357},{"stateName":"AZ","trendName":"Conor McGregor","placeID":"2508428","placeName":"Tucson","searchUrl":"http:\/\/twitter.com\/search?q=%22Conor+McGregor%22","trendMapped":"Conor+McGregor","trendVolume":91967},{"stateName":"AZ","trendName":"Harriet Tubman","placeID":"2508428","placeName":"Tucson","searchUrl":"http:\/\/twitter.com\/search?q=%22Harriet+Tubman%22","trendMapped":"Harriet+Tubman","trendVolume":444560},{"stateName":"CA","trendName":"#HairMusicVideo","placeID":"2488042","placeName":"San Jose","searchUrl":"http:\/\/twitter.com\/search?q=%23HairMusicVideo","trendMapped":"hair+music+video","trendVolume":280003},{"stateName":"CA","trendName":"#HeartsOutDLSU","placeID":"2442047","placeName":"Los Angeles","searchUrl":"http:\/\/twitter.com\/search?q=%23HeartsOutDLSU","trendMapped":"hearts+out+dlsu","trendVolume":96937},{"stateName":"CA","trendName":"#NYPrimary","placeID":"2487956","placeName":"San Francisco","searchUrl":"http:\/\/twitter.com\/search?q=%23NYPrimary","trendMapped":"ny+primary","trendVolume":480635},{"stateName":"CA","trendName":"#PrimaryDay","placeID":"2487956","placeName":"San Francisco","searchUrl":"http:\/\/twitter.com\/search?q=%23PrimaryDay","trendMapped":"primary+day","trendVolume":249695},{"stateName":"CA","trendName":"#TheFlash","placeID":"2442047","placeName":"Los Angeles","searchUrl":"http:\/\/twitter.com\/search?q=%23TheFlash","trendMapped":"the+flash","trendVolume":40754},{"stateName":"CA","trendName":"#VoiceResults","placeID":"2442047","placeName":"Los Angeles","searchUrl":"http:\/\/twitter.com\/search?q=%23VoiceResults","trendMapped":"voice+results","trendVolume":40071},{"stateName":"CA","trendName":"#VoiceSaveEmily","placeID":"2488042","placeName":"San Jose","searchUrl":"http:\/\/twitter.com\/search?q=%23VoiceSaveEmily","trendMapped":"voice+save+emily","trendVolume":252214},{"stateName":"CA","trendName":"Conor McGregor","placeID":"2441472","placeName":"Long Beach","searchUrl":"http:\/\/twitter.com\/search?q=%22Conor+McGregor%22","trendMapped":"Conor+McGregor","trendVolume":92097},{"stateName":"CA","trendName":"Fidel Castro","placeID":"2407517","placeName":"Fresno","searchUrl":"http:\/\/twitter.com\/search?q=%22Fidel+Castro%22","trendMapped":"Fidel+Castro","trendVolume":22955},{"stateName":"CA","trendName":"Harriet Tubman","placeID":"2488042","placeName":"San Jose","searchUrl":"http:\/\/twitter.com\/search?q=%22Harriet+Tubman%22","trendMapped":"Harriet+Tubman","trendVolume":454771},{"stateName":"CO","trendName":"#HairMusicVideo","placeID":"2391279","placeName":"Denver","searchUrl":"http:\/\/twitter.com\/search?q=%23HairMusicVideo","trendMapped":"hair+music+video","trendVolume":278093},{"stateName":"CO","trendName":"#PrimaryDay","placeID":"2391279","placeName":"Denver","searchUrl":"http:\/\/twitter.com\/search?q=%23PrimaryDay","trendMapped":"primary+day","trendVolume":256788},{"stateName":"CO","trendName":"#VoiceSaveEmily","placeID":"2391279","placeName":"Denver","searchUrl":"http:\/\/twitter.com\/search?q=%23VoiceSaveEmily","trendMapped":"voice+save+emily","trendVolume":246726},{"stateName":"CO","trendName":"Harriet Tubman","placeID":"2391279","placeName":"Denver","searchUrl":"http:\/\/twitter.com\/search?q=%22Harriet+Tubman%22","trendMapped":"Harriet+Tubman","trendVolume":459582},{"stateName":"CT","trendName":"#HairMusicVideo","placeID":"2458410","placeName":"New Haven","searchUrl":"http:\/\/twitter.com\/search?q=%23HairMusicVideo","trendMapped":"hair+music+video","trendVolume":278093},{"stateName":"CT","trendName":"#NYPrimary","placeID":"2458410","placeName":"New Haven","searchUrl":"http:\/\/twitter.com\/search?q=%23NYPrimary","trendMapped":"ny+primary","trendVolume":474376},{"stateName":"DC","trendName":"#HairMusicVideo","placeID":"2514815","placeName":"Washington","searchUrl":"http:\/\/twitter.com\/search?q=%23HairMusicVideo","trendMapped":"hair+music+video","trendVolume":221149},{"stateName":"DC","trendName":"#NYPrimary","placeID":"2514815","placeName":"Washington","searchUrl":"http:\/\/twitter.com\/search?q=%23NYPrimary","trendMapped":"ny+primary","trendVolume":483979},{"stateName":"DC","trendName":"Harriet Tubman","placeID":"2514815","placeName":"Washington","searchUrl":"http:\/\/twitter.com\/search?q=%22Harriet+Tubman%22","trendMapped":"Harriet+Tubman","trendVolume":419937},{"stateName":"FL","trendName":"#HairMusicVideo","placeID":"2503863","placeName":"Tampa","searchUrl":"http:\/\/twitter.com\/search?q=%23HairMusicVideo","trendMapped":"hair+music+video","trendVolume":278769},{"stateName":"FL","trendName":"#LHHATL","placeID":"2503713","placeName":"Tallahassee","searchUrl":"http:\/\/twitter.com\/search?q=%23LHHATL","trendMapped":"lhhatl","trendVolume":46409},{"stateName":"FL","trendName":"#NYPrimary","placeID":"2503863","placeName":"Tampa","searchUrl":"http:\/\/twitter.com\/search?q=%23NYPrimary","trendMapped":"ny+primary","trendVolume":482601},{"stateName":"FL","trendName":"#PrimaryDay","placeID":"2428344","placeName":"Jacksonville","searchUrl":"http:\/\/twitter.com\/search?q=%23PrimaryDay","trendMapped":"primary+day","trendVolume":198977},{"stateName":"FL","trendName":"#VoiceSaveEmily","placeID":"2503863","placeName":"Tampa","searchUrl":"http:\/\/twitter.com\/search?q=%23VoiceSaveEmily","trendMapped":"voice+save+emily","trendVolume":252214},{"stateName":"FL","trendName":"America","placeID":"2503713","placeName":"Tallahassee","searchUrl":"http:\/\/twitter.com\/search?q=America","trendMapped":"america","trendVolume":373806},{"stateName":"FL","trendName":"Ecuador","placeID":"2450022","placeName":"Miami","searchUrl":"http:\/\/twitter.com\/search?q=Ecuador","trendMapped":"ecuador","trendVolume":413877},{"stateName":"FL","trendName":"Happy 420","placeID":"2450022","placeName":"Miami","searchUrl":"http:\/\/twitter.com\/search?q=%22Happy+420%22","trendMapped":"Happy+420","trendVolume":188354},{"stateName":"FL","trendName":"Harriet Tubman","placeID":"2503863","placeName":"Tampa","searchUrl":"http:\/\/twitter.com\/search?q=%22Harriet+Tubman%22","trendMapped":"Harriet+Tubman","trendVolume":454771},{"stateName":"FL","trendName":"Needed Me","placeID":"2450022","placeName":"Miami","searchUrl":"http:\/\/twitter.com\/search?q=%22Needed+Me%22","trendMapped":"Needed+Me","trendVolume":46789},{"stateName":"FL","trendName":"New York","placeID":"2503713","placeName":"Tallahassee","searchUrl":"http:\/\/twitter.com\/search?q=%22New+York%22","trendMapped":"New+York","trendVolume":612891},{"stateName":"GA","trendName":"#HairMusicVideo","placeID":"2357024","placeName":"Atlanta","searchUrl":"http:\/\/twitter.com\/search?q=%23HairMusicVideo","trendMapped":"hair+music+video","trendVolume":219772},{"stateName":"GA","trendName":"#NYPrimary","placeID":"2357024","placeName":"Atlanta","searchUrl":"http:\/\/twitter.com\/search?q=%23NYPrimary","trendMapped":"ny+primary","trendVolume":480375},{"stateName":"GA","trendName":"#PrimaryDay","placeID":"2357024","placeName":"Atlanta","searchUrl":"http:\/\/twitter.com\/search?q=%23PrimaryDay","trendMapped":"primary+day","trendVolume":198977},{"stateName":"GA","trendName":"Harriet Tubman","placeID":"2357024","placeName":"Atlanta","searchUrl":"http:\/\/twitter.com\/search?q=%22Harriet+Tubman%22","trendMapped":"Harriet+Tubman","trendVolume":302477},{"stateName":"HI","trendName":"#NYPrimary","placeID":"2423945","placeName":"Honolulu","searchUrl":"http:\/\/twitter.com\/search?q=%23NYPrimary","trendMapped":"ny+primary","trendVolume":467780},{"stateName":"HI","trendName":"America","placeID":"2423945","placeName":"Honolulu","searchUrl":"http:\/\/twitter.com\/search?q=America","trendMapped":"america","trendVolume":362451},{"stateName":"HI","trendName":"Harriet Tubman","placeID":"2423945","placeName":"Honolulu","searchUrl":"http:\/\/twitter.com\/search?q=%22Harriet+Tubman%22","trendMapped":"Harriet+Tubman","trendVolume":459582},{"stateName":"HI","trendName":"Trump","placeID":"2423945","placeName":"Honolulu","searchUrl":"http:\/\/twitter.com\/search?q=Trump","trendMapped":"trump","trendVolume":1011800},{"stateName":"IL","trendName":"#NYPrimary","placeID":"2379574","placeName":"Chicago","searchUrl":"http:\/\/twitter.com\/search?q=%23NYPrimary","trendMapped":"ny+primary","trendVolume":479843},{"stateName":"IL","trendName":"#VoiceSaveEmily","placeID":"2379574","placeName":"Chicago","searchUrl":"http:\/\/twitter.com\/search?q=%23VoiceSaveEmily","trendMapped":"voice+save+emily","trendVolume":246717},{"stateName":"IL","trendName":"Harriet Tubman","placeID":"2379574","placeName":"Chicago","searchUrl":"http:\/\/twitter.com\/search?q=%22Harriet+Tubman%22","trendMapped":"Harriet+Tubman","trendVolume":454771},{"stateName":"IN","trendName":"#HairMusicVideo","placeID":"2427032","placeName":"Indianapolis","searchUrl":"http:\/\/twitter.com\/search?q=%23HairMusicVideo","trendMapped":"hair+music+video","trendVolume":262198},{"stateName":"IN","trendName":"#NYPrimary","placeID":"2427032","placeName":"Indianapolis","searchUrl":"http:\/\/twitter.com\/search?q=%23NYPrimary","trendMapped":"ny+primary","trendVolume":480629},{"stateName":"IN","trendName":"Harriet Tubman","placeID":"2427032","placeName":"Indianapolis","searchUrl":"http:\/\/twitter.com\/search?q=%22Harriet+Tubman%22","trendMapped":"Harriet+Tubman","trendVolume":454771},{"stateName":"KY","trendName":"#HairMusicVideo","placeID":"2442327","placeName":"Louisville","searchUrl":"http:\/\/twitter.com\/search?q=%23HairMusicVideo","trendMapped":"hair+music+video","trendVolume":278769},{"stateName":"KY","trendName":"#NYPrimary","placeID":"2442327","placeName":"Louisville","searchUrl":"http:\/\/twitter.com\/search?q=%23NYPrimary","trendMapped":"ny+primary","trendVolume":405977},{"stateName":"KY","trendName":"Harriet Tubman","placeID":"2442327","placeName":"Louisville","searchUrl":"http:\/\/twitter.com\/search?q=%22Harriet+Tubman%22","trendMapped":"Harriet+Tubman","trendVolume":439307},{"stateName":"KY","trendName":"Sanders","placeID":"2442327","placeName":"Louisville","searchUrl":"http:\/\/twitter.com\/search?q=Sanders","trendMapped":"sanders","trendVolume":294559},{"stateName":"LA","trendName":"#NYPrimary","placeID":"2458833","placeName":"New Orleans","searchUrl":"http:\/\/twitter.com\/search?q=%23NYPrimary","trendMapped":"ny+primary","trendVolume":480375},{"stateName":"LA","trendName":"Harriet Tubman","placeID":"2458833","placeName":"New Orleans","searchUrl":"http:\/\/twitter.com\/search?q=%22Harriet+Tubman%22","trendMapped":"Harriet+Tubman","trendVolume":444560},{"stateName":"LA","trendName":"House","placeID":"2359991","placeName":"Baton Rouge","searchUrl":"http:\/\/twitter.com\/search?q=House","trendMapped":"house","trendVolume":527763},{"stateName":"MA","trendName":"#HairMusicVideo","placeID":"2367105","placeName":"Boston","searchUrl":"http:\/\/twitter.com\/search?q=%23HairMusicVideo","trendMapped":"hair+music+video","trendVolume":227882},{"stateName":"MA","trendName":"#NYPrimary","placeID":"2367105","placeName":"Boston","searchUrl":"http:\/\/twitter.com\/search?q=%23NYPrimary","trendMapped":"ny+primary","trendVolume":479233},{"stateName":"MA","trendName":"#VoiceSaveEmily","placeID":"2367105","placeName":"Boston","searchUrl":"http:\/\/twitter.com\/search?q=%23VoiceSaveEmily","trendMapped":"voice+save+emily","trendVolume":245408},{"stateName":"MA","trendName":"Harriet Tubman","placeID":"2367105","placeName":"Boston","searchUrl":"http:\/\/twitter.com\/search?q=%22Harriet+Tubman%22","trendMapped":"Harriet+Tubman","trendVolume":419937},{"stateName":"MD","trendName":"#HairMusicVideo","placeID":"2358820","placeName":"Baltimore","searchUrl":"http:\/\/twitter.com\/search?q=%23HairMusicVideo","trendMapped":"hair+music+video","trendVolume":276066},{"stateName":"MD","trendName":"#NYPrimary","placeID":"2358820","placeName":"Baltimore","searchUrl":"http:\/\/twitter.com\/search?q=%23NYPrimary","trendMapped":"ny+primary","trendVolume":477593},{"stateName":"MD","trendName":"Harriet Tubman","placeID":"2358820","placeName":"Baltimore","searchUrl":"http:\/\/twitter.com\/search?q=%22Harriet+Tubman%22","trendMapped":"Harriet+Tubman","trendVolume":402499},{"stateName":"MI","trendName":"#NYPrimary","placeID":"2391585","placeName":"Detroit","searchUrl":"http:\/\/twitter.com\/search?q=%23NYPrimary","trendMapped":"ny+primary","trendVolume":479410},{"stateName":"MI","trendName":"Conor McGregor","placeID":"2391585","placeName":"Detroit","searchUrl":"http:\/\/twitter.com\/search?q=%22Conor+McGregor%22","trendMapped":"Conor+McGregor","trendVolume":65451},{"stateName":"MI","trendName":"Harriet Tubman","placeID":"2391585","placeName":"Detroit","searchUrl":"http:\/\/twitter.com\/search?q=%22Harriet+Tubman%22","trendMapped":"Harriet+Tubman","trendVolume":454771},{"stateName":"MI","trendName":"Hillary","placeID":"2391585","placeName":"Detroit","searchUrl":"http:\/\/twitter.com\/search?q=Hillary","trendMapped":"hillary","trendVolume":281765},{"stateName":"MN","trendName":"#HairMusicVideo","placeID":"2452078","placeName":"Minneapolis","searchUrl":"http:\/\/twitter.com\/search?q=%23HairMusicVideo","trendMapped":"hair+music+video","trendVolume":276512},{"stateName":"MN","trendName":"#NYPrimary","placeID":"2452078","placeName":"Minneapolis","searchUrl":"http:\/\/twitter.com\/search?q=%23NYPrimary","trendMapped":"ny+primary","trendVolume":482003},{"stateName":"MN","trendName":"#VoiceSaveEmily","placeID":"2452078","placeName":"Minneapolis","searchUrl":"http:\/\/twitter.com\/search?q=%23VoiceSaveEmily","trendMapped":"voice+save+emily","trendVolume":252214},{"stateName":"MN","trendName":"Harriet Tubman","placeID":"2452078","placeName":"Minneapolis","searchUrl":"http:\/\/twitter.com\/search?q=%22Harriet+Tubman%22","trendMapped":"Harriet+Tubman","trendVolume":361332},{"stateName":"MO","trendName":"#HairMusicVideo","placeID":"2486982","placeName":"St. Louis","searchUrl":"http:\/\/twitter.com\/search?q=%23HairMusicVideo","trendMapped":"hair+music+video","trendVolume":276512},{"stateName":"MO","trendName":"#NYPrimary","placeID":"2430683","placeName":"Kansas City","searchUrl":"http:\/\/twitter.com\/search?q=%23NYPrimary","trendMapped":"ny+primary","trendVolume":483979},{"stateName":"MO","trendName":"#PrimaryDay","placeID":"2486982","placeName":"St. Louis","searchUrl":"http:\/\/twitter.com\/search?q=%23PrimaryDay","trendMapped":"primary+day","trendVolume":240648},{"stateName":"MO","trendName":"#VoiceSaveEmily","placeID":"2486982","placeName":"St. Louis","searchUrl":"http:\/\/twitter.com\/search?q=%23VoiceSaveEmily","trendMapped":"voice+save+emily","trendVolume":246727},{"stateName":"MO","trendName":"Conor McGregor","placeID":"2486982","placeName":"St. Louis","searchUrl":"http:\/\/twitter.com\/search?q=%22Conor+McGregor%22","trendMapped":"Conor+McGregor","trendVolume":91967},{"stateName":"MO","trendName":"Harriet Tubman","placeID":"2486982","placeName":"St. Louis","searchUrl":"http:\/\/twitter.com\/search?q=%22Harriet+Tubman%22","trendMapped":"Harriet+Tubman","trendVolume":426760},{"stateName":"MS","trendName":"#NYPrimary","placeID":"2428184","placeName":"Jackson","searchUrl":"http:\/\/twitter.com\/search?q=%23NYPrimary","trendMapped":"ny+primary","trendVolume":477593},{"stateName":"MS","trendName":"Fidel Castro","placeID":"2428184","placeName":"Jackson","searchUrl":"http:\/\/twitter.com\/search?q=%22Fidel+Castro%22","trendMapped":"Fidel+Castro","trendVolume":23716},{"stateName":"MS","trendName":"Trump","placeID":"2428184","placeName":"Jackson","searchUrl":"http:\/\/twitter.com\/search?q=Trump","trendMapped":"trump","trendVolume":1020583},{"stateName":"NC","trendName":"#HairMusicVideo","placeID":"2478307","placeName":"Raleigh","searchUrl":"http:\/\/twitter.com\/search?q=%23HairMusicVideo","trendMapped":"hair+music+video","trendVolume":278769},{"stateName":"NC","trendName":"#NYPrimary","placeID":"2478307","placeName":"Raleigh","searchUrl":"http:\/\/twitter.com\/search?q=%23NYPrimary","trendMapped":"ny+primary","trendVolume":479843},{"stateName":"NC","trendName":"#PrimaryDay","placeID":"2478307","placeName":"Raleigh","searchUrl":"http:\/\/twitter.com\/search?q=%23PrimaryDay","trendMapped":"primary+day","trendVolume":256788},{"stateName":"NC","trendName":"#VoiceSaveEmily","placeID":"2478307","placeName":"Raleigh","searchUrl":"http:\/\/twitter.com\/search?q=%23VoiceSaveEmily","trendMapped":"voice+save+emily","trendVolume":245302},{"stateName":"NC","trendName":"Cruz","placeID":"2478307","placeName":"Raleigh","searchUrl":"http:\/\/twitter.com\/search?q=Cruz","trendMapped":"cruz","trendVolume":377900},{"stateName":"NC","trendName":"Harriet Tubman","placeID":"2478307","placeName":"Raleigh","searchUrl":"http:\/\/twitter.com\/search?q=%22Harriet+Tubman%22","trendMapped":"Harriet+Tubman","trendVolume":426760},{"stateName":"NC","trendName":"Hillary","placeID":"2414469","placeName":"Greensboro","searchUrl":"http:\/\/twitter.com\/search?q=Hillary","trendMapped":"hillary","trendVolume":430652},{"stateName":"NE","trendName":"#NYPrimary","placeID":"2465512","placeName":"Omaha","searchUrl":"http:\/\/twitter.com\/search?q=%23NYPrimary","trendMapped":"ny+primary","trendVolume":424410},{"stateName":"NE","trendName":"#VoiceSaveEmily","placeID":"2465512","placeName":"Omaha","searchUrl":"http:\/\/twitter.com\/search?q=%23VoiceSaveEmily","trendMapped":"voice+save+emily","trendVolume":246685},{"stateName":"NE","trendName":"Harriet Tubman","placeID":"2465512","placeName":"Omaha","searchUrl":"http:\/\/twitter.com\/search?q=%22Harriet+Tubman%22","trendMapped":"Harriet+Tubman","trendVolume":449877},{"stateName":"NE","trendName":"Hillary Clinton","placeID":"2465512","placeName":"Omaha","searchUrl":"http:\/\/twitter.com\/search?q=%22Hillary+Clinton%22","trendMapped":"Hillary+Clinton","trendVolume":161789},{"stateName":"NE","trendName":"Sanders","placeID":"2465512","placeName":"Omaha","searchUrl":"http:\/\/twitter.com\/search?q=Sanders","trendMapped":"sanders","trendVolume":295405},{"stateName":"NM","trendName":"#HairMusicVideo","placeID":"2352824","placeName":"Albuquerque","searchUrl":"http:\/\/twitter.com\/search?q=%23HairMusicVideo","trendMapped":"hair+music+video","trendVolume":278769},{"stateName":"NM","trendName":"#VoiceSaveEmily","placeID":"2352824","placeName":"Albuquerque","searchUrl":"http:\/\/twitter.com\/search?q=%23VoiceSaveEmily","trendMapped":"voice+save+emily","trendVolume":246716},{"stateName":"NM","trendName":"Harriet Tubman","placeID":"2352824","placeName":"Albuquerque","searchUrl":"http:\/\/twitter.com\/search?q=%22Harriet+Tubman%22","trendMapped":"Harriet+Tubman","trendVolume":459582},{"stateName":"NV","trendName":"#NYPrimary","placeID":"2436704","placeName":"Las Vegas","searchUrl":"http:\/\/twitter.com\/search?q=%23NYPrimary","trendMapped":"ny+primary","trendVolume":474371},{"stateName":"NV","trendName":"#PrimaryDay","placeID":"2436704","placeName":"Las Vegas","searchUrl":"http:\/\/twitter.com\/search?q=%23PrimaryDay","trendMapped":"primary+day","trendVolume":206977},{"stateName":"NV","trendName":"Harriet Tubman","placeID":"2436704","placeName":"Las Vegas","searchUrl":"http:\/\/twitter.com\/search?q=%22Harriet+Tubman%22","trendMapped":"Harriet+Tubman","trendVolume":419937},{"stateName":"NY","trendName":"#HairMusicVideo","placeID":"2459115","placeName":"New York","searchUrl":"http:\/\/twitter.com\/search?q=%23HairMusicVideo","trendMapped":"hair+music+video","trendVolume":276512},{"stateName":"NY","trendName":"#NYPrimary","placeID":"2459115","placeName":"New York","searchUrl":"http:\/\/twitter.com\/search?q=%23NYPrimary","trendMapped":"ny+primary","trendVolume":474376},{"stateName":"NY","trendName":"#VoiceSaveEmily","placeID":"2459115","placeName":"New York","searchUrl":"http:\/\/twitter.com\/search?q=%23VoiceSaveEmily","trendMapped":"voice+save+emily","trendVolume":246722},{"stateName":"NY","trendName":"Harriet Tubman","placeID":"2459115","placeName":"New York","searchUrl":"http:\/\/twitter.com\/search?q=%22Harriet+Tubman%22","trendMapped":"Harriet+Tubman","trendVolume":454771},{"stateName":"OH","trendName":"#HairMusicVideo","placeID":"2380358","placeName":"Cincinnati","searchUrl":"http:\/\/twitter.com\/search?q=%23HairMusicVideo","trendMapped":"hair+music+video","trendVolume":221149},{"stateName":"OH","trendName":"#NYPrimary","placeID":"2383660","placeName":"Columbus","searchUrl":"http:\/\/twitter.com\/search?q=%23NYPrimary","trendMapped":"ny+primary","trendVolume":483979},{"stateName":"OH","trendName":"#Trump2016","placeID":"2380358","placeName":"Cincinnati","searchUrl":"http:\/\/twitter.com\/search?q=%23Trump2016","trendMapped":"trump2016","trendVolume":139988},{"stateName":"OH","trendName":"#VoiceSaveEmily","placeID":"2381475","placeName":"Cleveland","searchUrl":"http:\/\/twitter.com\/search?q=%23VoiceSaveEmily","trendMapped":"voice+save+emily","trendVolume":246720},{"stateName":"OH","trendName":"Cruz","placeID":"2381475","placeName":"Cleveland","searchUrl":"http:\/\/twitter.com\/search?q=Cruz","trendMapped":"cruz","trendVolume":345606},{"stateName":"OH","trendName":"Fidel Castro","placeID":"2381475","placeName":"Cleveland","searchUrl":"http:\/\/twitter.com\/search?q=%22Fidel+Castro%22","trendMapped":"Fidel+Castro","trendVolume":23716},{"stateName":"OH","trendName":"Harriet Tubman","placeID":"2383660","placeName":"Columbus","searchUrl":"http:\/\/twitter.com\/search?q=%22Harriet+Tubman%22","trendMapped":"Harriet+Tubman","trendVolume":459582},{"stateName":"OK","trendName":"Harriet Tubman","placeID":"2464592","placeName":"Oklahoma City","searchUrl":"http:\/\/twitter.com\/search?q=%22Harriet+Tubman%22","trendMapped":"Harriet+Tubman","trendVolume":464430},{"stateName":"OK","trendName":"Hillary","placeID":"2464592","placeName":"Oklahoma City","searchUrl":"http:\/\/twitter.com\/search?q=Hillary","trendMapped":"hillary","trendVolume":427859},{"stateName":"OK","trendName":"House","placeID":"2464592","placeName":"Oklahoma City","searchUrl":"http:\/\/twitter.com\/search?q=House","trendMapped":"house","trendVolume":527037},{"stateName":"OR","trendName":"#NYPrimary","placeID":"2475687","placeName":"Portland","searchUrl":"http:\/\/twitter.com\/search?q=%23NYPrimary","trendMapped":"ny+primary","trendVolume":482003},{"stateName":"OR","trendName":"#VoiceSaveEmily","placeID":"2475687","placeName":"Portland","searchUrl":"http:\/\/twitter.com\/search?q=%23VoiceSaveEmily","trendMapped":"voice+save+emily","trendVolume":246717},{"stateName":"OR","trendName":"Harriet Tubman","placeID":"2475687","placeName":"Portland","searchUrl":"http:\/\/twitter.com\/search?q=%22Harriet+Tubman%22","trendMapped":"Harriet+Tubman","trendVolume":325008},{"stateName":"PA","trendName":"#HairMusicVideo","placeID":"2471217","placeName":"Philadelphia","searchUrl":"http:\/\/twitter.com\/search?q=%23HairMusicVideo","trendMapped":"hair+music+video","trendVolume":276066},{"stateName":"PA","trendName":"#NYPrimary","placeID":"2473224","placeName":"Pittsburgh","searchUrl":"http:\/\/twitter.com\/search?q=%23NYPrimary","trendMapped":"ny+primary","trendVolume":479233},{"stateName":"PA","trendName":"#VoiceSaveEmily","placeID":"2473224","placeName":"Pittsburgh","searchUrl":"http:\/\/twitter.com\/search?q=%23VoiceSaveEmily","trendMapped":"voice+save+emily","trendVolume":246727},{"stateName":"PA","trendName":"#VoiceSaveOwen","placeID":"2471217","placeName":"Philadelphia","searchUrl":"http:\/\/twitter.com\/search?q=%23VoiceSaveOwen","trendMapped":"voice+save+owen","trendVolume":278884},{"stateName":"PA","trendName":"Clinton","placeID":"2473224","placeName":"Pittsburgh","searchUrl":"http:\/\/twitter.com\/search?q=Clinton","trendMapped":"clinton","trendVolume":355811},{"stateName":"PA","trendName":"Harriet Tubman","placeID":"2473224","placeName":"Pittsburgh","searchUrl":"http:\/\/twitter.com\/search?q=%22Harriet+Tubman%22","trendMapped":"Harriet+Tubman","trendVolume":454771},{"stateName":"RI","trendName":"#NYPrimary","placeID":"2477058","placeName":"Providence","searchUrl":"http:\/\/twitter.com\/search?q=%23NYPrimary","trendMapped":"ny+primary","trendVolume":479843},{"stateName":"RI","trendName":"Trump","placeID":"2477058","placeName":"Providence","searchUrl":"http:\/\/twitter.com\/search?q=Trump","trendMapped":"trump","trendVolume":1003257},{"stateName":"TN","trendName":"#HairMusicVideo","placeID":"2457170","placeName":"Nashville","searchUrl":"http:\/\/twitter.com\/search?q=%23HairMusicVideo","trendMapped":"hair+music+video","trendVolume":278769},{"stateName":"TN","trendName":"#NYPrimary","placeID":"2457170","placeName":"Nashville","searchUrl":"http:\/\/twitter.com\/search?q=%23NYPrimary","trendMapped":"ny+primary","trendVolume":476058},{"stateName":"TN","trendName":"#PrimaryDay","placeID":"2457170","placeName":"Nashville","searchUrl":"http:\/\/twitter.com\/search?q=%23PrimaryDay","trendMapped":"primary+day","trendVolume":213170},{"stateName":"TN","trendName":"#VoiceSaveEmily","placeID":"2457170","placeName":"Nashville","searchUrl":"http:\/\/twitter.com\/search?q=%23VoiceSaveEmily","trendMapped":"voice+save+emily","trendVolume":245839},{"stateName":"TN","trendName":"Bernie","placeID":"2449323","placeName":"Memphis","searchUrl":"http:\/\/twitter.com\/search?q=Bernie","trendMapped":"bernie","trendVolume":418599},{"stateName":"TN","trendName":"Game 2","placeID":"2449323","placeName":"Memphis","searchUrl":"http:\/\/twitter.com\/search?q=%22Game+2%22","trendMapped":"Game+2","trendVolume":62333},{"stateName":"TN","trendName":"Harriet Tubman","placeID":"2449323","placeName":"Memphis","searchUrl":"http:\/\/twitter.com\/search?q=%22Harriet+Tubman%22","trendMapped":"Harriet+Tubman","trendVolume":325008},{"stateName":"TN","trendName":"Hillary","placeID":"2449323","placeName":"Memphis","searchUrl":"http:\/\/twitter.com\/search?q=Hillary","trendMapped":"hillary","trendVolume":426306},{"stateName":"TN","trendName":"House","placeID":"2457170","placeName":"Nashville","searchUrl":"http:\/\/twitter.com\/search?q=House","trendMapped":"house","trendVolume":523782},{"stateName":"TN","trendName":"Trump","placeID":"2449323","placeName":"Memphis","searchUrl":"http:\/\/twitter.com\/search?q=Trump","trendMapped":"trump","trendVolume":1003257},{"stateName":"TX","trendName":"#HairMusicVideo","placeID":"2424766","placeName":"Houston","searchUrl":"http:\/\/twitter.com\/search?q=%23HairMusicVideo","trendMapped":"hair+music+video","trendVolume":276512},{"stateName":"TX","trendName":"#LHHATL","placeID":"2424766","placeName":"Houston","searchUrl":"http:\/\/twitter.com\/search?q=%23LHHATL","trendMapped":"lhhatl","trendVolume":106242},{"stateName":"TX","trendName":"#NYPrimary","placeID":"2487796","placeName":"San Antonio","searchUrl":"http:\/\/twitter.com\/search?q=%23NYPrimary","trendMapped":"ny+primary","trendVolume":482601},{"stateName":"TX","trendName":"#PrimaryDay","placeID":"2357536","placeName":"Austin","searchUrl":"http:\/\/twitter.com\/search?q=%23PrimaryDay","trendMapped":"primary+day","trendVolume":203104},{"stateName":"TX","trendName":"#VoiceSaveEmily","placeID":"2487796","placeName":"San Antonio","searchUrl":"http:\/\/twitter.com\/search?q=%23VoiceSaveEmily","trendMapped":"voice+save+emily","trendVolume":246710},{"stateName":"TX","trendName":"Harriet Tubman","placeID":"2487796","placeName":"San Antonio","searchUrl":"http:\/\/twitter.com\/search?q=%22Harriet+Tubman%22","trendMapped":"Harriet+Tubman","trendVolume":459582},{"stateName":"TX","trendName":"Trump","placeID":"2397816","placeName":"El Paso","searchUrl":"http:\/\/twitter.com\/search?q=Trump","trendMapped":"trump","trendVolume":1021339},{"stateName":"UT","trendName":"#NYPrimary","placeID":"2487610","placeName":"Salt Lake City","searchUrl":"http:\/\/twitter.com\/search?q=%23NYPrimary","trendMapped":"ny+primary","trendVolume":468061},{"stateName":"UT","trendName":"Bernie","placeID":"2487610","placeName":"Salt Lake City","searchUrl":"http:\/\/twitter.com\/search?q=Bernie","trendMapped":"bernie","trendVolume":432920},{"stateName":"UT","trendName":"Harriet Tubman","placeID":"2487610","placeName":"Salt Lake City","searchUrl":"http:\/\/twitter.com\/search?q=%22Harriet+Tubman%22","trendMapped":"Harriet+Tubman","trendVolume":419937},{"stateName":"VA","trendName":"#HairMusicVideo","placeID":"2512636","placeName":"Virginia Beach","searchUrl":"http:\/\/twitter.com\/search?q=%23HairMusicVideo","trendMapped":"hair+music+video","trendVolume":276512},{"stateName":"VA","trendName":"#NYPrimary","placeID":"2480894","placeName":"Richmond","searchUrl":"http:\/\/twitter.com\/search?q=%23NYPrimary","trendMapped":"ny+primary","trendVolume":481853},{"stateName":"VA","trendName":"#PrimaryDay","placeID":"2460389","placeName":"Norfolk","searchUrl":"http:\/\/twitter.com\/search?q=%23PrimaryDay","trendMapped":"primary+day","trendVolume":256853},{"stateName":"VA","trendName":"#VoiceSaveEmily","placeID":"2512636","placeName":"Virginia Beach","searchUrl":"http:\/\/twitter.com\/search?q=%23VoiceSaveEmily","trendMapped":"voice+save+emily","trendVolume":246714},{"stateName":"VA","trendName":"Cruz","placeID":"2480894","placeName":"Richmond","searchUrl":"http:\/\/twitter.com\/search?q=Cruz","trendMapped":"cruz","trendVolume":390605},{"stateName":"VA","trendName":"Harriet Tubman","placeID":"2512636","placeName":"Virginia Beach","searchUrl":"http:\/\/twitter.com\/search?q=%22Harriet+Tubman%22","trendMapped":"Harriet+Tubman","trendVolume":459582},{"stateName":"WA","trendName":"#HairMusicVideo","placeID":"2490383","placeName":"Seattle","searchUrl":"http:\/\/twitter.com\/search?q=%23HairMusicVideo","trendMapped":"hair+music+video","trendVolume":221149},{"stateName":"WA","trendName":"#NYPrimary","placeID":"2490383","placeName":"Seattle","searchUrl":"http:\/\/twitter.com\/search?q=%23NYPrimary","trendMapped":"ny+primary","trendVolume":482003},{"stateName":"WA","trendName":"Harriet Tubman","placeID":"2490383","placeName":"Seattle","searchUrl":"http:\/\/twitter.com\/search?q=%22Harriet+Tubman%22","trendMapped":"Harriet+Tubman","trendVolume":439307},{"stateName":"WI","trendName":"#NYPrimary","placeID":"2451822","placeName":"Milwaukee","searchUrl":"http:\/\/twitter.com\/search?q=%23NYPrimary","trendMapped":"ny+primary","trendVolume":482003},{"stateName":"WI","trendName":"#VoiceSaveEmily","placeID":"2451822","placeName":"Milwaukee","searchUrl":"http:\/\/twitter.com\/search?q=%23VoiceSaveEmily","trendMapped":"voice+save+emily","trendVolume":245408},{"stateName":"WI","trendName":"Cruz","placeID":"2451822","placeName":"Milwaukee","searchUrl":"http:\/\/twitter.com\/search?q=Cruz","trendMapped":"cruz","trendVolume":400311},{"stateName":"WI","trendName":"Harriet Tubman","placeID":"2451822","placeName":"Milwaukee","searchUrl":"http:\/\/twitter.com\/search?q=%22Harriet+Tubman%22","trendMapped":"Harriet+Tubman","trendVolume":411183},{"stateName":"XX","trendName":"#HairMusicVideo","placeID":"23424977","placeName":"United States","searchUrl":"http:\/\/twitter.com\/search?q=%23HairMusicVideo","trendMapped":"hair+music+video","trendVolume":278769},{"stateName":"XX","trendName":"#TheFlash","placeID":"23424977","placeName":"United States","searchUrl":"http:\/\/twitter.com\/search?q=%23TheFlash","trendMapped":"the+flash","trendVolume":27393},{"stateName":"XX","trendName":"#VoiceSaveEmily","placeID":"23424977","placeName":"United States","searchUrl":"http:\/\/twitter.com\/search?q=%23VoiceSaveEmily","trendMapped":"voice+save+emily","trendVolume":246716},{"stateName":"XX","trendName":"Harriet Tubman","placeID":"23424977","placeName":"United States","searchUrl":"http:\/\/twitter.com\/search?q=%22Harriet+Tubman%22","trendMapped":"Harriet+Tubman","trendVolume":376853}]