[{"stateName":"AL","trendName":"#YOUNGFOREVER","placeID":"2364559","placeName":"Birmingham","searchUrl":"http:\/\/twitter.com\/search?q=%23YOUNGFOREVER","trendMapped":"youngforever","trendVolume":372411},{"stateName":"AL","trendName":"#mondaymotivation","placeID":"2364559","placeName":"Birmingham","searchUrl":"http:\/\/twitter.com\/search?q=%23mondaymotivation","trendMapped":"mondaymotivation","trendVolume":165927},{"stateName":"AL","trendName":"Donald Trump","placeID":"2364559","placeName":"Birmingham","searchUrl":"http:\/\/twitter.com\/search?q=%22Donald+Trump%22","trendMapped":"Donald+Trump","trendVolume":254037},{"stateName":"AL","trendName":"Ecuador","placeID":"2364559","placeName":"Birmingham","searchUrl":"http:\/\/twitter.com\/search?q=Ecuador","trendMapped":"ecuador","trendVolume":604447},{"stateName":"AZ","trendName":"#DolanTwinsNewVideo","placeID":"2508428","placeName":"Tucson","searchUrl":"http:\/\/twitter.com\/search?q=%23DolanTwinsNewVideo","trendMapped":"dolan+twins+new+video","trendVolume":137197},{"stateName":"AZ","trendName":"#LHHATL","placeID":"2508428","placeName":"Tucson","searchUrl":"http:\/\/twitter.com\/search?q=%23LHHATL","trendMapped":"lhhatl","trendVolume":99156},{"stateName":"AZ","trendName":"#NYPrimary","placeID":"2471390","placeName":"Phoenix","searchUrl":"http:\/\/twitter.com\/search?q=%23NYPrimary","trendMapped":"ny+primary","trendVolume":243195},{"stateName":"AZ","trendName":"#PrimaryDay","placeID":"2471390","placeName":"Phoenix","searchUrl":"http:\/\/twitter.com\/search?q=%23PrimaryDay","trendMapped":"primary+day","trendVolume":194315},{"stateName":"AZ","trendName":"#WhenIWas","placeID":"2449808","placeName":"Mesa","searchUrl":"http:\/\/twitter.com\/search?q=%23WhenIWas","trendMapped":"when+i+was","trendVolume":56842},{"stateName":"AZ","trendName":"#YOUNGFOREVER","placeID":"2508428","placeName":"Tucson","searchUrl":"http:\/\/twitter.com\/search?q=%23YOUNGFOREVER","trendMapped":"youngforever","trendVolume":432079},{"stateName":"AZ","trendName":"#mondaymotivation","placeID":"2471390","placeName":"Phoenix","searchUrl":"http:\/\/twitter.com\/search?q=%23mondaymotivation","trendMapped":"mondaymotivation","trendVolume":165593},{"stateName":"AZ","trendName":"Doris Roberts","placeID":"2508428","placeName":"Tucson","searchUrl":"http:\/\/twitter.com\/search?q=%22Doris+Roberts%22","trendMapped":"Doris+Roberts","trendVolume":117255},{"stateName":"AZ","trendName":"Ecuador","placeID":"2471390","placeName":"Phoenix","searchUrl":"http:\/\/twitter.com\/search?q=Ecuador","trendMapped":"ecuador","trendVolume":601702},{"stateName":"AZ","trendName":"Kabul","placeID":"2508428","placeName":"Tucson","searchUrl":"http:\/\/twitter.com\/search?q=Kabul","trendMapped":"kabul","trendVolume":88097},{"stateName":"AZ","trendName":"Newcastle","placeID":"2449808","placeName":"Mesa","searchUrl":"http:\/\/twitter.com\/search?q=Newcastle","trendMapped":"newcastle","trendVolume":99162},{"stateName":"AZ","trendName":"Pulitzer","placeID":"2471390","placeName":"Phoenix","searchUrl":"http:\/\/twitter.com\/search?q=Pulitzer","trendMapped":"pulitzer","trendVolume":146980},{"stateName":"CA","trendName":"#DolanTwinsNewVideo","placeID":"2488042","placeName":"San Jose","searchUrl":"http:\/\/twitter.com\/search?q=%23DolanTwinsNewVideo","trendMapped":"dolan+twins+new+video","trendVolume":138260},{"stateName":"CA","trendName":"#LHHATL","placeID":"2488042","placeName":"San Jose","searchUrl":"http:\/\/twitter.com\/search?q=%23LHHATL","trendMapped":"lhhatl","trendVolume":99908},{"stateName":"CA","trendName":"#NYPrimary","placeID":"2488042","placeName":"San Jose","searchUrl":"http:\/\/twitter.com\/search?q=%23NYPrimary","trendMapped":"ny+primary","trendVolume":337252},{"stateName":"CA","trendName":"#PrimaryDay","placeID":"2442047","placeName":"Los Angeles","searchUrl":"http:\/\/twitter.com\/search?q=%23PrimaryDay","trendMapped":"primary+day","trendVolume":185816},{"stateName":"CA","trendName":"#TaxDay","placeID":"2486340","placeName":"Sacramento","searchUrl":"http:\/\/twitter.com\/search?q=%23TaxDay","trendMapped":"tax+day","trendVolume":57742},{"stateName":"CA","trendName":"#WhenIWas","placeID":"2441472","placeName":"Long Beach","searchUrl":"http:\/\/twitter.com\/search?q=%23WhenIWas","trendMapped":"when+i+was","trendVolume":56842},{"stateName":"CA","trendName":"#YOUNGFOREVER","placeID":"2488042","placeName":"San Jose","searchUrl":"http:\/\/twitter.com\/search?q=%23YOUNGFOREVER","trendMapped":"youngforever","trendVolume":442758},{"stateName":"CA","trendName":"#mondaymotivation","placeID":"2487889","placeName":"San Diego","searchUrl":"http:\/\/twitter.com\/search?q=%23mondaymotivation","trendMapped":"mondaymotivation","trendVolume":166425},{"stateName":"CA","trendName":"Doris Roberts","placeID":"2487956","placeName":"San Francisco","searchUrl":"http:\/\/twitter.com\/search?q=%22Doris+Roberts%22","trendMapped":"Doris+Roberts","trendVolume":116719},{"stateName":"CA","trendName":"Ecuador","placeID":"2488042","placeName":"San Jose","searchUrl":"http:\/\/twitter.com\/search?q=Ecuador","trendMapped":"ecuador","trendVolume":604447},{"stateName":"CA","trendName":"Kabul","placeID":"2488042","placeName":"San Jose","searchUrl":"http:\/\/twitter.com\/search?q=Kabul","trendMapped":"kabul","trendVolume":89916},{"stateName":"CA","trendName":"Newcastle","placeID":"2488042","placeName":"San Jose","searchUrl":"http:\/\/twitter.com\/search?q=Newcastle","trendMapped":"newcastle","trendVolume":100121},{"stateName":"CA","trendName":"Pulitzer","placeID":"2488042","placeName":"San Jose","searchUrl":"http:\/\/twitter.com\/search?q=Pulitzer","trendMapped":"pulitzer","trendVolume":149647},{"stateName":"CA","trendName":"Westbrook","placeID":"2487956","placeName":"San Francisco","searchUrl":"http:\/\/twitter.com\/search?q=Westbrook","trendMapped":"westbrook","trendVolume":85357},{"stateName":"CO","trendName":"#DolanTwinsNewVideo","placeID":"2383489","placeName":"Colorado Springs","searchUrl":"http:\/\/twitter.com\/search?q=%23DolanTwinsNewVideo","trendMapped":"dolan+twins+new+video","trendVolume":137362},{"stateName":"CO","trendName":"#LHHATL","placeID":"2383489","placeName":"Colorado Springs","searchUrl":"http:\/\/twitter.com\/search?q=%23LHHATL","trendMapped":"lhhatl","trendVolume":93756},{"stateName":"CO","trendName":"#YOUNGFOREVER","placeID":"2391279","placeName":"Denver","searchUrl":"http:\/\/twitter.com\/search?q=%23YOUNGFOREVER","trendMapped":"youngforever","trendVolume":442758},{"stateName":"CO","trendName":"#mondaymotivation","placeID":"2391279","placeName":"Denver","searchUrl":"http:\/\/twitter.com\/search?q=%23mondaymotivation","trendMapped":"mondaymotivation","trendVolume":166425},{"stateName":"CO","trendName":"Kabul","placeID":"2383489","placeName":"Colorado Springs","searchUrl":"http:\/\/twitter.com\/search?q=Kabul","trendMapped":"kabul","trendVolume":84510},{"stateName":"CO","trendName":"Pulitzer","placeID":"2383489","placeName":"Colorado Springs","searchUrl":"http:\/\/twitter.com\/search?q=Pulitzer","trendMapped":"pulitzer","trendVolume":146980},{"stateName":"CO","trendName":"Westbrook","placeID":"2383489","placeName":"Colorado Springs","searchUrl":"http:\/\/twitter.com\/search?q=Westbrook","trendMapped":"westbrook","trendVolume":85569},{"stateName":"CT","trendName":"#BostonMarathon","placeID":"2458410","placeName":"New Haven","searchUrl":"http:\/\/twitter.com\/search?q=%23BostonMarathon","trendMapped":"boston+marathon","trendVolume":86840},{"stateName":"CT","trendName":"#DolanTwinsNewVideo","placeID":"2458410","placeName":"New Haven","searchUrl":"http:\/\/twitter.com\/search?q=%23DolanTwinsNewVideo","trendMapped":"dolan+twins+new+video","trendVolume":138015},{"stateName":"CT","trendName":"#LHHATL","placeID":"2458410","placeName":"New Haven","searchUrl":"http:\/\/twitter.com\/search?q=%23LHHATL","trendMapped":"lhhatl","trendVolume":99156},{"stateName":"CT","trendName":"#NYPrimary","placeID":"2458410","placeName":"New Haven","searchUrl":"http:\/\/twitter.com\/search?q=%23NYPrimary","trendMapped":"ny+primary","trendVolume":341883},{"stateName":"CT","trendName":"#YOUNGFOREVER","placeID":"2458410","placeName":"New Haven","searchUrl":"http:\/\/twitter.com\/search?q=%23YOUNGFOREVER","trendMapped":"youngforever","trendVolume":340967},{"stateName":"CT","trendName":"Curry","placeID":"2458410","placeName":"New Haven","searchUrl":"http:\/\/twitter.com\/search?q=Curry","trendMapped":"curry","trendVolume":141025},{"stateName":"DC","trendName":"#BeforeYouTube","placeID":"2514815","placeName":"Washington","searchUrl":"http:\/\/twitter.com\/search?q=%23BeforeYouTube","trendMapped":"before+you+tube","trendVolume":40190},{"stateName":"DC","trendName":"#DiaMundialDeLaBicicleta","placeID":"2514815","placeName":"Washington","searchUrl":"http:\/\/twitter.com\/search?q=%23DiaMundialDeLaBicicleta","trendMapped":"dia+mundial+de+la+bicicleta","trendVolume":40292},{"stateName":"DC","trendName":"#DolanTwinsNewVideo","placeID":"2514815","placeName":"Washington","searchUrl":"http:\/\/twitter.com\/search?q=%23DolanTwinsNewVideo","trendMapped":"dolan+twins+new+video","trendVolume":138015},{"stateName":"DC","trendName":"#LHHATL","placeID":"2514815","placeName":"Washington","searchUrl":"http:\/\/twitter.com\/search?q=%23LHHATL","trendMapped":"lhhatl","trendVolume":102869},{"stateName":"DC","trendName":"#YOUNGFOREVER","placeID":"2514815","placeName":"Washington","searchUrl":"http:\/\/twitter.com\/search?q=%23YOUNGFOREVER","trendMapped":"youngforever","trendVolume":405084},{"stateName":"FL","trendName":"#DanielPadillaBenteUno","placeID":"2503863","placeName":"Tampa","searchUrl":"http:\/\/twitter.com\/search?q=%23DanielPadillaBenteUno","trendMapped":"daniel+padilla+bente+uno","trendVolume":138322},{"stateName":"FL","trendName":"#DolanTwinsNewVideo","placeID":"2450022","placeName":"Miami","searchUrl":"http:\/\/twitter.com\/search?q=%23DolanTwinsNewVideo","trendMapped":"dolan+twins+new+video","trendVolume":138015},{"stateName":"FL","trendName":"#FeelTheBern","placeID":"2428344","placeName":"Jacksonville","searchUrl":"http:\/\/twitter.com\/search?q=%23FeelTheBern","trendMapped":"feel+the+bern","trendVolume":115597},{"stateName":"FL","trendName":"#LHHATL","placeID":"2503863","placeName":"Tampa","searchUrl":"http:\/\/twitter.com\/search?q=%23LHHATL","trendMapped":"lhhatl","trendVolume":106119},{"stateName":"FL","trendName":"#NYPrimary","placeID":"2503863","placeName":"Tampa","searchUrl":"http:\/\/twitter.com\/search?q=%23NYPrimary","trendMapped":"ny+primary","trendVolume":182572},{"stateName":"FL","trendName":"#Periscope","placeID":"2503713","placeName":"Tallahassee","searchUrl":"http:\/\/twitter.com\/search?q=%23Periscope","trendMapped":"periscope","trendVolume":166936},{"stateName":"FL","trendName":"#PrimaryDay","placeID":"2466256","placeName":"Orlando","searchUrl":"http:\/\/twitter.com\/search?q=%23PrimaryDay","trendMapped":"primary+day","trendVolume":194315},{"stateName":"FL","trendName":"#YOUNGFOREVER","placeID":"2503863","placeName":"Tampa","searchUrl":"http:\/\/twitter.com\/search?q=%23YOUNGFOREVER","trendMapped":"youngforever","trendVolume":432079},{"stateName":"FL","trendName":"#mondaymotivation","placeID":"2503863","placeName":"Tampa","searchUrl":"http:\/\/twitter.com\/search?q=%23mondaymotivation","trendMapped":"mondaymotivation","trendVolume":165765},{"stateName":"FL","trendName":"Bernie","placeID":"2503713","placeName":"Tallahassee","searchUrl":"http:\/\/twitter.com\/search?q=Bernie","trendMapped":"bernie","trendVolume":326472},{"stateName":"FL","trendName":"Doris Roberts","placeID":"2466256","placeName":"Orlando","searchUrl":"http:\/\/twitter.com\/search?q=%22Doris+Roberts%22","trendMapped":"Doris+Roberts","trendVolume":116038},{"stateName":"FL","trendName":"Ecuador","placeID":"2503863","placeName":"Tampa","searchUrl":"http:\/\/twitter.com\/search?q=Ecuador","trendMapped":"ecuador","trendVolume":613244},{"stateName":"FL","trendName":"FEEL","placeID":"2466256","placeName":"Orlando","searchUrl":"http:\/\/twitter.com\/search?q=FEEL","trendMapped":"feel","trendVolume":1009307},{"stateName":"FL","trendName":"Hillary Clinton","placeID":"2428344","placeName":"Jacksonville","searchUrl":"http:\/\/twitter.com\/search?q=%22Hillary+Clinton%22","trendMapped":"Hillary+Clinton","trendVolume":106140},{"stateName":"FL","trendName":"Pulitzer","placeID":"2466256","placeName":"Orlando","searchUrl":"http:\/\/twitter.com\/search?q=Pulitzer","trendMapped":"pulitzer","trendVolume":139893},{"stateName":"GA","trendName":"#DanielPadillaBenteUno","placeID":"2357024","placeName":"Atlanta","searchUrl":"http:\/\/twitter.com\/search?q=%23DanielPadillaBenteUno","trendMapped":"daniel+padilla+bente+uno","trendVolume":143425},{"stateName":"GA","trendName":"#DolanTwinsNewVideo","placeID":"2357024","placeName":"Atlanta","searchUrl":"http:\/\/twitter.com\/search?q=%23DolanTwinsNewVideo","trendMapped":"dolan+twins+new+video","trendVolume":138260},{"stateName":"GA","trendName":"#LHHATL","placeID":"2357024","placeName":"Atlanta","searchUrl":"http:\/\/twitter.com\/search?q=%23LHHATL","trendMapped":"lhhatl","trendVolume":98734},{"stateName":"GA","trendName":"#YOUNGFOREVER","placeID":"2357024","placeName":"Atlanta","searchUrl":"http:\/\/twitter.com\/search?q=%23YOUNGFOREVER","trendMapped":"youngforever","trendVolume":416232},{"stateName":"GA","trendName":"#mondaymotivation","placeID":"2357024","placeName":"Atlanta","searchUrl":"http:\/\/twitter.com\/search?q=%23mondaymotivation","trendMapped":"mondaymotivation","trendVolume":126795},{"stateName":"GA","trendName":"Doris Roberts","placeID":"2357024","placeName":"Atlanta","searchUrl":"http:\/\/twitter.com\/search?q=%22Doris+Roberts%22","trendMapped":"Doris+Roberts","trendVolume":116038},{"stateName":"GA","trendName":"Ecuador","placeID":"2357024","placeName":"Atlanta","searchUrl":"http:\/\/twitter.com\/search?q=Ecuador","trendMapped":"ecuador","trendVolume":603067},{"stateName":"GA","trendName":"Pulitzer","placeID":"2357024","placeName":"Atlanta","searchUrl":"http:\/\/twitter.com\/search?q=Pulitzer","trendMapped":"pulitzer","trendVolume":145278},{"stateName":"HI","trendName":"Coachella","placeID":"2423945","placeName":"Honolulu","searchUrl":"http:\/\/twitter.com\/search?q=Coachella","trendMapped":"coachella","trendVolume":655417},{"stateName":"HI","trendName":"Ecuador","placeID":"2423945","placeName":"Honolulu","searchUrl":"http:\/\/twitter.com\/search?q=Ecuador","trendMapped":"ecuador","trendVolume":605344},{"stateName":"HI","trendName":"Snapchat","placeID":"2423945","placeName":"Honolulu","searchUrl":"http:\/\/twitter.com\/search?q=Snapchat","trendMapped":"snapchat","trendVolume":341544},{"stateName":"IL","trendName":"#DolanTwinsNewVideo","placeID":"2379574","placeName":"Chicago","searchUrl":"http:\/\/twitter.com\/search?q=%23DolanTwinsNewVideo","trendMapped":"dolan+twins+new+video","trendVolume":138429},{"stateName":"IL","trendName":"#LHHATL","placeID":"2379574","placeName":"Chicago","searchUrl":"http:\/\/twitter.com\/search?q=%23LHHATL","trendMapped":"lhhatl","trendVolume":99020},{"stateName":"IL","trendName":"#YOUNGFOREVER","placeID":"2379574","placeName":"Chicago","searchUrl":"http:\/\/twitter.com\/search?q=%23YOUNGFOREVER","trendMapped":"youngforever","trendVolume":359994},{"stateName":"IL","trendName":"Doris Roberts","placeID":"2379574","placeName":"Chicago","searchUrl":"http:\/\/twitter.com\/search?q=%22Doris+Roberts%22","trendMapped":"Doris+Roberts","trendVolume":97672},{"stateName":"IL","trendName":"Pulitzer","placeID":"2379574","placeName":"Chicago","searchUrl":"http:\/\/twitter.com\/search?q=Pulitzer","trendMapped":"pulitzer","trendVolume":153952},{"stateName":"IN","trendName":"#BostonMarathon","placeID":"2427032","placeName":"Indianapolis","searchUrl":"http:\/\/twitter.com\/search?q=%23BostonMarathon","trendMapped":"boston+marathon","trendVolume":86850},{"stateName":"IN","trendName":"#DolanTwinsNewVideo","placeID":"2427032","placeName":"Indianapolis","searchUrl":"http:\/\/twitter.com\/search?q=%23DolanTwinsNewVideo","trendMapped":"dolan+twins+new+video","trendVolume":138260},{"stateName":"IN","trendName":"#LHHATL","placeID":"2427032","placeName":"Indianapolis","searchUrl":"http:\/\/twitter.com\/search?q=%23LHHATL","trendMapped":"lhhatl","trendVolume":96133},{"stateName":"IN","trendName":"#YOUNGFOREVER","placeID":"2427032","placeName":"Indianapolis","searchUrl":"http:\/\/twitter.com\/search?q=%23YOUNGFOREVER","trendMapped":"youngforever","trendVolume":385064},{"stateName":"IN","trendName":"#mondaymotivation","placeID":"2427032","placeName":"Indianapolis","searchUrl":"http:\/\/twitter.com\/search?q=%23mondaymotivation","trendMapped":"mondaymotivation","trendVolume":158199},{"stateName":"IN","trendName":"Kabul","placeID":"2427032","placeName":"Indianapolis","searchUrl":"http:\/\/twitter.com\/search?q=Kabul","trendMapped":"kabul","trendVolume":86698},{"stateName":"KY","trendName":"#Coachella","placeID":"2442327","placeName":"Louisville","searchUrl":"http:\/\/twitter.com\/search?q=%23Coachella","trendMapped":"coachella","trendVolume":110877},{"stateName":"KY","trendName":"#DanielPadillaBenteUno","placeID":"2442327","placeName":"Louisville","searchUrl":"http:\/\/twitter.com\/search?q=%23DanielPadillaBenteUno","trendMapped":"daniel+padilla+bente+uno","trendVolume":138322},{"stateName":"KY","trendName":"#DolanTwinsNewVideo","placeID":"2442327","placeName":"Louisville","searchUrl":"http:\/\/twitter.com\/search?q=%23DolanTwinsNewVideo","trendMapped":"dolan+twins+new+video","trendVolume":136150},{"stateName":"KY","trendName":"#YOUNGFOREVER","placeID":"2442327","placeName":"Louisville","searchUrl":"http:\/\/twitter.com\/search?q=%23YOUNGFOREVER","trendMapped":"youngforever","trendVolume":432079},{"stateName":"KY","trendName":"Ecuador","placeID":"2442327","placeName":"Louisville","searchUrl":"http:\/\/twitter.com\/search?q=Ecuador","trendMapped":"ecuador","trendVolume":604447},{"stateName":"KY","trendName":"Kabul","placeID":"2442327","placeName":"Louisville","searchUrl":"http:\/\/twitter.com\/search?q=Kabul","trendMapped":"kabul","trendVolume":84510},{"stateName":"KY","trendName":"Pulitzer","placeID":"2442327","placeName":"Louisville","searchUrl":"http:\/\/twitter.com\/search?q=Pulitzer","trendMapped":"pulitzer","trendVolume":140988},{"stateName":"LA","trendName":"#DanielPadillaBenteUno","placeID":"2458833","placeName":"New Orleans","searchUrl":"http:\/\/twitter.com\/search?q=%23DanielPadillaBenteUno","trendMapped":"daniel+padilla+bente+uno","trendVolume":143425},{"stateName":"LA","trendName":"#DolanTwinsNewVideo","placeID":"2359991","placeName":"Baton Rouge","searchUrl":"http:\/\/twitter.com\/search?q=%23DolanTwinsNewVideo","trendMapped":"dolan+twins+new+video","trendVolume":137536},{"stateName":"LA","trendName":"#LHHATL","placeID":"2359991","placeName":"Baton Rouge","searchUrl":"http:\/\/twitter.com\/search?q=%23LHHATL","trendMapped":"lhhatl","trendVolume":98175},{"stateName":"LA","trendName":"#YOUNGFOREVER","placeID":"2458833","placeName":"New Orleans","searchUrl":"http:\/\/twitter.com\/search?q=%23YOUNGFOREVER","trendMapped":"youngforever","trendVolume":421426},{"stateName":"LA","trendName":"#mondaymotivation","placeID":"2458833","placeName":"New Orleans","searchUrl":"http:\/\/twitter.com\/search?q=%23mondaymotivation","trendMapped":"mondaymotivation","trendVolume":166425},{"stateName":"LA","trendName":"America","placeID":"2359991","placeName":"Baton Rouge","searchUrl":"http:\/\/twitter.com\/search?q=America","trendMapped":"america","trendVolume":322725},{"stateName":"LA","trendName":"Ecuador","placeID":"2458833","placeName":"New Orleans","searchUrl":"http:\/\/twitter.com\/search?q=Ecuador","trendMapped":"ecuador","trendVolume":591469},{"stateName":"LA","trendName":"House","placeID":"2359991","placeName":"Baton Rouge","searchUrl":"http:\/\/twitter.com\/search?q=House","trendMapped":"house","trendVolume":523269},{"stateName":"MA","trendName":"#BostonMarathon","placeID":"2367105","placeName":"Boston","searchUrl":"http:\/\/twitter.com\/search?q=%23BostonMarathon","trendMapped":"boston+marathon","trendVolume":82650},{"stateName":"MA","trendName":"#DolanTwinsNewVideo","placeID":"2367105","placeName":"Boston","searchUrl":"http:\/\/twitter.com\/search?q=%23DolanTwinsNewVideo","trendMapped":"dolan+twins+new+video","trendVolume":137654},{"stateName":"MA","trendName":"#LHHATL","placeID":"2367105","placeName":"Boston","searchUrl":"http:\/\/twitter.com\/search?q=%23LHHATL","trendMapped":"lhhatl","trendVolume":95913},{"stateName":"MA","trendName":"#YOUNGFOREVER","placeID":"2367105","placeName":"Boston","searchUrl":"http:\/\/twitter.com\/search?q=%23YOUNGFOREVER","trendMapped":"youngforever","trendVolume":388800},{"stateName":"MA","trendName":"Ecuador","placeID":"2367105","placeName":"Boston","searchUrl":"http:\/\/twitter.com\/search?q=Ecuador","trendMapped":"ecuador","trendVolume":593389},{"stateName":"MA","trendName":"Pulitzer","placeID":"2367105","placeName":"Boston","searchUrl":"http:\/\/twitter.com\/search?q=Pulitzer","trendMapped":"pulitzer","trendVolume":139893},{"stateName":"MD","trendName":"#DolanTwinsNewVideo","placeID":"2358820","placeName":"Baltimore","searchUrl":"http:\/\/twitter.com\/search?q=%23DolanTwinsNewVideo","trendMapped":"dolan+twins+new+video","trendVolume":138260},{"stateName":"MD","trendName":"#LHHATL","placeID":"2358820","placeName":"Baltimore","searchUrl":"http:\/\/twitter.com\/search?q=%23LHHATL","trendMapped":"lhhatl","trendVolume":105388},{"stateName":"MD","trendName":"#YOUNGFOREVER","placeID":"2358820","placeName":"Baltimore","searchUrl":"http:\/\/twitter.com\/search?q=%23YOUNGFOREVER","trendMapped":"youngforever","trendVolume":432079},{"stateName":"MD","trendName":"#mondaymotivation","placeID":"2358820","placeName":"Baltimore","searchUrl":"http:\/\/twitter.com\/search?q=%23mondaymotivation","trendMapped":"mondaymotivation","trendVolume":163159},{"stateName":"MD","trendName":"Ecuador","placeID":"2358820","placeName":"Baltimore","searchUrl":"http:\/\/twitter.com\/search?q=Ecuador","trendMapped":"ecuador","trendVolume":593389},{"stateName":"MD","trendName":"Pulitzer","placeID":"2358820","placeName":"Baltimore","searchUrl":"http:\/\/twitter.com\/search?q=Pulitzer","trendMapped":"pulitzer","trendVolume":146980},{"stateName":"MI","trendName":"#LHHATL","placeID":"2391585","placeName":"Detroit","searchUrl":"http:\/\/twitter.com\/search?q=%23LHHATL","trendMapped":"lhhatl","trendVolume":93756},{"stateName":"MI","trendName":"#YOUNGFOREVER","placeID":"2391585","placeName":"Detroit","searchUrl":"http:\/\/twitter.com\/search?q=%23YOUNGFOREVER","trendMapped":"youngforever","trendVolume":390665},{"stateName":"MI","trendName":"#mondaymotivation","placeID":"2391585","placeName":"Detroit","searchUrl":"http:\/\/twitter.com\/search?q=%23mondaymotivation","trendMapped":"mondaymotivation","trendVolume":162212},{"stateName":"MI","trendName":"Ecuador","placeID":"2391585","placeName":"Detroit","searchUrl":"http:\/\/twitter.com\/search?q=Ecuador","trendMapped":"ecuador","trendVolume":601702},{"stateName":"MI","trendName":"Pulitzer","placeID":"2391585","placeName":"Detroit","searchUrl":"http:\/\/twitter.com\/search?q=Pulitzer","trendMapped":"pulitzer","trendVolume":140988},{"stateName":"MI","trendName":"Warriors","placeID":"2391585","placeName":"Detroit","searchUrl":"http:\/\/twitter.com\/search?q=Warriors","trendMapped":"warriors","trendVolume":106020},{"stateName":"MN","trendName":"#BostonMarathon","placeID":"2452078","placeName":"Minneapolis","searchUrl":"http:\/\/twitter.com\/search?q=%23BostonMarathon","trendMapped":"boston+marathon","trendVolume":77384},{"stateName":"MN","trendName":"#LHHATL","placeID":"2452078","placeName":"Minneapolis","searchUrl":"http:\/\/twitter.com\/search?q=%23LHHATL","trendMapped":"lhhatl","trendVolume":99449},{"stateName":"MN","trendName":"#NYPrimary","placeID":"2452078","placeName":"Minneapolis","searchUrl":"http:\/\/twitter.com\/search?q=%23NYPrimary","trendMapped":"ny+primary","trendVolume":182213},{"stateName":"MN","trendName":"#YOUNGFOREVER","placeID":"2452078","placeName":"Minneapolis","searchUrl":"http:\/\/twitter.com\/search?q=%23YOUNGFOREVER","trendMapped":"youngforever","trendVolume":432079},{"stateName":"MN","trendName":"#mondaymotivation","placeID":"2452078","placeName":"Minneapolis","searchUrl":"http:\/\/twitter.com\/search?q=%23mondaymotivation","trendMapped":"mondaymotivation","trendVolume":162427},{"stateName":"MN","trendName":"Ecuador","placeID":"2452078","placeName":"Minneapolis","searchUrl":"http:\/\/twitter.com\/search?q=Ecuador","trendMapped":"ecuador","trendVolume":591469},{"stateName":"MN","trendName":"Pulitzer","placeID":"2452078","placeName":"Minneapolis","searchUrl":"http:\/\/twitter.com\/search?q=Pulitzer","trendMapped":"pulitzer","trendVolume":155965},{"stateName":"MO","trendName":"#LHHATL","placeID":"2486982","placeName":"St. Louis","searchUrl":"http:\/\/twitter.com\/search?q=%23LHHATL","trendMapped":"lhhatl","trendVolume":95192},{"stateName":"MO","trendName":"#NYPrimary","placeID":"2430683","placeName":"Kansas City","searchUrl":"http:\/\/twitter.com\/search?q=%23NYPrimary","trendMapped":"ny+primary","trendVolume":339268},{"stateName":"MO","trendName":"#PrimaryDay","placeID":"2486982","placeName":"St. Louis","searchUrl":"http:\/\/twitter.com\/search?q=%23PrimaryDay","trendMapped":"primary+day","trendVolume":194315},{"stateName":"MO","trendName":"#YOUNGFOREVER","placeID":"2486982","placeName":"St. Louis","searchUrl":"http:\/\/twitter.com\/search?q=%23YOUNGFOREVER","trendMapped":"youngforever","trendVolume":444278},{"stateName":"MO","trendName":"#mondaymotivation","placeID":"2486982","placeName":"St. Louis","searchUrl":"http:\/\/twitter.com\/search?q=%23mondaymotivation","trendMapped":"mondaymotivation","trendVolume":166117},{"stateName":"MO","trendName":"Amazon","placeID":"2430683","placeName":"Kansas City","searchUrl":"http:\/\/twitter.com\/search?q=Amazon","trendMapped":"amazon","trendVolume":711363},{"stateName":"MO","trendName":"Curry","placeID":"2486982","placeName":"St. Louis","searchUrl":"http:\/\/twitter.com\/search?q=Curry","trendMapped":"curry","trendVolume":141888},{"stateName":"MO","trendName":"Doris Roberts","placeID":"2486982","placeName":"St. Louis","searchUrl":"http:\/\/twitter.com\/search?q=%22Doris+Roberts%22","trendMapped":"Doris+Roberts","trendVolume":119128},{"stateName":"MO","trendName":"Ecuador","placeID":"2486982","placeName":"St. Louis","searchUrl":"http:\/\/twitter.com\/search?q=Ecuador","trendMapped":"ecuador","trendVolume":604447},{"stateName":"MO","trendName":"Warriors","placeID":"2486982","placeName":"St. Louis","searchUrl":"http:\/\/twitter.com\/search?q=Warriors","trendMapped":"warriors","trendVolume":123520},{"stateName":"MS","trendName":"#DolanTwinsNewVideo","placeID":"2428184","placeName":"Jackson","searchUrl":"http:\/\/twitter.com\/search?q=%23DolanTwinsNewVideo","trendMapped":"dolan+twins+new+video","trendVolume":137197},{"stateName":"MS","trendName":"#LHHATL","placeID":"2428184","placeName":"Jackson","searchUrl":"http:\/\/twitter.com\/search?q=%23LHHATL","trendMapped":"lhhatl","trendVolume":91068},{"stateName":"MS","trendName":"#YOUNGFOREVER","placeID":"2428184","placeName":"Jackson","searchUrl":"http:\/\/twitter.com\/search?q=%23YOUNGFOREVER","trendMapped":"youngforever","trendVolume":401020},{"stateName":"MS","trendName":"Rihanna","placeID":"2428184","placeName":"Jackson","searchUrl":"http:\/\/twitter.com\/search?q=Rihanna","trendMapped":"rihanna","trendVolume":256114},{"stateName":"MS","trendName":"Warriors","placeID":"2428184","placeName":"Jackson","searchUrl":"http:\/\/twitter.com\/search?q=Warriors","trendMapped":"warriors","trendVolume":127063},{"stateName":"NC","trendName":"#DolanTwinsNewVideo","placeID":"2414469","placeName":"Greensboro","searchUrl":"http:\/\/twitter.com\/search?q=%23DolanTwinsNewVideo","trendMapped":"dolan+twins+new+video","trendVolume":137654},{"stateName":"NC","trendName":"#LHHATL","placeID":"2478307","placeName":"Raleigh","searchUrl":"http:\/\/twitter.com\/search?q=%23LHHATL","trendMapped":"lhhatl","trendVolume":104620},{"stateName":"NC","trendName":"#NYPrimary","placeID":"2414469","placeName":"Greensboro","searchUrl":"http:\/\/twitter.com\/search?q=%23NYPrimary","trendMapped":"ny+primary","trendVolume":238793},{"stateName":"NC","trendName":"#PrimaryDay","placeID":"2378426","placeName":"Charlotte","searchUrl":"http:\/\/twitter.com\/search?q=%23PrimaryDay","trendMapped":"primary+day","trendVolume":190007},{"stateName":"NC","trendName":"#YOUNGFOREVER","placeID":"2478307","placeName":"Raleigh","searchUrl":"http:\/\/twitter.com\/search?q=%23YOUNGFOREVER","trendMapped":"youngforever","trendVolume":442758},{"stateName":"NC","trendName":"#mondaymotivation","placeID":"2478307","placeName":"Raleigh","searchUrl":"http:\/\/twitter.com\/search?q=%23mondaymotivation","trendMapped":"mondaymotivation","trendVolume":165607},{"stateName":"NC","trendName":"Curry","placeID":"2414469","placeName":"Greensboro","searchUrl":"http:\/\/twitter.com\/search?q=Curry","trendMapped":"curry","trendVolume":141890},{"stateName":"NC","trendName":"Ecuador","placeID":"2378426","placeName":"Charlotte","searchUrl":"http:\/\/twitter.com\/search?q=Ecuador","trendMapped":"ecuador","trendVolume":593389},{"stateName":"NC","trendName":"Pulitzer","placeID":"2478307","placeName":"Raleigh","searchUrl":"http:\/\/twitter.com\/search?q=Pulitzer","trendMapped":"pulitzer","trendVolume":145011},{"stateName":"NE","trendName":"#NYPrimary","placeID":"2465512","placeName":"Omaha","searchUrl":"http:\/\/twitter.com\/search?q=%23NYPrimary","trendMapped":"ny+primary","trendVolume":236329},{"stateName":"NE","trendName":"Ecuador","placeID":"2465512","placeName":"Omaha","searchUrl":"http:\/\/twitter.com\/search?q=Ecuador","trendMapped":"ecuador","trendVolume":604057},{"stateName":"NE","trendName":"Hillary","placeID":"2465512","placeName":"Omaha","searchUrl":"http:\/\/twitter.com\/search?q=Hillary","trendMapped":"hillary","trendVolume":288417},{"stateName":"NM","trendName":"#LHHATL","placeID":"2352824","placeName":"Albuquerque","searchUrl":"http:\/\/twitter.com\/search?q=%23LHHATL","trendMapped":"lhhatl","trendVolume":99908},{"stateName":"NM","trendName":"#YOUNGFOREVER","placeID":"2352824","placeName":"Albuquerque","searchUrl":"http:\/\/twitter.com\/search?q=%23YOUNGFOREVER","trendMapped":"youngforever","trendVolume":437386},{"stateName":"NM","trendName":"Kabul","placeID":"2352824","placeName":"Albuquerque","searchUrl":"http:\/\/twitter.com\/search?q=Kabul","trendMapped":"kabul","trendVolume":86698},{"stateName":"NM","trendName":"Pulitzer","placeID":"2352824","placeName":"Albuquerque","searchUrl":"http:\/\/twitter.com\/search?q=Pulitzer","trendMapped":"pulitzer","trendVolume":139498},{"stateName":"NM","trendName":"Westbrook","placeID":"2352824","placeName":"Albuquerque","searchUrl":"http:\/\/twitter.com\/search?q=Westbrook","trendMapped":"westbrook","trendVolume":85404},{"stateName":"NV","trendName":"#LHHATL","placeID":"2436704","placeName":"Las Vegas","searchUrl":"http:\/\/twitter.com\/search?q=%23LHHATL","trendMapped":"lhhatl","trendVolume":104620},{"stateName":"NV","trendName":"#NYPrimary","placeID":"2436704","placeName":"Las Vegas","searchUrl":"http:\/\/twitter.com\/search?q=%23NYPrimary","trendMapped":"ny+primary","trendVolume":182752},{"stateName":"NV","trendName":"#PrimaryDay","placeID":"2436704","placeName":"Las Vegas","searchUrl":"http:\/\/twitter.com\/search?q=%23PrimaryDay","trendMapped":"primary+day","trendVolume":185816},{"stateName":"NV","trendName":"#YOUNGFOREVER","placeID":"2436704","placeName":"Las Vegas","searchUrl":"http:\/\/twitter.com\/search?q=%23YOUNGFOREVER","trendMapped":"youngforever","trendVolume":437386},{"stateName":"NV","trendName":"#mondaymotivation","placeID":"2436704","placeName":"Las Vegas","searchUrl":"http:\/\/twitter.com\/search?q=%23mondaymotivation","trendMapped":"mondaymotivation","trendVolume":166117},{"stateName":"NV","trendName":"Pulitzer","placeID":"2436704","placeName":"Las Vegas","searchUrl":"http:\/\/twitter.com\/search?q=Pulitzer","trendMapped":"pulitzer","trendVolume":145805},{"stateName":"NV","trendName":"Style","placeID":"2436704","placeName":"Las Vegas","searchUrl":"http:\/\/twitter.com\/search?q=Style","trendMapped":"style","trendVolume":252536},{"stateName":"NY","trendName":"#DolanTwinsNewVideo","placeID":"2459115","placeName":"New York","searchUrl":"http:\/\/twitter.com\/search?q=%23DolanTwinsNewVideo","trendMapped":"dolan+twins+new+video","trendVolume":138429},{"stateName":"NY","trendName":"#LHHATL","placeID":"2459115","placeName":"New York","searchUrl":"http:\/\/twitter.com\/search?q=%23LHHATL","trendMapped":"lhhatl","trendVolume":98734},{"stateName":"NY","trendName":"#YOUNGFOREVER","placeID":"2459115","placeName":"New York","searchUrl":"http:\/\/twitter.com\/search?q=%23YOUNGFOREVER","trendMapped":"youngforever","trendVolume":432079},{"stateName":"NY","trendName":"Kabul","placeID":"2459115","placeName":"New York","searchUrl":"http:\/\/twitter.com\/search?q=Kabul","trendMapped":"kabul","trendVolume":83288},{"stateName":"NY","trendName":"Pulitzer","placeID":"2459115","placeName":"New York","searchUrl":"http:\/\/twitter.com\/search?q=Pulitzer","trendMapped":"pulitzer","trendVolume":140988},{"stateName":"NY","trendName":"Westbrook","placeID":"2459115","placeName":"New York","searchUrl":"http:\/\/twitter.com\/search?q=Westbrook","trendMapped":"westbrook","trendVolume":85340},{"stateName":"OH","trendName":"#BostonMarathon","placeID":"2380358","placeName":"Cincinnati","searchUrl":"http:\/\/twitter.com\/search?q=%23BostonMarathon","trendMapped":"boston+marathon","trendVolume":87105},{"stateName":"OH","trendName":"#DanielPadillaBenteUno","placeID":"2383660","placeName":"Columbus","searchUrl":"http:\/\/twitter.com\/search?q=%23DanielPadillaBenteUno","trendMapped":"daniel+padilla+bente+uno","trendVolume":143425},{"stateName":"OH","trendName":"#DolanTwinsNewVideo","placeID":"2380358","placeName":"Cincinnati","searchUrl":"http:\/\/twitter.com\/search?q=%23DolanTwinsNewVideo","trendMapped":"dolan+twins+new+video","trendVolume":134596},{"stateName":"OH","trendName":"#LHHATL","placeID":"2381475","placeName":"Cleveland","searchUrl":"http:\/\/twitter.com\/search?q=%23LHHATL","trendMapped":"lhhatl","trendVolume":98175},{"stateName":"OH","trendName":"#NYPrimary","placeID":"2383660","placeName":"Columbus","searchUrl":"http:\/\/twitter.com\/search?q=%23NYPrimary","trendMapped":"ny+primary","trendVolume":335931},{"stateName":"OH","trendName":"#YOUNGFOREVER","placeID":"2383660","placeName":"Columbus","searchUrl":"http:\/\/twitter.com\/search?q=%23YOUNGFOREVER","trendMapped":"youngforever","trendVolume":426849},{"stateName":"OH","trendName":"#mondaymotivation","placeID":"2383660","placeName":"Columbus","searchUrl":"http:\/\/twitter.com\/search?q=%23mondaymotivation","trendMapped":"mondaymotivation","trendVolume":165765},{"stateName":"OH","trendName":"Ecuador","placeID":"2381475","placeName":"Cleveland","searchUrl":"http:\/\/twitter.com\/search?q=Ecuador","trendMapped":"ecuador","trendVolume":593389},{"stateName":"OH","trendName":"Newcastle","placeID":"2381475","placeName":"Cleveland","searchUrl":"http:\/\/twitter.com\/search?q=Newcastle","trendMapped":"newcastle","trendVolume":99162},{"stateName":"OH","trendName":"Pulitzer","placeID":"2383660","placeName":"Columbus","searchUrl":"http:\/\/twitter.com\/search?q=Pulitzer","trendMapped":"pulitzer","trendVolume":139893},{"stateName":"OK","trendName":"#DanielPadillaBenteUno","placeID":"2464592","placeName":"Oklahoma City","searchUrl":"http:\/\/twitter.com\/search?q=%23DanielPadillaBenteUno","trendMapped":"daniel+padilla+bente+uno","trendVolume":143425},{"stateName":"OK","trendName":"#DolanTwinsNewVideo","placeID":"2464592","placeName":"Oklahoma City","searchUrl":"http:\/\/twitter.com\/search?q=%23DolanTwinsNewVideo","trendMapped":"dolan+twins+new+video","trendVolume":137751},{"stateName":"OK","trendName":"#LHHATL","placeID":"2464592","placeName":"Oklahoma City","searchUrl":"http:\/\/twitter.com\/search?q=%23LHHATL","trendMapped":"lhhatl","trendVolume":99908},{"stateName":"OK","trendName":"Ecuador","placeID":"2464592","placeName":"Oklahoma City","searchUrl":"http:\/\/twitter.com\/search?q=Ecuador","trendMapped":"ecuador","trendVolume":593389},{"stateName":"OK","trendName":"House","placeID":"2464592","placeName":"Oklahoma City","searchUrl":"http:\/\/twitter.com\/search?q=House","trendMapped":"house","trendVolume":527173},{"stateName":"OK","trendName":"Kabul","placeID":"2464592","placeName":"Oklahoma City","searchUrl":"http:\/\/twitter.com\/search?q=Kabul","trendMapped":"kabul","trendVolume":82179},{"stateName":"OK","trendName":"Pulitzer","placeID":"2464592","placeName":"Oklahoma City","searchUrl":"http:\/\/twitter.com\/search?q=Pulitzer","trendMapped":"pulitzer","trendVolume":145805},{"stateName":"OR","trendName":"#DanielPadillaBenteUno","placeID":"2475687","placeName":"Portland","searchUrl":"http:\/\/twitter.com\/search?q=%23DanielPadillaBenteUno","trendMapped":"daniel+padilla+bente+uno","trendVolume":145984},{"stateName":"OR","trendName":"#PrimaryDay","placeID":"2475687","placeName":"Portland","searchUrl":"http:\/\/twitter.com\/search?q=%23PrimaryDay","trendMapped":"primary+day","trendVolume":176364},{"stateName":"OR","trendName":"#YOUNGFOREVER","placeID":"2475687","placeName":"Portland","searchUrl":"http:\/\/twitter.com\/search?q=%23YOUNGFOREVER","trendMapped":"youngforever","trendVolume":416232},{"stateName":"OR","trendName":"#mondaymotivation","placeID":"2475687","placeName":"Portland","searchUrl":"http:\/\/twitter.com\/search?q=%23mondaymotivation","trendMapped":"mondaymotivation","trendVolume":166425},{"stateName":"OR","trendName":"Doris Roberts","placeID":"2475687","placeName":"Portland","searchUrl":"http:\/\/twitter.com\/search?q=%22Doris+Roberts%22","trendMapped":"Doris+Roberts","trendVolume":115252},{"stateName":"OR","trendName":"Pulitzer","placeID":"2475687","placeName":"Portland","searchUrl":"http:\/\/twitter.com\/search?q=Pulitzer","trendMapped":"pulitzer","trendVolume":157059},{"stateName":"PA","trendName":"#BostonMarathon","placeID":"2418046","placeName":"Harrisburg","searchUrl":"http:\/\/twitter.com\/search?q=%23BostonMarathon","trendMapped":"boston+marathon","trendVolume":87105},{"stateName":"PA","trendName":"#DolanTwinsNewVideo","placeID":"2473224","placeName":"Pittsburgh","searchUrl":"http:\/\/twitter.com\/search?q=%23DolanTwinsNewVideo","trendMapped":"dolan+twins+new+video","trendVolume":138429},{"stateName":"PA","trendName":"#LHHATL","placeID":"2473224","placeName":"Pittsburgh","searchUrl":"http:\/\/twitter.com\/search?q=%23LHHATL","trendMapped":"lhhatl","trendVolume":104160},{"stateName":"PA","trendName":"#NYPrimary","placeID":"2473224","placeName":"Pittsburgh","searchUrl":"http:\/\/twitter.com\/search?q=%23NYPrimary","trendMapped":"ny+primary","trendVolume":263330},{"stateName":"PA","trendName":"#Periscope","placeID":"2473224","placeName":"Pittsburgh","searchUrl":"http:\/\/twitter.com\/search?q=%23Periscope","trendMapped":"periscope","trendVolume":166780},{"stateName":"PA","trendName":"#PrimaryDay","placeID":"2471217","placeName":"Philadelphia","searchUrl":"http:\/\/twitter.com\/search?q=%23PrimaryDay","trendMapped":"primary+day","trendVolume":187159},{"stateName":"PA","trendName":"#Trump2016","placeID":"2473224","placeName":"Pittsburgh","searchUrl":"http:\/\/twitter.com\/search?q=%23Trump2016","trendMapped":"trump2016","trendVolume":85081},{"stateName":"PA","trendName":"#YOUNGFOREVER","placeID":"2473224","placeName":"Pittsburgh","searchUrl":"http:\/\/twitter.com\/search?q=%23YOUNGFOREVER","trendMapped":"youngforever","trendVolume":442758},{"stateName":"PA","trendName":"#mondaymotivation","placeID":"2418046","placeName":"Harrisburg","searchUrl":"http:\/\/twitter.com\/search?q=%23mondaymotivation","trendMapped":"mondaymotivation","trendVolume":165312},{"stateName":"PA","trendName":"Coachella","placeID":"2418046","placeName":"Harrisburg","searchUrl":"http:\/\/twitter.com\/search?q=Coachella","trendMapped":"coachella","trendVolume":795982},{"stateName":"PA","trendName":"Doris Roberts","placeID":"2473224","placeName":"Pittsburgh","searchUrl":"http:\/\/twitter.com\/search?q=%22Doris+Roberts%22","trendMapped":"Doris+Roberts","trendVolume":97672},{"stateName":"PA","trendName":"Ecuador","placeID":"2471217","placeName":"Philadelphia","searchUrl":"http:\/\/twitter.com\/search?q=Ecuador","trendMapped":"ecuador","trendVolume":604447},{"stateName":"PA","trendName":"Flyers","placeID":"2418046","placeName":"Harrisburg","searchUrl":"http:\/\/twitter.com\/search?q=Flyers","trendMapped":"flyers","trendVolume":78450},{"stateName":"PA","trendName":"Kabul","placeID":"2471217","placeName":"Philadelphia","searchUrl":"http:\/\/twitter.com\/search?q=Kabul","trendMapped":"kabul","trendVolume":88097},{"stateName":"PA","trendName":"Pulitzer","placeID":"2473224","placeName":"Pittsburgh","searchUrl":"http:\/\/twitter.com\/search?q=Pulitzer","trendMapped":"pulitzer","trendVolume":149647},{"stateName":"RI","trendName":"#mondaymotivation","placeID":"2477058","placeName":"Providence","searchUrl":"http:\/\/twitter.com\/search?q=%23mondaymotivation","trendMapped":"mondaymotivation","trendVolume":165137},{"stateName":"RI","trendName":"Trump","placeID":"2477058","placeName":"Providence","searchUrl":"http:\/\/twitter.com\/search?q=Trump","trendMapped":"trump","trendVolume":785046},{"stateName":"TN","trendName":"#LHHATL","placeID":"2449323","placeName":"Memphis","searchUrl":"http:\/\/twitter.com\/search?q=%23LHHATL","trendMapped":"lhhatl","trendVolume":100331},{"stateName":"TN","trendName":"#YOUNGFOREVER","placeID":"2457170","placeName":"Nashville","searchUrl":"http:\/\/twitter.com\/search?q=%23YOUNGFOREVER","trendMapped":"youngforever","trendVolume":426849},{"stateName":"TN","trendName":"#mondaymotivation","placeID":"2457170","placeName":"Nashville","searchUrl":"http:\/\/twitter.com\/search?q=%23mondaymotivation","trendMapped":"mondaymotivation","trendVolume":165820},{"stateName":"TN","trendName":"Doris Roberts","placeID":"2457170","placeName":"Nashville","searchUrl":"http:\/\/twitter.com\/search?q=%22Doris+Roberts%22","trendMapped":"Doris+Roberts","trendVolume":116719},{"stateName":"TN","trendName":"Ecuador","placeID":"2457170","placeName":"Nashville","searchUrl":"http:\/\/twitter.com\/search?q=Ecuador","trendMapped":"ecuador","trendVolume":592122},{"stateName":"TN","trendName":"Snapchat","placeID":"2449323","placeName":"Memphis","searchUrl":"http:\/\/twitter.com\/search?q=Snapchat","trendMapped":"snapchat","trendVolume":341412},{"stateName":"TX","trendName":"#DolanTwinsNewVideo","placeID":"2487796","placeName":"San Antonio","searchUrl":"http:\/\/twitter.com\/search?q=%23DolanTwinsNewVideo","trendMapped":"dolan+twins+new+video","trendVolume":138213},{"stateName":"TX","trendName":"#LHHATL","placeID":"2424766","placeName":"Houston","searchUrl":"http:\/\/twitter.com\/search?q=%23LHHATL","trendMapped":"lhhatl","trendVolume":106604},{"stateName":"TX","trendName":"#NYPrimary","placeID":"2487796","placeName":"San Antonio","searchUrl":"http:\/\/twitter.com\/search?q=%23NYPrimary","trendMapped":"ny+primary","trendVolume":335931},{"stateName":"TX","trendName":"#YOUNGFOREVER","placeID":"2487796","placeName":"San Antonio","searchUrl":"http:\/\/twitter.com\/search?q=%23YOUNGFOREVER","trendMapped":"youngforever","trendVolume":416232},{"stateName":"TX","trendName":"#mondaymotivation","placeID":"2388929","placeName":"Dallas-Ft. Worth","searchUrl":"http:\/\/twitter.com\/search?q=%23mondaymotivation","trendMapped":"mondaymotivation","trendVolume":157943},{"stateName":"TX","trendName":"Coachella","placeID":"2397816","placeName":"El Paso","searchUrl":"http:\/\/twitter.com\/search?q=Coachella","trendMapped":"coachella","trendVolume":719693},{"stateName":"TX","trendName":"Doris Roberts","placeID":"2424766","placeName":"Houston","searchUrl":"http:\/\/twitter.com\/search?q=%22Doris+Roberts%22","trendMapped":"Doris+Roberts","trendVolume":97672},{"stateName":"TX","trendName":"Ecuador","placeID":"2397816","placeName":"El Paso","searchUrl":"http:\/\/twitter.com\/search?q=Ecuador","trendMapped":"ecuador","trendVolume":672656},{"stateName":"TX","trendName":"Kabul","placeID":"2357536","placeName":"Austin","searchUrl":"http:\/\/twitter.com\/search?q=Kabul","trendMapped":"kabul","trendVolume":79097},{"stateName":"TX","trendName":"Newcastle","placeID":"2487796","placeName":"San Antonio","searchUrl":"http:\/\/twitter.com\/search?q=Newcastle","trendMapped":"newcastle","trendVolume":98609},{"stateName":"TX","trendName":"Pulitzer","placeID":"2487796","placeName":"San Antonio","searchUrl":"http:\/\/twitter.com\/search?q=Pulitzer","trendMapped":"pulitzer","trendVolume":140988},{"stateName":"TX","trendName":"Rockets","placeID":"2487796","placeName":"San Antonio","searchUrl":"http:\/\/twitter.com\/search?q=Rockets","trendMapped":"rockets","trendVolume":77845},{"stateName":"TX","trendName":"Trump","placeID":"2397816","placeName":"El Paso","searchUrl":"http:\/\/twitter.com\/search?q=Trump","trendMapped":"trump","trendVolume":785046},{"stateName":"TX","trendName":"Warriors","placeID":"2487796","placeName":"San Antonio","searchUrl":"http:\/\/twitter.com\/search?q=Warriors","trendMapped":"warriors","trendVolume":128254},{"stateName":"UT","trendName":"#NYPrimary","placeID":"2487610","placeName":"Salt Lake City","searchUrl":"http:\/\/twitter.com\/search?q=%23NYPrimary","trendMapped":"ny+primary","trendVolume":258541},{"stateName":"UT","trendName":"#PrimaryDay","placeID":"2487610","placeName":"Salt Lake City","searchUrl":"http:\/\/twitter.com\/search?q=%23PrimaryDay","trendMapped":"primary+day","trendVolume":185816},{"stateName":"UT","trendName":"#YOUNGFOREVER","placeID":"2487610","placeName":"Salt Lake City","searchUrl":"http:\/\/twitter.com\/search?q=%23YOUNGFOREVER","trendMapped":"youngforever","trendVolume":385064},{"stateName":"UT","trendName":"#mondaymotivation","placeID":"2487610","placeName":"Salt Lake City","searchUrl":"http:\/\/twitter.com\/search?q=%23mondaymotivation","trendMapped":"mondaymotivation","trendVolume":166117},{"stateName":"UT","trendName":"Ecuador","placeID":"2487610","placeName":"Salt Lake City","searchUrl":"http:\/\/twitter.com\/search?q=Ecuador","trendMapped":"ecuador","trendVolume":603067},{"stateName":"VA","trendName":"#DolanTwinsNewVideo","placeID":"2512636","placeName":"Virginia Beach","searchUrl":"http:\/\/twitter.com\/search?q=%23DolanTwinsNewVideo","trendMapped":"dolan+twins+new+video","trendVolume":138429},{"stateName":"VA","trendName":"#LHHATL","placeID":"2512636","placeName":"Virginia Beach","searchUrl":"http:\/\/twitter.com\/search?q=%23LHHATL","trendMapped":"lhhatl","trendVolume":101242},{"stateName":"VA","trendName":"#PrimaryDay","placeID":"2460389","placeName":"Norfolk","searchUrl":"http:\/\/twitter.com\/search?q=%23PrimaryDay","trendMapped":"primary+day","trendVolume":181123},{"stateName":"VA","trendName":"#YOUNGFOREVER","placeID":"2512636","placeName":"Virginia Beach","searchUrl":"http:\/\/twitter.com\/search?q=%23YOUNGFOREVER","trendMapped":"youngforever","trendVolume":442758},{"stateName":"VA","trendName":"Coachella","placeID":"2480894","placeName":"Richmond","searchUrl":"http:\/\/twitter.com\/search?q=Coachella","trendMapped":"coachella","trendVolume":776917},{"stateName":"VA","trendName":"Doris Roberts","placeID":"2460389","placeName":"Norfolk","searchUrl":"http:\/\/twitter.com\/search?q=%22Doris+Roberts%22","trendMapped":"Doris+Roberts","trendVolume":117255},{"stateName":"VA","trendName":"Ecuador","placeID":"2460389","placeName":"Norfolk","searchUrl":"http:\/\/twitter.com\/search?q=Ecuador","trendMapped":"ecuador","trendVolume":604447},{"stateName":"VA","trendName":"Jordan","placeID":"2480894","placeName":"Richmond","searchUrl":"http:\/\/twitter.com\/search?q=Jordan","trendMapped":"jordan","trendVolume":149401},{"stateName":"VA","trendName":"Kabul","placeID":"2512636","placeName":"Virginia Beach","searchUrl":"http:\/\/twitter.com\/search?q=Kabul","trendMapped":"kabul","trendVolume":88097},{"stateName":"VA","trendName":"Newcastle","placeID":"2512636","placeName":"Virginia Beach","searchUrl":"http:\/\/twitter.com\/search?q=Newcastle","trendMapped":"newcastle","trendVolume":100121},{"stateName":"VA","trendName":"Pulitzer","placeID":"2512636","placeName":"Virginia Beach","searchUrl":"http:\/\/twitter.com\/search?q=Pulitzer","trendMapped":"pulitzer","trendVolume":145278},{"stateName":"VA","trendName":"Trump","placeID":"2480894","placeName":"Richmond","searchUrl":"http:\/\/twitter.com\/search?q=Trump","trendMapped":"trump","trendVolume":789292},{"stateName":"WA","trendName":"#NYPrimary","placeID":"2490383","placeName":"Seattle","searchUrl":"http:\/\/twitter.com\/search?q=%23NYPrimary","trendMapped":"ny+primary","trendVolume":182752},{"stateName":"WA","trendName":"#YOUNGFOREVER","placeID":"2490383","placeName":"Seattle","searchUrl":"http:\/\/twitter.com\/search?q=%23YOUNGFOREVER","trendMapped":"youngforever","trendVolume":437386},{"stateName":"WA","trendName":"#mondaymotivation","placeID":"2490383","placeName":"Seattle","searchUrl":"http:\/\/twitter.com\/search?q=%23mondaymotivation","trendMapped":"mondaymotivation","trendVolume":165607},{"stateName":"WA","trendName":"Ecuador","placeID":"2490383","placeName":"Seattle","searchUrl":"http:\/\/twitter.com\/search?q=Ecuador","trendMapped":"ecuador","trendVolume":603067},{"stateName":"WA","trendName":"Pulitzer","placeID":"2490383","placeName":"Seattle","searchUrl":"http:\/\/twitter.com\/search?q=Pulitzer","trendMapped":"pulitzer","trendVolume":152019},{"stateName":"WI","trendName":"#NYPrimary","placeID":"2451822","placeName":"Milwaukee","searchUrl":"http:\/\/twitter.com\/search?q=%23NYPrimary","trendMapped":"ny+primary","trendVolume":263330},{"stateName":"WI","trendName":"#YOUNGFOREVER","placeID":"2451822","placeName":"Milwaukee","searchUrl":"http:\/\/twitter.com\/search?q=%23YOUNGFOREVER","trendMapped":"youngforever","trendVolume":432079},{"stateName":"WI","trendName":"#mondaymotivation","placeID":"2451822","placeName":"Milwaukee","searchUrl":"http:\/\/twitter.com\/search?q=%23mondaymotivation","trendMapped":"mondaymotivation","trendVolume":166425},{"stateName":"WI","trendName":"America","placeID":"2451822","placeName":"Milwaukee","searchUrl":"http:\/\/twitter.com\/search?q=America","trendMapped":"america","trendVolume":323596},{"stateName":"WI","trendName":"Ecuador","placeID":"2451822","placeName":"Milwaukee","searchUrl":"http:\/\/twitter.com\/search?q=Ecuador","trendMapped":"ecuador","trendVolume":593389},{"stateName":"WI","trendName":"Pulitzer","placeID":"2451822","placeName":"Milwaukee","searchUrl":"http:\/\/twitter.com\/search?q=Pulitzer","trendMapped":"pulitzer","trendVolume":139893},{"stateName":"XX","trendName":"#DolanTwinsNewVideo","placeID":"23424977","placeName":"United States","searchUrl":"http:\/\/twitter.com\/search?q=%23DolanTwinsNewVideo","trendMapped":"dolan+twins+new+video","trendVolume":138213},{"stateName":"XX","trendName":"#LHHATL","placeID":"23424977","placeName":"United States","searchUrl":"http:\/\/twitter.com\/search?q=%23LHHATL","trendMapped":"lhhatl","trendVolume":99020},{"stateName":"XX","trendName":"#YOUNGFOREVER","placeID":"23424977","placeName":"United States","searchUrl":"http:\/\/twitter.com\/search?q=%23YOUNGFOREVER","trendMapped":"youngforever","trendVolume":401020},{"stateName":"XX","trendName":"Kabul","placeID":"23424977","placeName":"United States","searchUrl":"http:\/\/twitter.com\/search?q=Kabul","trendMapped":"kabul","trendVolume":88097},{"stateName":"XX","trendName":"Newcastle","placeID":"23424977","placeName":"United States","searchUrl":"http:\/\/twitter.com\/search?q=Newcastle","trendMapped":"newcastle","trendVolume":99162},{"stateName":"XX","trendName":"Pulitzer","placeID":"23424977","placeName":"United States","searchUrl":"http:\/\/twitter.com\/search?q=Pulitzer","trendMapped":"pulitzer","trendVolume":138850}]