[{"stateName":"AL","trendName":"#Impeachment","placeID":"2364559","placeName":"Birmingham","searchUrl":"http:\/\/twitter.com\/search?q=%23Impeachment","trendMapped":"impeachment","trendVolume":168493},{"stateName":"AL","trendName":"#ImpeachmentDay","placeID":"2364559","placeName":"Birmingham","searchUrl":"http:\/\/twitter.com\/search?q=%23ImpeachmentDay","trendMapped":"impeachment+day","trendVolume":1728824},{"stateName":"AL","trendName":"#mondaymotivation","placeID":"2364559","placeName":"Birmingham","searchUrl":"http:\/\/twitter.com\/search?q=%23mondaymotivation","trendMapped":"mondaymotivation","trendVolume":155087},{"stateName":"AL","trendName":"Coachella","placeID":"2364559","placeName":"Birmingham","searchUrl":"http:\/\/twitter.com\/search?q=Coachella","trendMapped":"coachella","trendVolume":1126906},{"stateName":"AL","trendName":"Ecuador","placeID":"2364559","placeName":"Birmingham","searchUrl":"http:\/\/twitter.com\/search?q=Ecuador","trendMapped":"ecuador","trendVolume":1029650},{"stateName":"AZ","trendName":"#BuyLetMeLoveYouOniTunes","placeID":"2449808","placeName":"Mesa","searchUrl":"http:\/\/twitter.com\/search?q=%23BuyLetMeLoveYouOniTunes","trendMapped":"buy+let+me+love+you+oni+tunes","trendVolume":75520},{"stateName":"AZ","trendName":"#DolanTwinsNewVideo","placeID":"2508428","placeName":"Tucson","searchUrl":"http:\/\/twitter.com\/search?q=%23DolanTwinsNewVideo","trendMapped":"dolan+twins+new+video","trendVolume":122641},{"stateName":"AZ","trendName":"#Impeachment","placeID":"2508428","placeName":"Tucson","searchUrl":"http:\/\/twitter.com\/search?q=%23Impeachment","trendMapped":"impeachment","trendVolume":171125},{"stateName":"AZ","trendName":"#ImpeachmentDay","placeID":"2449808","placeName":"Mesa","searchUrl":"http:\/\/twitter.com\/search?q=%23ImpeachmentDay","trendMapped":"impeachment+day","trendVolume":1655504},{"stateName":"AZ","trendName":"#mondaymotivation","placeID":"2508428","placeName":"Tucson","searchUrl":"http:\/\/twitter.com\/search?q=%23mondaymotivation","trendMapped":"mondaymotivation","trendVolume":141822},{"stateName":"AZ","trendName":"Coachella","placeID":"2508428","placeName":"Tucson","searchUrl":"http:\/\/twitter.com\/search?q=Coachella","trendMapped":"coachella","trendVolume":1006783},{"stateName":"AZ","trendName":"Ecuador","placeID":"2508428","placeName":"Tucson","searchUrl":"http:\/\/twitter.com\/search?q=Ecuador","trendMapped":"ecuador","trendVolume":1250845},{"stateName":"AZ","trendName":"Johnny Depp","placeID":"2508428","placeName":"Tucson","searchUrl":"http:\/\/twitter.com\/search?q=%22Johnny+Depp%22","trendMapped":"Johnny+Depp","trendVolume":42852},{"stateName":"CA","trendName":"#BuyLetMeLoveYouOniTunes","placeID":"2488042","placeName":"San Jose","searchUrl":"http:\/\/twitter.com\/search?q=%23BuyLetMeLoveYouOniTunes","trendMapped":"buy+let+me+love+you+oni+tunes","trendVolume":75995},{"stateName":"CA","trendName":"#DolanTwinsNewVideo","placeID":"2488042","placeName":"San Jose","searchUrl":"http:\/\/twitter.com\/search?q=%23DolanTwinsNewVideo","trendMapped":"dolan+twins+new+video","trendVolume":125560},{"stateName":"CA","trendName":"#Impeachment","placeID":"2488042","placeName":"San Jose","searchUrl":"http:\/\/twitter.com\/search?q=%23Impeachment","trendMapped":"impeachment","trendVolume":170423},{"stateName":"CA","trendName":"#ImpeachmentDay","placeID":"2488042","placeName":"San Jose","searchUrl":"http:\/\/twitter.com\/search?q=%23ImpeachmentDay","trendMapped":"impeachment+day","trendVolume":1804724},{"stateName":"CA","trendName":"#WorldHeritageDay","placeID":"2407517","placeName":"Fresno","searchUrl":"http:\/\/twitter.com\/search?q=%23WorldHeritageDay","trendMapped":"world+heritage+day","trendVolume":19780},{"stateName":"CA","trendName":"#impeachment","placeID":"2488042","placeName":"San Jose","searchUrl":"http:\/\/twitter.com\/search?q=%23impeachment","trendMapped":"impeachment","trendVolume":99446},{"stateName":"CA","trendName":"#mondaymotivation","placeID":"2488042","placeName":"San Jose","searchUrl":"http:\/\/twitter.com\/search?q=%23mondaymotivation","trendMapped":"mondaymotivation","trendVolume":156649},{"stateName":"CA","trendName":"Cavs","placeID":"2407517","placeName":"Fresno","searchUrl":"http:\/\/twitter.com\/search?q=Cavs","trendMapped":"cavs","trendVolume":117451},{"stateName":"CA","trendName":"Coachella","placeID":"2487956","placeName":"San Francisco","searchUrl":"http:\/\/twitter.com\/search?q=Coachella","trendMapped":"coachella","trendVolume":1020804},{"stateName":"CA","trendName":"Ecuador","placeID":"2488042","placeName":"San Jose","searchUrl":"http:\/\/twitter.com\/search?q=Ecuador","trendMapped":"ecuador","trendVolume":1299726},{"stateName":"CA","trendName":"Girls","placeID":"2487956","placeName":"San Francisco","searchUrl":"http:\/\/twitter.com\/search?q=Girls","trendMapped":"girls","trendVolume":755605},{"stateName":"CA","trendName":"Johnny Depp","placeID":"2441472","placeName":"Long Beach","searchUrl":"http:\/\/twitter.com\/search?q=%22Johnny+Depp%22","trendMapped":"Johnny+Depp","trendVolume":41609},{"stateName":"CA","trendName":"Spurs","placeID":"2486340","placeName":"Sacramento","searchUrl":"http:\/\/twitter.com\/search?q=Spurs","trendMapped":"spurs","trendVolume":134600},{"stateName":"CO","trendName":"#BuyLetMeLoveYouOniTunes","placeID":"2383489","placeName":"Colorado Springs","searchUrl":"http:\/\/twitter.com\/search?q=%23BuyLetMeLoveYouOniTunes","trendMapped":"buy+let+me+love+you+oni+tunes","trendVolume":76384},{"stateName":"CO","trendName":"#DolanTwinsNewVideo","placeID":"2383489","placeName":"Colorado Springs","searchUrl":"http:\/\/twitter.com\/search?q=%23DolanTwinsNewVideo","trendMapped":"dolan+twins+new+video","trendVolume":117481},{"stateName":"CO","trendName":"#Impeachment","placeID":"2383489","placeName":"Colorado Springs","searchUrl":"http:\/\/twitter.com\/search?q=%23Impeachment","trendMapped":"impeachment","trendVolume":165479},{"stateName":"CO","trendName":"#ImpeachmentDay","placeID":"2391279","placeName":"Denver","searchUrl":"http:\/\/twitter.com\/search?q=%23ImpeachmentDay","trendMapped":"impeachment+day","trendVolume":1728824},{"stateName":"CO","trendName":"#mondaymotivation","placeID":"2391279","placeName":"Denver","searchUrl":"http:\/\/twitter.com\/search?q=%23mondaymotivation","trendMapped":"mondaymotivation","trendVolume":141822},{"stateName":"CO","trendName":"Cavs","placeID":"2383489","placeName":"Colorado Springs","searchUrl":"http:\/\/twitter.com\/search?q=Cavs","trendMapped":"cavs","trendVolume":116809},{"stateName":"CO","trendName":"Coachella","placeID":"2391279","placeName":"Denver","searchUrl":"http:\/\/twitter.com\/search?q=Coachella","trendMapped":"coachella","trendVolume":1073825},{"stateName":"CO","trendName":"Ecuador","placeID":"2383489","placeName":"Colorado Springs","searchUrl":"http:\/\/twitter.com\/search?q=Ecuador","trendMapped":"ecuador","trendVolume":1038543},{"stateName":"CO","trendName":"Johnny Depp","placeID":"2383489","placeName":"Colorado Springs","searchUrl":"http:\/\/twitter.com\/search?q=%22Johnny+Depp%22","trendMapped":"Johnny+Depp","trendVolume":40152},{"stateName":"CO","trendName":"Pulitzer","placeID":"2383489","placeName":"Colorado Springs","searchUrl":"http:\/\/twitter.com\/search?q=Pulitzer","trendMapped":"pulitzer","trendVolume":90992},{"stateName":"CT","trendName":"#Impeachment","placeID":"2458410","placeName":"New Haven","searchUrl":"http:\/\/twitter.com\/search?q=%23Impeachment","trendMapped":"impeachment","trendVolume":170423},{"stateName":"CT","trendName":"#NBAPlayoffs","placeID":"2458410","placeName":"New Haven","searchUrl":"http:\/\/twitter.com\/search?q=%23NBAPlayoffs","trendMapped":"nba+playoffs","trendVolume":95258},{"stateName":"CT","trendName":"#mondaymotivation","placeID":"2458410","placeName":"New Haven","searchUrl":"http:\/\/twitter.com\/search?q=%23mondaymotivation","trendMapped":"mondaymotivation","trendVolume":138320},{"stateName":"CT","trendName":"Cavs","placeID":"2458410","placeName":"New Haven","searchUrl":"http:\/\/twitter.com\/search?q=Cavs","trendMapped":"cavs","trendVolume":122224},{"stateName":"CT","trendName":"Ecuador","placeID":"2458410","placeName":"New Haven","searchUrl":"http:\/\/twitter.com\/search?q=Ecuador","trendMapped":"ecuador","trendVolume":1027126},{"stateName":"CT","trendName":"La Liga","placeID":"2458410","placeName":"New Haven","searchUrl":"http:\/\/twitter.com\/search?q=%22La+Liga%22","trendMapped":"La+Liga","trendVolume":154828},{"stateName":"CT","trendName":"LeBron","placeID":"2458410","placeName":"New Haven","searchUrl":"http:\/\/twitter.com\/search?q=LeBron","trendMapped":"le+bron","trendVolume":139739},{"stateName":"CT","trendName":"Pulitzer","placeID":"2458410","placeName":"New Haven","searchUrl":"http:\/\/twitter.com\/search?q=Pulitzer","trendMapped":"pulitzer","trendVolume":94111},{"stateName":"DC","trendName":"#ImpeachmentDay","placeID":"2514815","placeName":"Washington","searchUrl":"http:\/\/twitter.com\/search?q=%23ImpeachmentDay","trendMapped":"impeachment+day","trendVolume":1602446},{"stateName":"DC","trendName":"#mondaymotivation","placeID":"2514815","placeName":"Washington","searchUrl":"http:\/\/twitter.com\/search?q=%23mondaymotivation","trendMapped":"mondaymotivation","trendVolume":143528},{"stateName":"DC","trendName":"Cavs","placeID":"2514815","placeName":"Washington","searchUrl":"http:\/\/twitter.com\/search?q=Cavs","trendMapped":"cavs","trendVolume":117654},{"stateName":"DC","trendName":"Coachella","placeID":"2514815","placeName":"Washington","searchUrl":"http:\/\/twitter.com\/search?q=Coachella","trendMapped":"coachella","trendVolume":1030303},{"stateName":"DC","trendName":"Dilma Rousseff","placeID":"2514815","placeName":"Washington","searchUrl":"http:\/\/twitter.com\/search?q=%22Dilma+Rousseff%22","trendMapped":"Dilma+Rousseff","trendVolume":125479},{"stateName":"DC","trendName":"Ecuador","placeID":"2514815","placeName":"Washington","searchUrl":"http:\/\/twitter.com\/search?q=Ecuador","trendMapped":"ecuador","trendVolume":1025710},{"stateName":"DC","trendName":"Jerusalem","placeID":"2514815","placeName":"Washington","searchUrl":"http:\/\/twitter.com\/search?q=Jerusalem","trendMapped":"jerusalem","trendVolume":102421},{"stateName":"DC","trendName":"Pulitzer","placeID":"2514815","placeName":"Washington","searchUrl":"http:\/\/twitter.com\/search?q=Pulitzer","trendMapped":"pulitzer","trendVolume":90992},{"stateName":"DC","trendName":"Rousseff","placeID":"2514815","placeName":"Washington","searchUrl":"http:\/\/twitter.com\/search?q=Rousseff","trendMapped":"rousseff","trendVolume":162473},{"stateName":"FL","trendName":"#BuyLetMeLoveYouOniTunes","placeID":"2503863","placeName":"Tampa","searchUrl":"http:\/\/twitter.com\/search?q=%23BuyLetMeLoveYouOniTunes","trendMapped":"buy+let+me+love+you+oni+tunes","trendVolume":86196},{"stateName":"FL","trendName":"#Impeachment","placeID":"2503863","placeName":"Tampa","searchUrl":"http:\/\/twitter.com\/search?q=%23Impeachment","trendMapped":"impeachment","trendVolume":171937},{"stateName":"FL","trendName":"#ImpeachmentDay","placeID":"2503863","placeName":"Tampa","searchUrl":"http:\/\/twitter.com\/search?q=%23ImpeachmentDay","trendMapped":"impeachment+day","trendVolume":1728824},{"stateName":"FL","trendName":"#Periscope","placeID":"2428344","placeName":"Jacksonville","searchUrl":"http:\/\/twitter.com\/search?q=%23Periscope","trendMapped":"periscope","trendVolume":206364},{"stateName":"FL","trendName":"#mondaymotivation","placeID":"2503863","placeName":"Tampa","searchUrl":"http:\/\/twitter.com\/search?q=%23mondaymotivation","trendMapped":"mondaymotivation","trendVolume":145171},{"stateName":"FL","trendName":"Bernie","placeID":"2503713","placeName":"Tallahassee","searchUrl":"http:\/\/twitter.com\/search?q=Bernie","trendMapped":"bernie","trendVolume":275771},{"stateName":"FL","trendName":"Coachella","placeID":"2503713","placeName":"Tallahassee","searchUrl":"http:\/\/twitter.com\/search?q=Coachella","trendMapped":"coachella","trendVolume":1077032},{"stateName":"FL","trendName":"Ecuador","placeID":"2503863","placeName":"Tampa","searchUrl":"http:\/\/twitter.com\/search?q=Ecuador","trendMapped":"ecuador","trendVolume":1058839},{"stateName":"FL","trendName":"Heat","placeID":"2503863","placeName":"Tampa","searchUrl":"http:\/\/twitter.com\/search?q=Heat","trendMapped":"heat","trendVolume":109475},{"stateName":"FL","trendName":"Snapchat","placeID":"2503713","placeName":"Tallahassee","searchUrl":"http:\/\/twitter.com\/search?q=Snapchat","trendMapped":"snapchat","trendVolume":371651},{"stateName":"FL","trendName":"Spurs","placeID":"2503863","placeName":"Tampa","searchUrl":"http:\/\/twitter.com\/search?q=Spurs","trendMapped":"spurs","trendVolume":222792},{"stateName":"GA","trendName":"#Impeachment","placeID":"2357024","placeName":"Atlanta","searchUrl":"http:\/\/twitter.com\/search?q=%23Impeachment","trendMapped":"impeachment","trendVolume":160174},{"stateName":"GA","trendName":"#impeachment","placeID":"2357024","placeName":"Atlanta","searchUrl":"http:\/\/twitter.com\/search?q=%23impeachment","trendMapped":"impeachment","trendVolume":96954},{"stateName":"GA","trendName":"#mondaymotivation","placeID":"2357024","placeName":"Atlanta","searchUrl":"http:\/\/twitter.com\/search?q=%23mondaymotivation","trendMapped":"mondaymotivation","trendVolume":156649},{"stateName":"GA","trendName":"Ecuador","placeID":"2357024","placeName":"Atlanta","searchUrl":"http:\/\/twitter.com\/search?q=Ecuador","trendMapped":"ecuador","trendVolume":1096760},{"stateName":"HI","trendName":"Coachella","placeID":"2423945","placeName":"Honolulu","searchUrl":"http:\/\/twitter.com\/search?q=Coachella","trendMapped":"coachella","trendVolume":1050258},{"stateName":"HI","trendName":"Ecuador","placeID":"2423945","placeName":"Honolulu","searchUrl":"http:\/\/twitter.com\/search?q=Ecuador","trendMapped":"ecuador","trendVolume":1213589},{"stateName":"IL","trendName":"#Impeachment","placeID":"2379574","placeName":"Chicago","searchUrl":"http:\/\/twitter.com\/search?q=%23Impeachment","trendMapped":"impeachment","trendVolume":171391},{"stateName":"IL","trendName":"#ImpeachmentDay","placeID":"2379574","placeName":"Chicago","searchUrl":"http:\/\/twitter.com\/search?q=%23ImpeachmentDay","trendMapped":"impeachment+day","trendVolume":1804724},{"stateName":"IL","trendName":"#impeachment","placeID":"2379574","placeName":"Chicago","searchUrl":"http:\/\/twitter.com\/search?q=%23impeachment","trendMapped":"impeachment","trendVolume":104470},{"stateName":"IL","trendName":"#mondaymotivation","placeID":"2379574","placeName":"Chicago","searchUrl":"http:\/\/twitter.com\/search?q=%23mondaymotivation","trendMapped":"mondaymotivation","trendVolume":137448},{"stateName":"IL","trendName":"Cavs","placeID":"2379574","placeName":"Chicago","searchUrl":"http:\/\/twitter.com\/search?q=Cavs","trendMapped":"cavs","trendVolume":118004},{"stateName":"IL","trendName":"Coachella","placeID":"2379574","placeName":"Chicago","searchUrl":"http:\/\/twitter.com\/search?q=Coachella","trendMapped":"coachella","trendVolume":996329},{"stateName":"IL","trendName":"Ecuador","placeID":"2379574","placeName":"Chicago","searchUrl":"http:\/\/twitter.com\/search?q=Ecuador","trendMapped":"ecuador","trendVolume":1026258},{"stateName":"IL","trendName":"Jerusalem","placeID":"2379574","placeName":"Chicago","searchUrl":"http:\/\/twitter.com\/search?q=Jerusalem","trendMapped":"jerusalem","trendVolume":103727},{"stateName":"IL","trendName":"Pistons","placeID":"2379574","placeName":"Chicago","searchUrl":"http:\/\/twitter.com\/search?q=Pistons","trendMapped":"pistons","trendVolume":92164},{"stateName":"IN","trendName":"#Impeachment","placeID":"2427032","placeName":"Indianapolis","searchUrl":"http:\/\/twitter.com\/search?q=%23Impeachment","trendMapped":"impeachment","trendVolume":168597},{"stateName":"IN","trendName":"#ImpeachmentDay","placeID":"2427032","placeName":"Indianapolis","searchUrl":"http:\/\/twitter.com\/search?q=%23ImpeachmentDay","trendMapped":"impeachment+day","trendVolume":1655504},{"stateName":"IN","trendName":"#mondaymotivation","placeID":"2427032","placeName":"Indianapolis","searchUrl":"http:\/\/twitter.com\/search?q=%23mondaymotivation","trendMapped":"mondaymotivation","trendVolume":143528},{"stateName":"IN","trendName":"LeBron","placeID":"2427032","placeName":"Indianapolis","searchUrl":"http:\/\/twitter.com\/search?q=LeBron","trendMapped":"le+bron","trendVolume":139987},{"stateName":"KY","trendName":"#ImpeachmentDay","placeID":"2442327","placeName":"Louisville","searchUrl":"http:\/\/twitter.com\/search?q=%23ImpeachmentDay","trendMapped":"impeachment+day","trendVolume":1506014},{"stateName":"KY","trendName":"Cards","placeID":"2442327","placeName":"Louisville","searchUrl":"http:\/\/twitter.com\/search?q=Cards","trendMapped":"cards","trendVolume":273531},{"stateName":"KY","trendName":"Coachella","placeID":"2442327","placeName":"Louisville","searchUrl":"http:\/\/twitter.com\/search?q=Coachella","trendMapped":"coachella","trendVolume":1066732},{"stateName":"KY","trendName":"Ecuador","placeID":"2442327","placeName":"Louisville","searchUrl":"http:\/\/twitter.com\/search?q=Ecuador","trendMapped":"ecuador","trendVolume":1029650},{"stateName":"LA","trendName":"#Impeachment","placeID":"2359991","placeName":"Baton Rouge","searchUrl":"http:\/\/twitter.com\/search?q=%23Impeachment","trendMapped":"impeachment","trendVolume":168851},{"stateName":"LA","trendName":"#ImpeachmentDay","placeID":"2359991","placeName":"Baton Rouge","searchUrl":"http:\/\/twitter.com\/search?q=%23ImpeachmentDay","trendMapped":"impeachment+day","trendVolume":1506014},{"stateName":"LA","trendName":"#mondaymotivation","placeID":"2458833","placeName":"New Orleans","searchUrl":"http:\/\/twitter.com\/search?q=%23mondaymotivation","trendMapped":"mondaymotivation","trendVolume":140266},{"stateName":"LA","trendName":"Beyonc\u00e9","placeID":"2359991","placeName":"Baton Rouge","searchUrl":"http:\/\/twitter.com\/search?q=Beyonc%C3%A9","trendMapped":"beyonc\u00e9","trendVolume":126147},{"stateName":"LA","trendName":"Coachella","placeID":"2458833","placeName":"New Orleans","searchUrl":"http:\/\/twitter.com\/search?q=Coachella","trendMapped":"coachella","trendVolume":1119713},{"stateName":"MA","trendName":"#DolanTwinsNewVideo","placeID":"2367105","placeName":"Boston","searchUrl":"http:\/\/twitter.com\/search?q=%23DolanTwinsNewVideo","trendMapped":"dolan+twins+new+video","trendVolume":101988},{"stateName":"MA","trendName":"#Impeachment","placeID":"2367105","placeName":"Boston","searchUrl":"http:\/\/twitter.com\/search?q=%23Impeachment","trendMapped":"impeachment","trendVolume":160174},{"stateName":"MA","trendName":"#ImpeachmentDay","placeID":"2367105","placeName":"Boston","searchUrl":"http:\/\/twitter.com\/search?q=%23ImpeachmentDay","trendMapped":"impeachment+day","trendVolume":2203923},{"stateName":"MA","trendName":"#mondaymotivation","placeID":"2367105","placeName":"Boston","searchUrl":"http:\/\/twitter.com\/search?q=%23mondaymotivation","trendMapped":"mondaymotivation","trendVolume":141822},{"stateName":"MA","trendName":"Ecuador","placeID":"2367105","placeName":"Boston","searchUrl":"http:\/\/twitter.com\/search?q=Ecuador","trendMapped":"ecuador","trendVolume":1023461},{"stateName":"MA","trendName":"Jerusalem","placeID":"2367105","placeName":"Boston","searchUrl":"http:\/\/twitter.com\/search?q=Jerusalem","trendMapped":"jerusalem","trendVolume":102978},{"stateName":"MA","trendName":"Pulitzer","placeID":"2367105","placeName":"Boston","searchUrl":"http:\/\/twitter.com\/search?q=Pulitzer","trendMapped":"pulitzer","trendVolume":94111},{"stateName":"MD","trendName":"#ImpeachmentDay","placeID":"2358820","placeName":"Baltimore","searchUrl":"http:\/\/twitter.com\/search?q=%23ImpeachmentDay","trendMapped":"impeachment+day","trendVolume":1780550},{"stateName":"MD","trendName":"#mondaymotivation","placeID":"2358820","placeName":"Baltimore","searchUrl":"http:\/\/twitter.com\/search?q=%23mondaymotivation","trendMapped":"mondaymotivation","trendVolume":147772},{"stateName":"MD","trendName":"Ecuador","placeID":"2358820","placeName":"Baltimore","searchUrl":"http:\/\/twitter.com\/search?q=Ecuador","trendMapped":"ecuador","trendVolume":1243589},{"stateName":"MD","trendName":"LeBron","placeID":"2358820","placeName":"Baltimore","searchUrl":"http:\/\/twitter.com\/search?q=LeBron","trendMapped":"le+bron","trendVolume":141596},{"stateName":"MD","trendName":"Lebron","placeID":"2358820","placeName":"Baltimore","searchUrl":"http:\/\/twitter.com\/search?q=Lebron","trendMapped":"lebron","trendVolume":137773},{"stateName":"MI","trendName":"#Impeachment","placeID":"2391585","placeName":"Detroit","searchUrl":"http:\/\/twitter.com\/search?q=%23Impeachment","trendMapped":"impeachment","trendVolume":157244},{"stateName":"MI","trendName":"#ImpeachmentDay","placeID":"2391585","placeName":"Detroit","searchUrl":"http:\/\/twitter.com\/search?q=%23ImpeachmentDay","trendMapped":"impeachment+day","trendVolume":1780550},{"stateName":"MI","trendName":"#mondaymotivation","placeID":"2391585","placeName":"Detroit","searchUrl":"http:\/\/twitter.com\/search?q=%23mondaymotivation","trendMapped":"mondaymotivation","trendVolume":155778},{"stateName":"MI","trendName":"Cavs","placeID":"2391585","placeName":"Detroit","searchUrl":"http:\/\/twitter.com\/search?q=Cavs","trendMapped":"cavs","trendVolume":117062},{"stateName":"MI","trendName":"Ecuador","placeID":"2391585","placeName":"Detroit","searchUrl":"http:\/\/twitter.com\/search?q=Ecuador","trendMapped":"ecuador","trendVolume":1029650},{"stateName":"MI","trendName":"LeBron","placeID":"2391585","placeName":"Detroit","searchUrl":"http:\/\/twitter.com\/search?q=LeBron","trendMapped":"le+bron","trendVolume":139913},{"stateName":"MN","trendName":"#mondaymotivation","placeID":"2452078","placeName":"Minneapolis","searchUrl":"http:\/\/twitter.com\/search?q=%23mondaymotivation","trendMapped":"mondaymotivation","trendVolume":156649},{"stateName":"MN","trendName":"Coachella","placeID":"2452078","placeName":"Minneapolis","searchUrl":"http:\/\/twitter.com\/search?q=Coachella","trendMapped":"coachella","trendVolume":1115668},{"stateName":"MN","trendName":"Ecuador","placeID":"2452078","placeName":"Minneapolis","searchUrl":"http:\/\/twitter.com\/search?q=Ecuador","trendMapped":"ecuador","trendVolume":962294},{"stateName":"MO","trendName":"#BuyLetMeLoveYouOniTunes","placeID":"2486982","placeName":"St. Louis","searchUrl":"http:\/\/twitter.com\/search?q=%23BuyLetMeLoveYouOniTunes","trendMapped":"buy+let+me+love+you+oni+tunes","trendVolume":86867},{"stateName":"MO","trendName":"#Coachella","placeID":"2430683","placeName":"Kansas City","searchUrl":"http:\/\/twitter.com\/search?q=%23Coachella","trendMapped":"coachella","trendVolume":135030},{"stateName":"MO","trendName":"#Impeachment","placeID":"2486982","placeName":"St. Louis","searchUrl":"http:\/\/twitter.com\/search?q=%23Impeachment","trendMapped":"impeachment","trendVolume":168016},{"stateName":"MO","trendName":"#ImpeachmentDay","placeID":"2430683","placeName":"Kansas City","searchUrl":"http:\/\/twitter.com\/search?q=%23ImpeachmentDay","trendMapped":"impeachment+day","trendVolume":1576773},{"stateName":"MO","trendName":"#mondaymotivation","placeID":"2486982","placeName":"St. Louis","searchUrl":"http:\/\/twitter.com\/search?q=%23mondaymotivation","trendMapped":"mondaymotivation","trendVolume":154511},{"stateName":"MO","trendName":"Cavs","placeID":"2486982","placeName":"St. Louis","searchUrl":"http:\/\/twitter.com\/search?q=Cavs","trendMapped":"cavs","trendVolume":117451},{"stateName":"MO","trendName":"Ecuador","placeID":"2430683","placeName":"Kansas City","searchUrl":"http:\/\/twitter.com\/search?q=Ecuador","trendMapped":"ecuador","trendVolume":1313740},{"stateName":"MO","trendName":"President","placeID":"2486982","placeName":"St. Louis","searchUrl":"http:\/\/twitter.com\/search?q=President","trendMapped":"president","trendVolume":256597},{"stateName":"MS","trendName":"#DolanTwinsNewVideo","placeID":"2428184","placeName":"Jackson","searchUrl":"http:\/\/twitter.com\/search?q=%23DolanTwinsNewVideo","trendMapped":"dolan+twins+new+video","trendVolume":117481},{"stateName":"MS","trendName":"#Impeachment","placeID":"2428184","placeName":"Jackson","searchUrl":"http:\/\/twitter.com\/search?q=%23Impeachment","trendMapped":"impeachment","trendVolume":171307},{"stateName":"MS","trendName":"#ImpeachmentDay","placeID":"2428184","placeName":"Jackson","searchUrl":"http:\/\/twitter.com\/search?q=%23ImpeachmentDay","trendMapped":"impeachment+day","trendVolume":1576773},{"stateName":"MS","trendName":"#NBAPlayoffs","placeID":"2428184","placeName":"Jackson","searchUrl":"http:\/\/twitter.com\/search?q=%23NBAPlayoffs","trendMapped":"nba+playoffs","trendVolume":97513},{"stateName":"MS","trendName":"#mondaymotivation","placeID":"2428184","placeName":"Jackson","searchUrl":"http:\/\/twitter.com\/search?q=%23mondaymotivation","trendMapped":"mondaymotivation","trendVolume":140266},{"stateName":"MS","trendName":"Ecuador","placeID":"2428184","placeName":"Jackson","searchUrl":"http:\/\/twitter.com\/search?q=Ecuador","trendMapped":"ecuador","trendVolume":1015938},{"stateName":"MS","trendName":"Pulitzer","placeID":"2428184","placeName":"Jackson","searchUrl":"http:\/\/twitter.com\/search?q=Pulitzer","trendMapped":"pulitzer","trendVolume":90992},{"stateName":"MS","trendName":"Rihanna","placeID":"2428184","placeName":"Jackson","searchUrl":"http:\/\/twitter.com\/search?q=Rihanna","trendMapped":"rihanna","trendVolume":188980},{"stateName":"NC","trendName":"#DolanTwinsNewVideo","placeID":"2414469","placeName":"Greensboro","searchUrl":"http:\/\/twitter.com\/search?q=%23DolanTwinsNewVideo","trendMapped":"dolan+twins+new+video","trendVolume":117481},{"stateName":"NC","trendName":"#Impeachment","placeID":"2478307","placeName":"Raleigh","searchUrl":"http:\/\/twitter.com\/search?q=%23Impeachment","trendMapped":"impeachment","trendVolume":170770},{"stateName":"NC","trendName":"#ImpeachmentDay","placeID":"2478307","placeName":"Raleigh","searchUrl":"http:\/\/twitter.com\/search?q=%23ImpeachmentDay","trendMapped":"impeachment+day","trendVolume":1655504},{"stateName":"NC","trendName":"#NBAPlayoffs","placeID":"2378426","placeName":"Charlotte","searchUrl":"http:\/\/twitter.com\/search?q=%23NBAPlayoffs","trendMapped":"nba+playoffs","trendVolume":92618},{"stateName":"NC","trendName":"#mondaymotivation","placeID":"2478307","placeName":"Raleigh","searchUrl":"http:\/\/twitter.com\/search?q=%23mondaymotivation","trendMapped":"mondaymotivation","trendVolume":156649},{"stateName":"NC","trendName":"Cavs","placeID":"2478307","placeName":"Raleigh","searchUrl":"http:\/\/twitter.com\/search?q=Cavs","trendMapped":"cavs","trendVolume":118004},{"stateName":"NC","trendName":"Coachella","placeID":"2478307","placeName":"Raleigh","searchUrl":"http:\/\/twitter.com\/search?q=Coachella","trendMapped":"coachella","trendVolume":1114433},{"stateName":"NC","trendName":"Ecuador","placeID":"2478307","placeName":"Raleigh","searchUrl":"http:\/\/twitter.com\/search?q=Ecuador","trendMapped":"ecuador","trendVolume":1028648},{"stateName":"NC","trendName":"Jerusalem","placeID":"2414469","placeName":"Greensboro","searchUrl":"http:\/\/twitter.com\/search?q=Jerusalem","trendMapped":"jerusalem","trendVolume":103481},{"stateName":"NC","trendName":"Pulitzer","placeID":"2414469","placeName":"Greensboro","searchUrl":"http:\/\/twitter.com\/search?q=Pulitzer","trendMapped":"pulitzer","trendVolume":93046},{"stateName":"NC","trendName":"Spurs","placeID":"2478307","placeName":"Raleigh","searchUrl":"http:\/\/twitter.com\/search?q=Spurs","trendMapped":"spurs","trendVolume":121709},{"stateName":"NE","trendName":"#BbPilipinas2016","placeID":"2465512","placeName":"Omaha","searchUrl":"http:\/\/twitter.com\/search?q=%23BbPilipinas2016","trendMapped":"bb+pilipinas2016","trendVolume":245230},{"stateName":"NE","trendName":"#ImpeachmentDay","placeID":"2465512","placeName":"Omaha","searchUrl":"http:\/\/twitter.com\/search?q=%23ImpeachmentDay","trendMapped":"impeachment+day","trendVolume":1473603},{"stateName":"NE","trendName":"Coachella","placeID":"2465512","placeName":"Omaha","searchUrl":"http:\/\/twitter.com\/search?q=Coachella","trendMapped":"coachella","trendVolume":996329},{"stateName":"NE","trendName":"Donald Trump","placeID":"2465512","placeName":"Omaha","searchUrl":"http:\/\/twitter.com\/search?q=%22Donald+Trump%22","trendMapped":"Donald+Trump","trendVolume":216039},{"stateName":"NE","trendName":"Ecuador","placeID":"2465512","placeName":"Omaha","searchUrl":"http:\/\/twitter.com\/search?q=Ecuador","trendMapped":"ecuador","trendVolume":1029650},{"stateName":"NM","trendName":"#BuyLetMeLoveYouOniTunes","placeID":"2352824","placeName":"Albuquerque","searchUrl":"http:\/\/twitter.com\/search?q=%23BuyLetMeLoveYouOniTunes","trendMapped":"buy+let+me+love+you+oni+tunes","trendVolume":75995},{"stateName":"NM","trendName":"#Impeachment","placeID":"2352824","placeName":"Albuquerque","searchUrl":"http:\/\/twitter.com\/search?q=%23Impeachment","trendMapped":"impeachment","trendVolume":171307},{"stateName":"NM","trendName":"#ImpeachmentDay","placeID":"2352824","placeName":"Albuquerque","searchUrl":"http:\/\/twitter.com\/search?q=%23ImpeachmentDay","trendMapped":"impeachment+day","trendVolume":1602446},{"stateName":"NM","trendName":"#WorldHeritageDay","placeID":"2352824","placeName":"Albuquerque","searchUrl":"http:\/\/twitter.com\/search?q=%23WorldHeritageDay","trendMapped":"world+heritage+day","trendVolume":19780},{"stateName":"NM","trendName":"#mondaymotivation","placeID":"2352824","placeName":"Albuquerque","searchUrl":"http:\/\/twitter.com\/search?q=%23mondaymotivation","trendMapped":"mondaymotivation","trendVolume":141822},{"stateName":"NM","trendName":"Cavs","placeID":"2352824","placeName":"Albuquerque","searchUrl":"http:\/\/twitter.com\/search?q=Cavs","trendMapped":"cavs","trendVolume":116782},{"stateName":"NM","trendName":"Ecuador","placeID":"2352824","placeName":"Albuquerque","searchUrl":"http:\/\/twitter.com\/search?q=Ecuador","trendMapped":"ecuador","trendVolume":1040054},{"stateName":"NM","trendName":"Jerusalem","placeID":"2352824","placeName":"Albuquerque","searchUrl":"http:\/\/twitter.com\/search?q=Jerusalem","trendMapped":"jerusalem","trendVolume":102421},{"stateName":"NM","trendName":"Johnny Depp","placeID":"2352824","placeName":"Albuquerque","searchUrl":"http:\/\/twitter.com\/search?q=%22Johnny+Depp%22","trendMapped":"Johnny+Depp","trendVolume":40152},{"stateName":"NM","trendName":"Pulitzer","placeID":"2352824","placeName":"Albuquerque","searchUrl":"http:\/\/twitter.com\/search?q=Pulitzer","trendMapped":"pulitzer","trendVolume":88629},{"stateName":"NV","trendName":"#Coachella","placeID":"2436704","placeName":"Las Vegas","searchUrl":"http:\/\/twitter.com\/search?q=%23Coachella","trendMapped":"coachella","trendVolume":135513},{"stateName":"NV","trendName":"#Impeachment","placeID":"2436704","placeName":"Las Vegas","searchUrl":"http:\/\/twitter.com\/search?q=%23Impeachment","trendMapped":"impeachment","trendVolume":171125},{"stateName":"NV","trendName":"#ImpeachmentDay","placeID":"2436704","placeName":"Las Vegas","searchUrl":"http:\/\/twitter.com\/search?q=%23ImpeachmentDay","trendMapped":"impeachment+day","trendVolume":1728824},{"stateName":"NV","trendName":"#NBAPlayoffs","placeID":"2436704","placeName":"Las Vegas","searchUrl":"http:\/\/twitter.com\/search?q=%23NBAPlayoffs","trendMapped":"nba+playoffs","trendVolume":97623},{"stateName":"NV","trendName":"#mondaymotivation","placeID":"2436704","placeName":"Las Vegas","searchUrl":"http:\/\/twitter.com\/search?q=%23mondaymotivation","trendMapped":"mondaymotivation","trendVolume":155087},{"stateName":"NV","trendName":"Cavs","placeID":"2436704","placeName":"Las Vegas","searchUrl":"http:\/\/twitter.com\/search?q=Cavs","trendMapped":"cavs","trendVolume":122585},{"stateName":"NV","trendName":"Ecuador","placeID":"2436704","placeName":"Las Vegas","searchUrl":"http:\/\/twitter.com\/search?q=Ecuador","trendMapped":"ecuador","trendVolume":1027126},{"stateName":"NY","trendName":"#BuyLetMeLoveYouOniTunes","placeID":"2459115","placeName":"New York","searchUrl":"http:\/\/twitter.com\/search?q=%23BuyLetMeLoveYouOniTunes","trendMapped":"buy+let+me+love+you+oni+tunes","trendVolume":75520},{"stateName":"NY","trendName":"#DolanTwinsNewVideo","placeID":"2459115","placeName":"New York","searchUrl":"http:\/\/twitter.com\/search?q=%23DolanTwinsNewVideo","trendMapped":"dolan+twins+new+video","trendVolume":125560},{"stateName":"NY","trendName":"#Impeachment","placeID":"2459115","placeName":"New York","searchUrl":"http:\/\/twitter.com\/search?q=%23Impeachment","trendMapped":"impeachment","trendVolume":168016},{"stateName":"NY","trendName":"#ImpeachmentDay","placeID":"2459115","placeName":"New York","searchUrl":"http:\/\/twitter.com\/search?q=%23ImpeachmentDay","trendMapped":"impeachment+day","trendVolume":1804724},{"stateName":"NY","trendName":"#mondaymotivation","placeID":"2459115","placeName":"New York","searchUrl":"http:\/\/twitter.com\/search?q=%23mondaymotivation","trendMapped":"mondaymotivation","trendVolume":109157},{"stateName":"NY","trendName":"Cavs","placeID":"2459115","placeName":"New York","searchUrl":"http:\/\/twitter.com\/search?q=Cavs","trendMapped":"cavs","trendVolume":117829},{"stateName":"NY","trendName":"Coachella","placeID":"2459115","placeName":"New York","searchUrl":"http:\/\/twitter.com\/search?q=Coachella","trendMapped":"coachella","trendVolume":1006783},{"stateName":"NY","trendName":"Ecuador","placeID":"2459115","placeName":"New York","searchUrl":"http:\/\/twitter.com\/search?q=Ecuador","trendMapped":"ecuador","trendVolume":1040837},{"stateName":"NY","trendName":"Jerusalem","placeID":"2459115","placeName":"New York","searchUrl":"http:\/\/twitter.com\/search?q=Jerusalem","trendMapped":"jerusalem","trendVolume":103727},{"stateName":"OH","trendName":"#Impeachment","placeID":"2383660","placeName":"Columbus","searchUrl":"http:\/\/twitter.com\/search?q=%23Impeachment","trendMapped":"impeachment","trendVolume":171391},{"stateName":"OH","trendName":"#ImpeachmentDay","placeID":"2381475","placeName":"Cleveland","searchUrl":"http:\/\/twitter.com\/search?q=%23ImpeachmentDay","trendMapped":"impeachment+day","trendVolume":1804724},{"stateName":"OH","trendName":"#NBAPlayoffs","placeID":"2381475","placeName":"Cleveland","searchUrl":"http:\/\/twitter.com\/search?q=%23NBAPlayoffs","trendMapped":"nba+playoffs","trendVolume":96992},{"stateName":"OH","trendName":"#NYPrimary","placeID":"2383660","placeName":"Columbus","searchUrl":"http:\/\/twitter.com\/search?q=%23NYPrimary","trendMapped":"ny+primary","trendVolume":113030},{"stateName":"OH","trendName":"#impeachment","placeID":"2381475","placeName":"Cleveland","searchUrl":"http:\/\/twitter.com\/search?q=%23impeachment","trendMapped":"impeachment","trendVolume":90286},{"stateName":"OH","trendName":"#mondaymotivation","placeID":"2383660","placeName":"Columbus","searchUrl":"http:\/\/twitter.com\/search?q=%23mondaymotivation","trendMapped":"mondaymotivation","trendVolume":148217},{"stateName":"OH","trendName":"Cavs","placeID":"2383660","placeName":"Columbus","searchUrl":"http:\/\/twitter.com\/search?q=Cavs","trendMapped":"cavs","trendVolume":117654},{"stateName":"OH","trendName":"Ecuador","placeID":"2381475","placeName":"Cleveland","searchUrl":"http:\/\/twitter.com\/search?q=Ecuador","trendMapped":"ecuador","trendVolume":1318446},{"stateName":"OH","trendName":"Jerusalem","placeID":"2380358","placeName":"Cincinnati","searchUrl":"http:\/\/twitter.com\/search?q=Jerusalem","trendMapped":"jerusalem","trendVolume":103727},{"stateName":"OH","trendName":"Lebron","placeID":"2383660","placeName":"Columbus","searchUrl":"http:\/\/twitter.com\/search?q=Lebron","trendMapped":"lebron","trendVolume":136498},{"stateName":"OH","trendName":"Pistons","placeID":"2381475","placeName":"Cleveland","searchUrl":"http:\/\/twitter.com\/search?q=Pistons","trendMapped":"pistons","trendVolume":91939},{"stateName":"OK","trendName":"#DolanTwinsNewVideo","placeID":"2464592","placeName":"Oklahoma City","searchUrl":"http:\/\/twitter.com\/search?q=%23DolanTwinsNewVideo","trendMapped":"dolan+twins+new+video","trendVolume":98186},{"stateName":"OK","trendName":"#Impeachment","placeID":"2464592","placeName":"Oklahoma City","searchUrl":"http:\/\/twitter.com\/search?q=%23Impeachment","trendMapped":"impeachment","trendVolume":171307},{"stateName":"OK","trendName":"#NYPrimary","placeID":"2464592","placeName":"Oklahoma City","searchUrl":"http:\/\/twitter.com\/search?q=%23NYPrimary","trendMapped":"ny+primary","trendVolume":110067},{"stateName":"OK","trendName":"Ecuador","placeID":"2464592","placeName":"Oklahoma City","searchUrl":"http:\/\/twitter.com\/search?q=Ecuador","trendMapped":"ecuador","trendVolume":1046386},{"stateName":"OK","trendName":"Jerusalem","placeID":"2464592","placeName":"Oklahoma City","searchUrl":"http:\/\/twitter.com\/search?q=Jerusalem","trendMapped":"jerusalem","trendVolume":103239},{"stateName":"OK","trendName":"Lebron","placeID":"2464592","placeName":"Oklahoma City","searchUrl":"http:\/\/twitter.com\/search?q=Lebron","trendMapped":"lebron","trendVolume":136603},{"stateName":"OK","trendName":"Pulitzer","placeID":"2464592","placeName":"Oklahoma City","searchUrl":"http:\/\/twitter.com\/search?q=Pulitzer","trendMapped":"pulitzer","trendVolume":94111},{"stateName":"OR","trendName":"#BuyLetMeLoveYouOniTunes","placeID":"2475687","placeName":"Portland","searchUrl":"http:\/\/twitter.com\/search?q=%23BuyLetMeLoveYouOniTunes","trendMapped":"buy+let+me+love+you+oni+tunes","trendVolume":77332},{"stateName":"OR","trendName":"#Impeachment","placeID":"2475687","placeName":"Portland","searchUrl":"http:\/\/twitter.com\/search?q=%23Impeachment","trendMapped":"impeachment","trendVolume":170018},{"stateName":"OR","trendName":"#ImpeachmentDay","placeID":"2475687","placeName":"Portland","searchUrl":"http:\/\/twitter.com\/search?q=%23ImpeachmentDay","trendMapped":"impeachment+day","trendVolume":1602446},{"stateName":"OR","trendName":"#NBAPlayoffs","placeID":"2475687","placeName":"Portland","searchUrl":"http:\/\/twitter.com\/search?q=%23NBAPlayoffs","trendMapped":"nba+playoffs","trendVolume":95808},{"stateName":"OR","trendName":"#mondaymotivation","placeID":"2475687","placeName":"Portland","searchUrl":"http:\/\/twitter.com\/search?q=%23mondaymotivation","trendMapped":"mondaymotivation","trendVolume":155778},{"stateName":"OR","trendName":"Coachella","placeID":"2475687","placeName":"Portland","searchUrl":"http:\/\/twitter.com\/search?q=Coachella","trendMapped":"coachella","trendVolume":1129886},{"stateName":"OR","trendName":"Ecuador","placeID":"2475687","placeName":"Portland","searchUrl":"http:\/\/twitter.com\/search?q=Ecuador","trendMapped":"ecuador","trendVolume":1015453},{"stateName":"PA","trendName":"#BuyLetMeLoveYouOniTunes","placeID":"2471217","placeName":"Philadelphia","searchUrl":"http:\/\/twitter.com\/search?q=%23BuyLetMeLoveYouOniTunes","trendMapped":"buy+let+me+love+you+oni+tunes","trendVolume":75690},{"stateName":"PA","trendName":"#DolanTwinsNewVideo","placeID":"2473224","placeName":"Pittsburgh","searchUrl":"http:\/\/twitter.com\/search?q=%23DolanTwinsNewVideo","trendMapped":"dolan+twins+new+video","trendVolume":101988},{"stateName":"PA","trendName":"#Impeachment","placeID":"2471217","placeName":"Philadelphia","searchUrl":"http:\/\/twitter.com\/search?q=%23Impeachment","trendMapped":"impeachment","trendVolume":170770},{"stateName":"PA","trendName":"#ImpeachmentDay","placeID":"2471217","placeName":"Philadelphia","searchUrl":"http:\/\/twitter.com\/search?q=%23ImpeachmentDay","trendMapped":"impeachment+day","trendVolume":1506014},{"stateName":"PA","trendName":"#mondaymotivation","placeID":"2473224","placeName":"Pittsburgh","searchUrl":"http:\/\/twitter.com\/search?q=%23mondaymotivation","trendMapped":"mondaymotivation","trendVolume":144701},{"stateName":"PA","trendName":"Bernie","placeID":"2473224","placeName":"Pittsburgh","searchUrl":"http:\/\/twitter.com\/search?q=Bernie","trendMapped":"bernie","trendVolume":270217},{"stateName":"PA","trendName":"Coachella","placeID":"2473224","placeName":"Pittsburgh","searchUrl":"http:\/\/twitter.com\/search?q=Coachella","trendMapped":"coachella","trendVolume":1079837},{"stateName":"PA","trendName":"Ecuador","placeID":"2471217","placeName":"Philadelphia","searchUrl":"http:\/\/twitter.com\/search?q=Ecuador","trendMapped":"ecuador","trendVolume":1046386},{"stateName":"PA","trendName":"Jerusalem","placeID":"2473224","placeName":"Pittsburgh","searchUrl":"http:\/\/twitter.com\/search?q=Jerusalem","trendMapped":"jerusalem","trendVolume":102421},{"stateName":"PA","trendName":"LeBron","placeID":"2473224","placeName":"Pittsburgh","searchUrl":"http:\/\/twitter.com\/search?q=LeBron","trendMapped":"le+bron","trendVolume":138753},{"stateName":"RI","trendName":"#mondaymotivation","placeID":"2477058","placeName":"Providence","searchUrl":"http:\/\/twitter.com\/search?q=%23mondaymotivation","trendMapped":"mondaymotivation","trendVolume":153097},{"stateName":"RI","trendName":"Coachella","placeID":"2477058","placeName":"Providence","searchUrl":"http:\/\/twitter.com\/search?q=Coachella","trendMapped":"coachella","trendVolume":1045539},{"stateName":"RI","trendName":"Ecuador","placeID":"2477058","placeName":"Providence","searchUrl":"http:\/\/twitter.com\/search?q=Ecuador","trendMapped":"ecuador","trendVolume":1326861},{"stateName":"TN","trendName":"#Impeachment","placeID":"2449323","placeName":"Memphis","searchUrl":"http:\/\/twitter.com\/search?q=%23Impeachment","trendMapped":"impeachment","trendVolume":151767},{"stateName":"TN","trendName":"#ImpeachmentDay","placeID":"2457170","placeName":"Nashville","searchUrl":"http:\/\/twitter.com\/search?q=%23ImpeachmentDay","trendMapped":"impeachment+day","trendVolume":1728824},{"stateName":"TN","trendName":"#mondaymotivation","placeID":"2457170","placeName":"Nashville","searchUrl":"http:\/\/twitter.com\/search?q=%23mondaymotivation","trendMapped":"mondaymotivation","trendVolume":147308},{"stateName":"TN","trendName":"Black","placeID":"2449323","placeName":"Memphis","searchUrl":"http:\/\/twitter.com\/search?q=Black","trendMapped":"black","trendVolume":792740},{"stateName":"TN","trendName":"Cavs","placeID":"2457170","placeName":"Nashville","searchUrl":"http:\/\/twitter.com\/search?q=Cavs","trendMapped":"cavs","trendVolume":123682},{"stateName":"TN","trendName":"Coachella","placeID":"2457170","placeName":"Nashville","searchUrl":"http:\/\/twitter.com\/search?q=Coachella","trendMapped":"coachella","trendVolume":1072331},{"stateName":"TN","trendName":"Ecuador","placeID":"2457170","placeName":"Nashville","searchUrl":"http:\/\/twitter.com\/search?q=Ecuador","trendMapped":"ecuador","trendVolume":1027126},{"stateName":"TN","trendName":"Snapchat","placeID":"2449323","placeName":"Memphis","searchUrl":"http:\/\/twitter.com\/search?q=Snapchat","trendMapped":"snapchat","trendVolume":358977},{"stateName":"TN","trendName":"Spurs","placeID":"2449323","placeName":"Memphis","searchUrl":"http:\/\/twitter.com\/search?q=Spurs","trendMapped":"spurs","trendVolume":141673},{"stateName":"TX","trendName":"#BuyLetMeLoveYouOniTunes","placeID":"2487796","placeName":"San Antonio","searchUrl":"http:\/\/twitter.com\/search?q=%23BuyLetMeLoveYouOniTunes","trendMapped":"buy+let+me+love+you+oni+tunes","trendVolume":77643},{"stateName":"TX","trendName":"#Coachella","placeID":"2357536","placeName":"Austin","searchUrl":"http:\/\/twitter.com\/search?q=%23Coachella","trendMapped":"coachella","trendVolume":138940},{"stateName":"TX","trendName":"#DolanTwinsNewVideo","placeID":"2487796","placeName":"San Antonio","searchUrl":"http:\/\/twitter.com\/search?q=%23DolanTwinsNewVideo","trendMapped":"dolan+twins+new+video","trendVolume":100152},{"stateName":"TX","trendName":"#Impeachment","placeID":"2487796","placeName":"San Antonio","searchUrl":"http:\/\/twitter.com\/search?q=%23Impeachment","trendMapped":"impeachment","trendVolume":171307},{"stateName":"TX","trendName":"#ImpeachmentDay","placeID":"2424766","placeName":"Houston","searchUrl":"http:\/\/twitter.com\/search?q=%23ImpeachmentDay","trendMapped":"impeachment+day","trendVolume":1728824},{"stateName":"TX","trendName":"#NBAPlayoffs","placeID":"2487796","placeName":"San Antonio","searchUrl":"http:\/\/twitter.com\/search?q=%23NBAPlayoffs","trendMapped":"nba+playoffs","trendVolume":97717},{"stateName":"TX","trendName":"#impeachment","placeID":"2388929","placeName":"Dallas-Ft. Worth","searchUrl":"http:\/\/twitter.com\/search?q=%23impeachment","trendMapped":"impeachment","trendVolume":96954},{"stateName":"TX","trendName":"#mondaymotivation","placeID":"2487796","placeName":"San Antonio","searchUrl":"http:\/\/twitter.com\/search?q=%23mondaymotivation","trendMapped":"mondaymotivation","trendVolume":156649},{"stateName":"TX","trendName":"Cavs","placeID":"2388929","placeName":"Dallas-Ft. Worth","searchUrl":"http:\/\/twitter.com\/search?q=Cavs","trendMapped":"cavs","trendVolume":117451},{"stateName":"TX","trendName":"Coachella","placeID":"2397816","placeName":"El Paso","searchUrl":"http:\/\/twitter.com\/search?q=Coachella","trendMapped":"coachella","trendVolume":1115668},{"stateName":"TX","trendName":"Ecuador","placeID":"2487796","placeName":"San Antonio","searchUrl":"http:\/\/twitter.com\/search?q=Ecuador","trendMapped":"ecuador","trendVolume":1090230},{"stateName":"TX","trendName":"Game 1","placeID":"2487796","placeName":"San Antonio","searchUrl":"http:\/\/twitter.com\/search?q=%22Game+1%22","trendMapped":"Game+1","trendVolume":60656},{"stateName":"TX","trendName":"Jerusalem","placeID":"2424766","placeName":"Houston","searchUrl":"http:\/\/twitter.com\/search?q=Jerusalem","trendMapped":"jerusalem","trendVolume":102421},{"stateName":"TX","trendName":"Pulitzer","placeID":"2424766","placeName":"Houston","searchUrl":"http:\/\/twitter.com\/search?q=Pulitzer","trendMapped":"pulitzer","trendVolume":94111},{"stateName":"TX","trendName":"Saint","placeID":"2424766","placeName":"Houston","searchUrl":"http:\/\/twitter.com\/search?q=Saint","trendMapped":"saint","trendVolume":50795},{"stateName":"UT","trendName":"#ImpeachmentDay","placeID":"2487610","placeName":"Salt Lake City","searchUrl":"http:\/\/twitter.com\/search?q=%23ImpeachmentDay","trendMapped":"impeachment+day","trendVolume":1804724},{"stateName":"UT","trendName":"#mondaymotivation","placeID":"2487610","placeName":"Salt Lake City","searchUrl":"http:\/\/twitter.com\/search?q=%23mondaymotivation","trendMapped":"mondaymotivation","trendVolume":156649},{"stateName":"UT","trendName":"Coachella","placeID":"2487610","placeName":"Salt Lake City","searchUrl":"http:\/\/twitter.com\/search?q=Coachella","trendMapped":"coachella","trendVolume":1048738},{"stateName":"UT","trendName":"Ecuador","placeID":"2487610","placeName":"Salt Lake City","searchUrl":"http:\/\/twitter.com\/search?q=Ecuador","trendMapped":"ecuador","trendVolume":1299726},{"stateName":"VA","trendName":"#BuyLetMeLoveYouOniTunes","placeID":"2512636","placeName":"Virginia Beach","searchUrl":"http:\/\/twitter.com\/search?q=%23BuyLetMeLoveYouOniTunes","trendMapped":"buy+let+me+love+you+oni+tunes","trendVolume":75690},{"stateName":"VA","trendName":"#Impeachment","placeID":"2512636","placeName":"Virginia Beach","searchUrl":"http:\/\/twitter.com\/search?q=%23Impeachment","trendMapped":"impeachment","trendVolume":170770},{"stateName":"VA","trendName":"#ImpeachmentDay","placeID":"2480894","placeName":"Richmond","searchUrl":"http:\/\/twitter.com\/search?q=%23ImpeachmentDay","trendMapped":"impeachment+day","trendVolume":1602446},{"stateName":"VA","trendName":"#mondaymotivation","placeID":"2512636","placeName":"Virginia Beach","searchUrl":"http:\/\/twitter.com\/search?q=%23mondaymotivation","trendMapped":"mondaymotivation","trendVolume":154511},{"stateName":"VA","trendName":"Cavs","placeID":"2512636","placeName":"Virginia Beach","searchUrl":"http:\/\/twitter.com\/search?q=Cavs","trendMapped":"cavs","trendVolume":116782},{"stateName":"VA","trendName":"Coachella","placeID":"2480894","placeName":"Richmond","searchUrl":"http:\/\/twitter.com\/search?q=Coachella","trendMapped":"coachella","trendVolume":1126616},{"stateName":"VA","trendName":"Ecuador","placeID":"2512636","placeName":"Virginia Beach","searchUrl":"http:\/\/twitter.com\/search?q=Ecuador","trendMapped":"ecuador","trendVolume":1026258},{"stateName":"VA","trendName":"Heat","placeID":"2460389","placeName":"Norfolk","searchUrl":"http:\/\/twitter.com\/search?q=Heat","trendMapped":"heat","trendVolume":119077},{"stateName":"VA","trendName":"Jerusalem","placeID":"2512636","placeName":"Virginia Beach","searchUrl":"http:\/\/twitter.com\/search?q=Jerusalem","trendMapped":"jerusalem","trendVolume":102978},{"stateName":"VA","trendName":"Johnny Depp","placeID":"2512636","placeName":"Virginia Beach","searchUrl":"http:\/\/twitter.com\/search?q=%22Johnny+Depp%22","trendMapped":"Johnny+Depp","trendVolume":41205},{"stateName":"WA","trendName":"#Impeachment","placeID":"2490383","placeName":"Seattle","searchUrl":"http:\/\/twitter.com\/search?q=%23Impeachment","trendMapped":"impeachment","trendVolume":115802},{"stateName":"WA","trendName":"#mondaymotivation","placeID":"2490383","placeName":"Seattle","searchUrl":"http:\/\/twitter.com\/search?q=%23mondaymotivation","trendMapped":"mondaymotivation","trendVolume":153545},{"stateName":"WA","trendName":"Cavs","placeID":"2490383","placeName":"Seattle","searchUrl":"http:\/\/twitter.com\/search?q=Cavs","trendMapped":"cavs","trendVolume":117451},{"stateName":"WA","trendName":"Coachella","placeID":"2490383","placeName":"Seattle","searchUrl":"http:\/\/twitter.com\/search?q=Coachella","trendMapped":"coachella","trendVolume":1126906},{"stateName":"WA","trendName":"Ecuador","placeID":"2490383","placeName":"Seattle","searchUrl":"http:\/\/twitter.com\/search?q=Ecuador","trendMapped":"ecuador","trendVolume":1102059},{"stateName":"WI","trendName":"#ImpeachmentDay","placeID":"2451822","placeName":"Milwaukee","searchUrl":"http:\/\/twitter.com\/search?q=%23ImpeachmentDay","trendMapped":"impeachment+day","trendVolume":1804724},{"stateName":"WI","trendName":"#mondaymotivation","placeID":"2451822","placeName":"Milwaukee","searchUrl":"http:\/\/twitter.com\/search?q=%23mondaymotivation","trendMapped":"mondaymotivation","trendVolume":146595},{"stateName":"WI","trendName":"Amazon","placeID":"2451822","placeName":"Milwaukee","searchUrl":"http:\/\/twitter.com\/search?q=Amazon","trendMapped":"amazon","trendVolume":714980},{"stateName":"WI","trendName":"Coachella","placeID":"2451822","placeName":"Milwaukee","searchUrl":"http:\/\/twitter.com\/search?q=Coachella","trendMapped":"coachella","trendVolume":1115767},{"stateName":"XX","trendName":"#DolanTwinsNewVideo","placeID":"23424977","placeName":"United States","searchUrl":"http:\/\/twitter.com\/search?q=%23DolanTwinsNewVideo","trendMapped":"dolan+twins+new+video","trendVolume":96790},{"stateName":"XX","trendName":"#Impeachment","placeID":"23424977","placeName":"United States","searchUrl":"http:\/\/twitter.com\/search?q=%23Impeachment","trendMapped":"impeachment","trendVolume":171307},{"stateName":"XX","trendName":"#impeachment","placeID":"23424977","placeName":"United States","searchUrl":"http:\/\/twitter.com\/search?q=%23impeachment","trendMapped":"impeachment","trendVolume":102395},{"stateName":"XX","trendName":"#mondaymotivation","placeID":"23424977","placeName":"United States","searchUrl":"http:\/\/twitter.com\/search?q=%23mondaymotivation","trendMapped":"mondaymotivation","trendVolume":143528},{"stateName":"XX","trendName":"Ecuador","placeID":"23424977","placeName":"United States","searchUrl":"http:\/\/twitter.com\/search?q=Ecuador","trendMapped":"ecuador","trendVolume":1032233},{"stateName":"XX","trendName":"Johnny Depp","placeID":"23424977","placeName":"United States","searchUrl":"http:\/\/twitter.com\/search?q=%22Johnny+Depp%22","trendMapped":"Johnny+Depp","trendVolume":40152}]