[{"stateName":"AL","trendName":"Prince","placeID":"2364559","placeName":"Birmingham","searchUrl":"http:\/\/twitter.com\/search?q=Prince","trendMapped":"prince","trendVolume":8583283},{"stateName":"AZ","trendName":"#EarthDay","placeID":"2508428","placeName":"Tucson","searchUrl":"http:\/\/twitter.com\/search?q=%23EarthDay","trendMapped":"earth+day","trendVolume":750715},{"stateName":"AZ","trendName":"#LetsPlay1Dreamboy2","placeID":"2508428","placeName":"Tucson","searchUrl":"http:\/\/twitter.com\/search?q=%23LetsPlay1Dreamboy2","trendMapped":"lets+play1+dreamboy2","trendVolume":793980},{"stateName":"AZ","trendName":"#PrinceRIP","placeID":"2471390","placeName":"Phoenix","searchUrl":"http:\/\/twitter.com\/search?q=%23PrinceRIP","trendMapped":"prince+rip","trendVolume":131179},{"stateName":"AZ","trendName":"#RIPAmy","placeID":"2471390","placeName":"Phoenix","searchUrl":"http:\/\/twitter.com\/search?q=%23RIPAmy","trendMapped":"rip+amy","trendVolume":255977},{"stateName":"AZ","trendName":"Chyna","placeID":"2508428","placeName":"Tucson","searchUrl":"http:\/\/twitter.com\/search?q=Chyna","trendMapped":"chyna","trendVolume":413451},{"stateName":"AZ","trendName":"Prince","placeID":"2508428","placeName":"Tucson","searchUrl":"http:\/\/twitter.com\/search?q=Prince","trendMapped":"prince","trendVolume":8445779},{"stateName":"CA","trendName":"#EarthDay","placeID":"2488042","placeName":"San Jose","searchUrl":"http:\/\/twitter.com\/search?q=%23EarthDay","trendMapped":"earth+day","trendVolume":816756},{"stateName":"CA","trendName":"#LetsPlay1Dreamboy2","placeID":"2488042","placeName":"San Jose","searchUrl":"http:\/\/twitter.com\/search?q=%23LetsPlay1Dreamboy2","trendMapped":"lets+play1+dreamboy2","trendVolume":799760},{"stateName":"CA","trendName":"#Playing1Dreamboy2","placeID":"2488042","placeName":"San Jose","searchUrl":"http:\/\/twitter.com\/search?q=%23Playing1Dreamboy2","trendMapped":"playing1+dreamboy2","trendVolume":365608},{"stateName":"CA","trendName":"#PrinceRIP","placeID":"2488042","placeName":"San Jose","searchUrl":"http:\/\/twitter.com\/search?q=%23PrinceRIP","trendMapped":"prince+rip","trendVolume":128488},{"stateName":"CA","trendName":"#RIPAmy","placeID":"2486340","placeName":"Sacramento","searchUrl":"http:\/\/twitter.com\/search?q=%23RIPAmy","trendMapped":"rip+amy","trendVolume":311271},{"stateName":"CA","trendName":"#RIPPrince","placeID":"2487956","placeName":"San Francisco","searchUrl":"http:\/\/twitter.com\/search?q=%23RIPPrince","trendMapped":"rip+prince","trendVolume":745987},{"stateName":"CA","trendName":"Chyna","placeID":"2488042","placeName":"San Jose","searchUrl":"http:\/\/twitter.com\/search?q=Chyna","trendMapped":"chyna","trendVolume":423397},{"stateName":"CA","trendName":"Jake Arrieta","placeID":"2487956","placeName":"San Francisco","searchUrl":"http:\/\/twitter.com\/search?q=%22Jake+Arrieta%22","trendMapped":"Jake+Arrieta","trendVolume":114467},{"stateName":"CA","trendName":"Prince","placeID":"2487956","placeName":"San Francisco","searchUrl":"http:\/\/twitter.com\/search?q=Prince","trendMapped":"prince","trendVolume":8617092},{"stateName":"CA","trendName":"Warriors","placeID":"2487889","placeName":"San Diego","searchUrl":"http:\/\/twitter.com\/search?q=Warriors","trendMapped":"warriors","trendVolume":135696},{"stateName":"CO","trendName":"#EarthDay","placeID":"2383489","placeName":"Colorado Springs","searchUrl":"http:\/\/twitter.com\/search?q=%23EarthDay","trendMapped":"earth+day","trendVolume":723872},{"stateName":"CO","trendName":"#LetsPlay1Dreamboy2","placeID":"2391279","placeName":"Denver","searchUrl":"http:\/\/twitter.com\/search?q=%23LetsPlay1Dreamboy2","trendMapped":"lets+play1+dreamboy2","trendVolume":794983},{"stateName":"CO","trendName":"#Playing1Dreamboy2","placeID":"2383489","placeName":"Colorado Springs","searchUrl":"http:\/\/twitter.com\/search?q=%23Playing1Dreamboy2","trendMapped":"playing1+dreamboy2","trendVolume":366898},{"stateName":"CO","trendName":"#PrinceRIP","placeID":"2391279","placeName":"Denver","searchUrl":"http:\/\/twitter.com\/search?q=%23PrinceRIP","trendMapped":"prince+rip","trendVolume":123555},{"stateName":"CO","trendName":"Chyna","placeID":"2383489","placeName":"Colorado Springs","searchUrl":"http:\/\/twitter.com\/search?q=Chyna","trendMapped":"chyna","trendVolume":413451},{"stateName":"CO","trendName":"Prince","placeID":"2391279","placeName":"Denver","searchUrl":"http:\/\/twitter.com\/search?q=Prince","trendMapped":"prince","trendVolume":8547091},{"stateName":"CT","trendName":"#LetsPlay1Dreamboy2","placeID":"2458410","placeName":"New Haven","searchUrl":"http:\/\/twitter.com\/search?q=%23LetsPlay1Dreamboy2","trendMapped":"lets+play1+dreamboy2","trendVolume":794751},{"stateName":"CT","trendName":"Prince","placeID":"2458410","placeName":"New Haven","searchUrl":"http:\/\/twitter.com\/search?q=Prince","trendMapped":"prince","trendVolume":8617092},{"stateName":"DC","trendName":"#EarthDay","placeID":"2514815","placeName":"Washington","searchUrl":"http:\/\/twitter.com\/search?q=%23EarthDay","trendMapped":"earth+day","trendVolume":746808},{"stateName":"DC","trendName":"#LetsPlay1Dreamboy2","placeID":"2514815","placeName":"Washington","searchUrl":"http:\/\/twitter.com\/search?q=%23LetsPlay1Dreamboy2","trendMapped":"lets+play1+dreamboy2","trendVolume":799760},{"stateName":"DC","trendName":"#Playing1Dreamboy2","placeID":"2514815","placeName":"Washington","searchUrl":"http:\/\/twitter.com\/search?q=%23Playing1Dreamboy2","trendMapped":"playing1+dreamboy2","trendVolume":219017},{"stateName":"DC","trendName":"Prince","placeID":"2514815","placeName":"Washington","searchUrl":"http:\/\/twitter.com\/search?q=Prince","trendMapped":"prince","trendVolume":8094754},{"stateName":"DC","trendName":"The Game","placeID":"2514815","placeName":"Washington","searchUrl":"http:\/\/twitter.com\/search?q=%22The+Game%22","trendMapped":"The+Game","trendVolume":126593},{"stateName":"FL","trendName":"#EarthDay","placeID":"2503863","placeName":"Tampa","searchUrl":"http:\/\/twitter.com\/search?q=%23EarthDay","trendMapped":"earth+day","trendVolume":607837},{"stateName":"FL","trendName":"#LetsPlay1Dreamboy2","placeID":"2503863","placeName":"Tampa","searchUrl":"http:\/\/twitter.com\/search?q=%23LetsPlay1Dreamboy2","trendMapped":"lets+play1+dreamboy2","trendVolume":798376},{"stateName":"FL","trendName":"#Prince","placeID":"2428344","placeName":"Jacksonville","searchUrl":"http:\/\/twitter.com\/search?q=%23Prince","trendMapped":"prince","trendVolume":907295},{"stateName":"FL","trendName":"#RIPAmy","placeID":"2503863","placeName":"Tampa","searchUrl":"http:\/\/twitter.com\/search?q=%23RIPAmy","trendMapped":"rip+amy","trendVolume":264216},{"stateName":"FL","trendName":"Chyna","placeID":"2466256","placeName":"Orlando","searchUrl":"http:\/\/twitter.com\/search?q=Chyna","trendMapped":"chyna","trendVolume":413451},{"stateName":"FL","trendName":"Jake","placeID":"2450022","placeName":"Miami","searchUrl":"http:\/\/twitter.com\/search?q=Jake","trendMapped":"jake","trendVolume":193764},{"stateName":"FL","trendName":"Prince","placeID":"2503863","placeName":"Tampa","searchUrl":"http:\/\/twitter.com\/search?q=Prince","trendMapped":"prince","trendVolume":8560263},{"stateName":"GA","trendName":"#EarthDay","placeID":"2357024","placeName":"Atlanta","searchUrl":"http:\/\/twitter.com\/search?q=%23EarthDay","trendMapped":"earth+day","trendVolume":738983},{"stateName":"GA","trendName":"#LetsPlay1Dreamboy2","placeID":"2357024","placeName":"Atlanta","searchUrl":"http:\/\/twitter.com\/search?q=%23LetsPlay1Dreamboy2","trendMapped":"lets+play1+dreamboy2","trendVolume":790655},{"stateName":"GA","trendName":"Prince","placeID":"2357024","placeName":"Atlanta","searchUrl":"http:\/\/twitter.com\/search?q=Prince","trendMapped":"prince","trendVolume":7812714},{"stateName":"HI","trendName":"#EarthDay","placeID":"2423945","placeName":"Honolulu","searchUrl":"http:\/\/twitter.com\/search?q=%23EarthDay","trendMapped":"earth+day","trendVolume":819524},{"stateName":"HI","trendName":"#RIPPrince","placeID":"2423945","placeName":"Honolulu","searchUrl":"http:\/\/twitter.com\/search?q=%23RIPPrince","trendMapped":"rip+prince","trendVolume":672382},{"stateName":"HI","trendName":"Prince","placeID":"2423945","placeName":"Honolulu","searchUrl":"http:\/\/twitter.com\/search?q=Prince","trendMapped":"prince","trendVolume":8617092},{"stateName":"IL","trendName":"#EarthDay","placeID":"2379574","placeName":"Chicago","searchUrl":"http:\/\/twitter.com\/search?q=%23EarthDay","trendMapped":"earth+day","trendVolume":750715},{"stateName":"IL","trendName":"#LetsPlay1Dreamboy2","placeID":"2379574","placeName":"Chicago","searchUrl":"http:\/\/twitter.com\/search?q=%23LetsPlay1Dreamboy2","trendMapped":"lets+play1+dreamboy2","trendVolume":797636},{"stateName":"IL","trendName":"#PrinceRIP","placeID":"2379574","placeName":"Chicago","searchUrl":"http:\/\/twitter.com\/search?q=%23PrinceRIP","trendMapped":"prince+rip","trendVolume":126312},{"stateName":"IL","trendName":"Prince","placeID":"2379574","placeName":"Chicago","searchUrl":"http:\/\/twitter.com\/search?q=Prince","trendMapped":"prince","trendVolume":8185356},{"stateName":"IN","trendName":"#EarthDay","placeID":"2427032","placeName":"Indianapolis","searchUrl":"http:\/\/twitter.com\/search?q=%23EarthDay","trendMapped":"earth+day","trendVolume":326687},{"stateName":"IN","trendName":"#LetsPlay1Dreamboy2","placeID":"2427032","placeName":"Indianapolis","searchUrl":"http:\/\/twitter.com\/search?q=%23LetsPlay1Dreamboy2","trendMapped":"lets+play1+dreamboy2","trendVolume":794983},{"stateName":"IN","trendName":"Prince","placeID":"2427032","placeName":"Indianapolis","searchUrl":"http:\/\/twitter.com\/search?q=Prince","trendMapped":"prince","trendVolume":8595383},{"stateName":"KY","trendName":"Prince","placeID":"2442327","placeName":"Louisville","searchUrl":"http:\/\/twitter.com\/search?q=Prince","trendMapped":"prince","trendVolume":8432341},{"stateName":"LA","trendName":"#EarthDay","placeID":"2359991","placeName":"Baton Rouge","searchUrl":"http:\/\/twitter.com\/search?q=%23EarthDay","trendMapped":"earth+day","trendVolume":205509},{"stateName":"LA","trendName":"#LetsPlay1Dreamboy2","placeID":"2458833","placeName":"New Orleans","searchUrl":"http:\/\/twitter.com\/search?q=%23LetsPlay1Dreamboy2","trendMapped":"lets+play1+dreamboy2","trendVolume":799760},{"stateName":"LA","trendName":"#RIPPrince","placeID":"2359991","placeName":"Baton Rouge","searchUrl":"http:\/\/twitter.com\/search?q=%23RIPPrince","trendMapped":"rip+prince","trendVolume":786794},{"stateName":"LA","trendName":"Chyna","placeID":"2458833","placeName":"New Orleans","searchUrl":"http:\/\/twitter.com\/search?q=Chyna","trendMapped":"chyna","trendVolume":516601},{"stateName":"LA","trendName":"Harriet Tubman","placeID":"2458833","placeName":"New Orleans","searchUrl":"http:\/\/twitter.com\/search?q=%22Harriet+Tubman%22","trendMapped":"Harriet+Tubman","trendVolume":147712},{"stateName":"LA","trendName":"Prince","placeID":"2458833","placeName":"New Orleans","searchUrl":"http:\/\/twitter.com\/search?q=Prince","trendMapped":"prince","trendVolume":8595383},{"stateName":"MA","trendName":"#EarthDay","placeID":"2367105","placeName":"Boston","searchUrl":"http:\/\/twitter.com\/search?q=%23EarthDay","trendMapped":"earth+day","trendVolume":832817},{"stateName":"MA","trendName":"#LetsPlay1Dreamboy2","placeID":"2367105","placeName":"Boston","searchUrl":"http:\/\/twitter.com\/search?q=%23LetsPlay1Dreamboy2","trendMapped":"lets+play1+dreamboy2","trendVolume":634124},{"stateName":"MA","trendName":"#PrinceRIP","placeID":"2367105","placeName":"Boston","searchUrl":"http:\/\/twitter.com\/search?q=%23PrinceRIP","trendMapped":"prince+rip","trendVolume":131179},{"stateName":"MA","trendName":"#RIPPrince","placeID":"2367105","placeName":"Boston","searchUrl":"http:\/\/twitter.com\/search?q=%23RIPPrince","trendMapped":"rip+prince","trendVolume":773749},{"stateName":"MA","trendName":"Chyna","placeID":"2367105","placeName":"Boston","searchUrl":"http:\/\/twitter.com\/search?q=Chyna","trendMapped":"chyna","trendVolume":422135},{"stateName":"MA","trendName":"Prince","placeID":"2367105","placeName":"Boston","searchUrl":"http:\/\/twitter.com\/search?q=Prince","trendMapped":"prince","trendVolume":8343793},{"stateName":"MD","trendName":"#EarthDay","placeID":"2358820","placeName":"Baltimore","searchUrl":"http:\/\/twitter.com\/search?q=%23EarthDay","trendMapped":"earth+day","trendVolume":273445},{"stateName":"MD","trendName":"#LetsPlay1Dreamboy2","placeID":"2358820","placeName":"Baltimore","searchUrl":"http:\/\/twitter.com\/search?q=%23LetsPlay1Dreamboy2","trendMapped":"lets+play1+dreamboy2","trendVolume":790871},{"stateName":"MD","trendName":"Chyna","placeID":"2358820","placeName":"Baltimore","searchUrl":"http:\/\/twitter.com\/search?q=Chyna","trendMapped":"chyna","trendVolume":412206},{"stateName":"MD","trendName":"Prince","placeID":"2358820","placeName":"Baltimore","searchUrl":"http:\/\/twitter.com\/search?q=Prince","trendMapped":"prince","trendVolume":6643858},{"stateName":"MI","trendName":"#LetsPlay1Dreamboy2","placeID":"2391585","placeName":"Detroit","searchUrl":"http:\/\/twitter.com\/search?q=%23LetsPlay1Dreamboy2","trendMapped":"lets+play1+dreamboy2","trendVolume":793752},{"stateName":"MI","trendName":"#Prince","placeID":"2391585","placeName":"Detroit","searchUrl":"http:\/\/twitter.com\/search?q=%23Prince","trendMapped":"prince","trendVolume":831353},{"stateName":"MI","trendName":"Chyna","placeID":"2391585","placeName":"Detroit","searchUrl":"http:\/\/twitter.com\/search?q=Chyna","trendMapped":"chyna","trendVolume":413451},{"stateName":"MI","trendName":"Prince","placeID":"2391585","placeName":"Detroit","searchUrl":"http:\/\/twitter.com\/search?q=Prince","trendMapped":"prince","trendVolume":8089802},{"stateName":"MN","trendName":"#EarthDay","placeID":"2452078","placeName":"Minneapolis","searchUrl":"http:\/\/twitter.com\/search?q=%23EarthDay","trendMapped":"earth+day","trendVolume":795219},{"stateName":"MN","trendName":"#EarthDay2016","placeID":"2452078","placeName":"Minneapolis","searchUrl":"http:\/\/twitter.com\/search?q=%23EarthDay2016","trendMapped":"earth+day2016","trendVolume":66176},{"stateName":"MN","trendName":"#LetsPlay1Dreamboy2","placeID":"2452078","placeName":"Minneapolis","searchUrl":"http:\/\/twitter.com\/search?q=%23LetsPlay1Dreamboy2","trendMapped":"lets+play1+dreamboy2","trendVolume":799291},{"stateName":"MN","trendName":"#Prince","placeID":"2452078","placeName":"Minneapolis","searchUrl":"http:\/\/twitter.com\/search?q=%23Prince","trendMapped":"prince","trendVolume":837914},{"stateName":"MN","trendName":"#PrinceRIP","placeID":"2452078","placeName":"Minneapolis","searchUrl":"http:\/\/twitter.com\/search?q=%23PrinceRIP","trendMapped":"prince+rip","trendVolume":129237},{"stateName":"MN","trendName":"#RIPPrince","placeID":"2452078","placeName":"Minneapolis","searchUrl":"http:\/\/twitter.com\/search?q=%23RIPPrince","trendMapped":"rip+prince","trendVolume":766632},{"stateName":"MN","trendName":"Chyna","placeID":"2452078","placeName":"Minneapolis","searchUrl":"http:\/\/twitter.com\/search?q=Chyna","trendMapped":"chyna","trendVolume":413451},{"stateName":"MN","trendName":"Jake Arrieta","placeID":"2452078","placeName":"Minneapolis","searchUrl":"http:\/\/twitter.com\/search?q=%22Jake+Arrieta%22","trendMapped":"Jake+Arrieta","trendVolume":114314},{"stateName":"MN","trendName":"Prince","placeID":"2452078","placeName":"Minneapolis","searchUrl":"http:\/\/twitter.com\/search?q=Prince","trendMapped":"prince","trendVolume":8116228},{"stateName":"MO","trendName":"#LetsPlay1Dreamboy2","placeID":"2486982","placeName":"St. Louis","searchUrl":"http:\/\/twitter.com\/search?q=%23LetsPlay1Dreamboy2","trendMapped":"lets+play1+dreamboy2","trendVolume":795658},{"stateName":"MO","trendName":"#PrinceRIP","placeID":"2486982","placeName":"St. Louis","searchUrl":"http:\/\/twitter.com\/search?q=%23PrinceRIP","trendMapped":"prince+rip","trendVolume":126312},{"stateName":"MO","trendName":"Arrieta","placeID":"2430683","placeName":"Kansas City","searchUrl":"http:\/\/twitter.com\/search?q=Arrieta","trendMapped":"arrieta","trendVolume":172543},{"stateName":"MO","trendName":"Chyna","placeID":"2486982","placeName":"St. Louis","searchUrl":"http:\/\/twitter.com\/search?q=Chyna","trendMapped":"chyna","trendVolume":423027},{"stateName":"MO","trendName":"Jake Arrieta","placeID":"2486982","placeName":"St. Louis","searchUrl":"http:\/\/twitter.com\/search?q=%22Jake+Arrieta%22","trendMapped":"Jake+Arrieta","trendVolume":114467},{"stateName":"MO","trendName":"Prince","placeID":"2486982","placeName":"St. Louis","searchUrl":"http:\/\/twitter.com\/search?q=Prince","trendMapped":"prince","trendVolume":8584003},{"stateName":"MS","trendName":"Prince","placeID":"2428184","placeName":"Jackson","searchUrl":"http:\/\/twitter.com\/search?q=Prince","trendMapped":"prince","trendVolume":8595383},{"stateName":"NC","trendName":"#EarthDay","placeID":"2378426","placeName":"Charlotte","searchUrl":"http:\/\/twitter.com\/search?q=%23EarthDay","trendMapped":"earth+day","trendVolume":746808},{"stateName":"NC","trendName":"#LetsPlay1Dreamboy2","placeID":"2478307","placeName":"Raleigh","searchUrl":"http:\/\/twitter.com\/search?q=%23LetsPlay1Dreamboy2","trendMapped":"lets+play1+dreamboy2","trendVolume":797223},{"stateName":"NC","trendName":"#Prince","placeID":"2478307","placeName":"Raleigh","searchUrl":"http:\/\/twitter.com\/search?q=%23Prince","trendMapped":"prince","trendVolume":841349},{"stateName":"NC","trendName":"#PrinceRIP","placeID":"2378426","placeName":"Charlotte","searchUrl":"http:\/\/twitter.com\/search?q=%23PrinceRIP","trendMapped":"prince+rip","trendVolume":128488},{"stateName":"NC","trendName":"#RIPAmy","placeID":"2478307","placeName":"Raleigh","searchUrl":"http:\/\/twitter.com\/search?q=%23RIPAmy","trendMapped":"rip+amy","trendVolume":262982},{"stateName":"NC","trendName":"Chyna","placeID":"2478307","placeName":"Raleigh","searchUrl":"http:\/\/twitter.com\/search?q=Chyna","trendMapped":"chyna","trendVolume":511479},{"stateName":"NC","trendName":"Prince","placeID":"2478307","placeName":"Raleigh","searchUrl":"http:\/\/twitter.com\/search?q=Prince","trendMapped":"prince","trendVolume":8559477},{"stateName":"NE","trendName":"Prince","placeID":"2465512","placeName":"Omaha","searchUrl":"http:\/\/twitter.com\/search?q=Prince","trendMapped":"prince","trendVolume":8583283},{"stateName":"NM","trendName":"#EarthDay","placeID":"2352824","placeName":"Albuquerque","searchUrl":"http:\/\/twitter.com\/search?q=%23EarthDay","trendMapped":"earth+day","trendVolume":723872},{"stateName":"NM","trendName":"#LetsPlay1Dreamboy2","placeID":"2352824","placeName":"Albuquerque","searchUrl":"http:\/\/twitter.com\/search?q=%23LetsPlay1Dreamboy2","trendMapped":"lets+play1+dreamboy2","trendVolume":795658},{"stateName":"NM","trendName":"#Playing1Dreamboy2","placeID":"2352824","placeName":"Albuquerque","searchUrl":"http:\/\/twitter.com\/search?q=%23Playing1Dreamboy2","trendMapped":"playing1+dreamboy2","trendVolume":357989},{"stateName":"NM","trendName":"#PrinceRIP","placeID":"2352824","placeName":"Albuquerque","searchUrl":"http:\/\/twitter.com\/search?q=%23PrinceRIP","trendMapped":"prince+rip","trendVolume":130545},{"stateName":"NM","trendName":"Chyna","placeID":"2352824","placeName":"Albuquerque","searchUrl":"http:\/\/twitter.com\/search?q=Chyna","trendMapped":"chyna","trendVolume":412526},{"stateName":"NM","trendName":"Prince","placeID":"2352824","placeName":"Albuquerque","searchUrl":"http:\/\/twitter.com\/search?q=Prince","trendMapped":"prince","trendVolume":6389168},{"stateName":"NV","trendName":"#EarthDay","placeID":"2436704","placeName":"Las Vegas","searchUrl":"http:\/\/twitter.com\/search?q=%23EarthDay","trendMapped":"earth+day","trendVolume":763916},{"stateName":"NV","trendName":"#LetsPlay1Dreamboy2","placeID":"2436704","placeName":"Las Vegas","searchUrl":"http:\/\/twitter.com\/search?q=%23LetsPlay1Dreamboy2","trendMapped":"lets+play1+dreamboy2","trendVolume":798376},{"stateName":"NV","trendName":"#RIPAmy","placeID":"2436704","placeName":"Las Vegas","searchUrl":"http:\/\/twitter.com\/search?q=%23RIPAmy","trendMapped":"rip+amy","trendVolume":295097},{"stateName":"NV","trendName":"Prince","placeID":"2436704","placeName":"Las Vegas","searchUrl":"http:\/\/twitter.com\/search?q=Prince","trendMapped":"prince","trendVolume":8365226},{"stateName":"NY","trendName":"#EarthDay","placeID":"2459115","placeName":"New York","searchUrl":"http:\/\/twitter.com\/search?q=%23EarthDay","trendMapped":"earth+day","trendVolume":780179},{"stateName":"NY","trendName":"#LetsPlay1Dreamboy2","placeID":"2459115","placeName":"New York","searchUrl":"http:\/\/twitter.com\/search?q=%23LetsPlay1Dreamboy2","trendMapped":"lets+play1+dreamboy2","trendVolume":795289},{"stateName":"NY","trendName":"#Playing1Dreamboy2","placeID":"2459115","placeName":"New York","searchUrl":"http:\/\/twitter.com\/search?q=%23Playing1Dreamboy2","trendMapped":"playing1+dreamboy2","trendVolume":283979},{"stateName":"NY","trendName":"#PrinceRIP","placeID":"2459115","placeName":"New York","searchUrl":"http:\/\/twitter.com\/search?q=%23PrinceRIP","trendMapped":"prince+rip","trendVolume":116634},{"stateName":"NY","trendName":"Chyna","placeID":"2459115","placeName":"New York","searchUrl":"http:\/\/twitter.com\/search?q=Chyna","trendMapped":"chyna","trendVolume":423027},{"stateName":"OH","trendName":"#EarthDay","placeID":"2383660","placeName":"Columbus","searchUrl":"http:\/\/twitter.com\/search?q=%23EarthDay","trendMapped":"earth+day","trendVolume":307798},{"stateName":"OH","trendName":"#LetsPlay1Dreamboy2","placeID":"2381475","placeName":"Cleveland","searchUrl":"http:\/\/twitter.com\/search?q=%23LetsPlay1Dreamboy2","trendMapped":"lets+play1+dreamboy2","trendVolume":799760},{"stateName":"OH","trendName":"#Prince","placeID":"2381475","placeName":"Cleveland","searchUrl":"http:\/\/twitter.com\/search?q=%23Prince","trendMapped":"prince","trendVolume":841349},{"stateName":"OH","trendName":"#RIPPrince","placeID":"2380358","placeName":"Cincinnati","searchUrl":"http:\/\/twitter.com\/search?q=%23RIPPrince","trendMapped":"rip+prince","trendVolume":742506},{"stateName":"OH","trendName":"Chyna","placeID":"2381475","placeName":"Cleveland","searchUrl":"http:\/\/twitter.com\/search?q=Chyna","trendMapped":"chyna","trendVolume":412526},{"stateName":"OH","trendName":"Prince","placeID":"2383660","placeName":"Columbus","searchUrl":"http:\/\/twitter.com\/search?q=Prince","trendMapped":"prince","trendVolume":8617092},{"stateName":"OK","trendName":"#EarthDay","placeID":"2464592","placeName":"Oklahoma City","searchUrl":"http:\/\/twitter.com\/search?q=%23EarthDay","trendMapped":"earth+day","trendVolume":208891},{"stateName":"OK","trendName":"#LetsPlay1Dreamboy2","placeID":"2464592","placeName":"Oklahoma City","searchUrl":"http:\/\/twitter.com\/search?q=%23LetsPlay1Dreamboy2","trendMapped":"lets+play1+dreamboy2","trendVolume":799760},{"stateName":"OK","trendName":"Chyna","placeID":"2464592","placeName":"Oklahoma City","searchUrl":"http:\/\/twitter.com\/search?q=Chyna","trendMapped":"chyna","trendVolume":413451},{"stateName":"OK","trendName":"Prince","placeID":"2464592","placeName":"Oklahoma City","searchUrl":"http:\/\/twitter.com\/search?q=Prince","trendMapped":"prince","trendVolume":8560263},{"stateName":"OR","trendName":"#FreeOmid","placeID":"2475687","placeName":"Portland","searchUrl":"http:\/\/twitter.com\/search?q=%23FreeOmid","trendMapped":"free+omid","trendVolume":321978},{"stateName":"OR","trendName":"#LetsPlay1Dreamboy2","placeID":"2475687","placeName":"Portland","searchUrl":"http:\/\/twitter.com\/search?q=%23LetsPlay1Dreamboy2","trendMapped":"lets+play1+dreamboy2","trendVolume":797223},{"stateName":"OR","trendName":"Chyna","placeID":"2475687","placeName":"Portland","searchUrl":"http:\/\/twitter.com\/search?q=Chyna","trendMapped":"chyna","trendVolume":423027},{"stateName":"OR","trendName":"Prince","placeID":"2475687","placeName":"Portland","searchUrl":"http:\/\/twitter.com\/search?q=Prince","trendMapped":"prince","trendVolume":8617092},{"stateName":"PA","trendName":"#EarthDay","placeID":"2471217","placeName":"Philadelphia","searchUrl":"http:\/\/twitter.com\/search?q=%23EarthDay","trendMapped":"earth+day","trendVolume":750715},{"stateName":"PA","trendName":"#LetsPlay1Dreamboy2","placeID":"2473224","placeName":"Pittsburgh","searchUrl":"http:\/\/twitter.com\/search?q=%23LetsPlay1Dreamboy2","trendMapped":"lets+play1+dreamboy2","trendVolume":799760},{"stateName":"PA","trendName":"#Playing1Dreamboy2","placeID":"2471217","placeName":"Philadelphia","searchUrl":"http:\/\/twitter.com\/search?q=%23Playing1Dreamboy2","trendMapped":"playing1+dreamboy2","trendVolume":366898},{"stateName":"PA","trendName":"#PrinceRIP","placeID":"2471217","placeName":"Philadelphia","searchUrl":"http:\/\/twitter.com\/search?q=%23PrinceRIP","trendMapped":"prince+rip","trendVolume":121966},{"stateName":"PA","trendName":"Prince","placeID":"2473224","placeName":"Pittsburgh","searchUrl":"http:\/\/twitter.com\/search?q=Prince","trendMapped":"prince","trendVolume":8559477},{"stateName":"PA","trendName":"The Game","placeID":"2471217","placeName":"Philadelphia","searchUrl":"http:\/\/twitter.com\/search?q=%22The+Game%22","trendMapped":"The+Game","trendVolume":126601},{"stateName":"RI","trendName":"#LetsPlay1Dreamboy2","placeID":"2477058","placeName":"Providence","searchUrl":"http:\/\/twitter.com\/search?q=%23LetsPlay1Dreamboy2","trendMapped":"lets+play1+dreamboy2","trendVolume":798376},{"stateName":"RI","trendName":"Chyna","placeID":"2477058","placeName":"Providence","searchUrl":"http:\/\/twitter.com\/search?q=Chyna","trendMapped":"chyna","trendVolume":412022},{"stateName":"RI","trendName":"Prince","placeID":"2477058","placeName":"Providence","searchUrl":"http:\/\/twitter.com\/search?q=Prince","trendMapped":"prince","trendVolume":8559477},{"stateName":"TN","trendName":"#LetsPlay1Dreamboy2","placeID":"2457170","placeName":"Nashville","searchUrl":"http:\/\/twitter.com\/search?q=%23LetsPlay1Dreamboy2","trendMapped":"lets+play1+dreamboy2","trendVolume":798376},{"stateName":"TN","trendName":"#RIPAmy","placeID":"2457170","placeName":"Nashville","searchUrl":"http:\/\/twitter.com\/search?q=%23RIPAmy","trendMapped":"rip+amy","trendVolume":260336},{"stateName":"TN","trendName":"#RIPChyna","placeID":"2449323","placeName":"Memphis","searchUrl":"http:\/\/twitter.com\/search?q=%23RIPChyna","trendMapped":"rip+chyna","trendVolume":184122},{"stateName":"TN","trendName":"Chyna","placeID":"2457170","placeName":"Nashville","searchUrl":"http:\/\/twitter.com\/search?q=Chyna","trendMapped":"chyna","trendVolume":422382},{"stateName":"TN","trendName":"Cubs","placeID":"2449323","placeName":"Memphis","searchUrl":"http:\/\/twitter.com\/search?q=Cubs","trendMapped":"cubs","trendVolume":171157},{"stateName":"TN","trendName":"Prince","placeID":"2457170","placeName":"Nashville","searchUrl":"http:\/\/twitter.com\/search?q=Prince","trendMapped":"prince","trendVolume":8559477},{"stateName":"TX","trendName":"#EarthDay","placeID":"2487796","placeName":"San Antonio","searchUrl":"http:\/\/twitter.com\/search?q=%23EarthDay","trendMapped":"earth+day","trendVolume":816756},{"stateName":"TX","trendName":"#LetsPlay1Dreamboy2","placeID":"2424766","placeName":"Houston","searchUrl":"http:\/\/twitter.com\/search?q=%23LetsPlay1Dreamboy2","trendMapped":"lets+play1+dreamboy2","trendVolume":797636},{"stateName":"TX","trendName":"#Prince","placeID":"2397816","placeName":"El Paso","searchUrl":"http:\/\/twitter.com\/search?q=%23Prince","trendMapped":"prince","trendVolume":1078027},{"stateName":"TX","trendName":"#PrinceRIP","placeID":"2424766","placeName":"Houston","searchUrl":"http:\/\/twitter.com\/search?q=%23PrinceRIP","trendMapped":"prince+rip","trendVolume":121966},{"stateName":"TX","trendName":"#RIPAmy","placeID":"2388929","placeName":"Dallas-Ft. Worth","searchUrl":"http:\/\/twitter.com\/search?q=%23RIPAmy","trendMapped":"rip+amy","trendVolume":266158},{"stateName":"TX","trendName":"Chyna","placeID":"2388929","placeName":"Dallas-Ft. Worth","searchUrl":"http:\/\/twitter.com\/search?q=Chyna","trendMapped":"chyna","trendVolume":423397},{"stateName":"TX","trendName":"Jake Arrieta","placeID":"2424766","placeName":"Houston","searchUrl":"http:\/\/twitter.com\/search?q=%22Jake+Arrieta%22","trendMapped":"Jake+Arrieta","trendVolume":114467},{"stateName":"TX","trendName":"Prince","placeID":"2487796","placeName":"San Antonio","searchUrl":"http:\/\/twitter.com\/search?q=Prince","trendMapped":"prince","trendVolume":8583283},{"stateName":"TX","trendName":"Warriors","placeID":"2388929","placeName":"Dallas-Ft. Worth","searchUrl":"http:\/\/twitter.com\/search?q=Warriors","trendMapped":"warriors","trendVolume":136397},{"stateName":"UT","trendName":"#FreeOmid","placeID":"2487610","placeName":"Salt Lake City","searchUrl":"http:\/\/twitter.com\/search?q=%23FreeOmid","trendMapped":"free+omid","trendVolume":304454},{"stateName":"UT","trendName":"#LetsPlay1Dreamboy2","placeID":"2487610","placeName":"Salt Lake City","searchUrl":"http:\/\/twitter.com\/search?q=%23LetsPlay1Dreamboy2","trendMapped":"lets+play1+dreamboy2","trendVolume":793752},{"stateName":"UT","trendName":"Chyna","placeID":"2487610","placeName":"Salt Lake City","searchUrl":"http:\/\/twitter.com\/search?q=Chyna","trendMapped":"chyna","trendVolume":399119},{"stateName":"UT","trendName":"Prince","placeID":"2487610","placeName":"Salt Lake City","searchUrl":"http:\/\/twitter.com\/search?q=Prince","trendMapped":"prince","trendVolume":8533208},{"stateName":"VA","trendName":"#EarthDay","placeID":"2512636","placeName":"Virginia Beach","searchUrl":"http:\/\/twitter.com\/search?q=%23EarthDay","trendMapped":"earth+day","trendVolume":780179},{"stateName":"VA","trendName":"#HappyBirthdayYourMajesty","placeID":"2460389","placeName":"Norfolk","searchUrl":"http:\/\/twitter.com\/search?q=%23HappyBirthdayYourMajesty","trendMapped":"happy+birthday+your+majesty","trendVolume":157329},{"stateName":"VA","trendName":"#LetsPlay1Dreamboy2","placeID":"2512636","placeName":"Virginia Beach","searchUrl":"http:\/\/twitter.com\/search?q=%23LetsPlay1Dreamboy2","trendMapped":"lets+play1+dreamboy2","trendVolume":799291},{"stateName":"VA","trendName":"#Playing1Dreamboy2","placeID":"2512636","placeName":"Virginia Beach","searchUrl":"http:\/\/twitter.com\/search?q=%23Playing1Dreamboy2","trendMapped":"playing1+dreamboy2","trendVolume":283979},{"stateName":"VA","trendName":"#PrinceRIP","placeID":"2512636","placeName":"Virginia Beach","searchUrl":"http:\/\/twitter.com\/search?q=%23PrinceRIP","trendMapped":"prince+rip","trendVolume":128488},{"stateName":"VA","trendName":"#RIPChyna","placeID":"2460389","placeName":"Norfolk","searchUrl":"http:\/\/twitter.com\/search?q=%23RIPChyna","trendMapped":"rip+chyna","trendVolume":173025},{"stateName":"VA","trendName":"Chyna","placeID":"2480894","placeName":"Richmond","searchUrl":"http:\/\/twitter.com\/search?q=Chyna","trendMapped":"chyna","trendVolume":412022},{"stateName":"VA","trendName":"Harriet Tubman","placeID":"2480894","placeName":"Richmond","searchUrl":"http:\/\/twitter.com\/search?q=%22Harriet+Tubman%22","trendMapped":"Harriet+Tubman","trendVolume":151170},{"stateName":"VA","trendName":"Prince","placeID":"2480894","placeName":"Richmond","searchUrl":"http:\/\/twitter.com\/search?q=Prince","trendMapped":"prince","trendVolume":8595383},{"stateName":"WA","trendName":"#EarthDay","placeID":"2490383","placeName":"Seattle","searchUrl":"http:\/\/twitter.com\/search?q=%23EarthDay","trendMapped":"earth+day","trendVolume":738983},{"stateName":"WA","trendName":"#LetsPlay1Dreamboy2","placeID":"2490383","placeName":"Seattle","searchUrl":"http:\/\/twitter.com\/search?q=%23LetsPlay1Dreamboy2","trendMapped":"lets+play1+dreamboy2","trendVolume":799760},{"stateName":"WA","trendName":"#PrinceRIP","placeID":"2490383","placeName":"Seattle","searchUrl":"http:\/\/twitter.com\/search?q=%23PrinceRIP","trendMapped":"prince+rip","trendVolume":129237},{"stateName":"WA","trendName":"#RIPPrince","placeID":"2490383","placeName":"Seattle","searchUrl":"http:\/\/twitter.com\/search?q=%23RIPPrince","trendMapped":"rip+prince","trendVolume":752729},{"stateName":"WA","trendName":"Chyna","placeID":"2490383","placeName":"Seattle","searchUrl":"http:\/\/twitter.com\/search?q=Chyna","trendMapped":"chyna","trendVolume":422382},{"stateName":"WA","trendName":"Prince","placeID":"2490383","placeName":"Seattle","searchUrl":"http:\/\/twitter.com\/search?q=Prince","trendMapped":"prince","trendVolume":8559477},{"stateName":"WI","trendName":"#EarthDay","placeID":"2451822","placeName":"Milwaukee","searchUrl":"http:\/\/twitter.com\/search?q=%23EarthDay","trendMapped":"earth+day","trendVolume":175583},{"stateName":"WI","trendName":"#LetsPlay1Dreamboy2","placeID":"2451822","placeName":"Milwaukee","searchUrl":"http:\/\/twitter.com\/search?q=%23LetsPlay1Dreamboy2","trendMapped":"lets+play1+dreamboy2","trendVolume":794443},{"stateName":"WI","trendName":"#RIPAmy","placeID":"2451822","placeName":"Milwaukee","searchUrl":"http:\/\/twitter.com\/search?q=%23RIPAmy","trendMapped":"rip+amy","trendVolume":266158},{"stateName":"WI","trendName":"Chyna","placeID":"2451822","placeName":"Milwaukee","searchUrl":"http:\/\/twitter.com\/search?q=Chyna","trendMapped":"chyna","trendVolume":421953},{"stateName":"WI","trendName":"Michael Jackson","placeID":"2451822","placeName":"Milwaukee","searchUrl":"http:\/\/twitter.com\/search?q=%22Michael+Jackson%22","trendMapped":"Michael+Jackson","trendVolume":140617},{"stateName":"WI","trendName":"Prince","placeID":"2451822","placeName":"Milwaukee","searchUrl":"http:\/\/twitter.com\/search?q=Prince","trendMapped":"prince","trendVolume":8511015},{"stateName":"XX","trendName":"#EarthDay","placeID":"23424977","placeName":"United States","searchUrl":"http:\/\/twitter.com\/search?q=%23EarthDay","trendMapped":"earth+day","trendVolume":763916},{"stateName":"XX","trendName":"#LetsPlay1Dreamboy2","placeID":"23424977","placeName":"United States","searchUrl":"http:\/\/twitter.com\/search?q=%23LetsPlay1Dreamboy2","trendMapped":"lets+play1+dreamboy2","trendVolume":793752},{"stateName":"XX","trendName":"#PrinceRIP","placeID":"23424977","placeName":"United States","searchUrl":"http:\/\/twitter.com\/search?q=%23PrinceRIP","trendMapped":"prince+rip","trendVolume":119275},{"stateName":"XX","trendName":"#RIPAmy","placeID":"23424977","placeName":"United States","searchUrl":"http:\/\/twitter.com\/search?q=%23RIPAmy","trendMapped":"rip+amy","trendVolume":266158},{"stateName":"XX","trendName":"Chyna","placeID":"23424977","placeName":"United States","searchUrl":"http:\/\/twitter.com\/search?q=Chyna","trendMapped":"chyna","trendVolume":423397},{"stateName":"XX","trendName":"Jake Arrieta","placeID":"23424977","placeName":"United States","searchUrl":"http:\/\/twitter.com\/search?q=%22Jake+Arrieta%22","trendMapped":"Jake+Arrieta","trendVolume":114467},{"stateName":"XX","trendName":"Prince","placeID":"23424977","placeName":"United States","searchUrl":"http:\/\/twitter.com\/search?q=Prince","trendMapped":"prince","trendVolume":6389168}]